<?xml version="1.0" encoding="UTF-8"?>
<gpx xmlns="http://www.topografix.com/GPX/1/1" xmlns:xsi="http://www.w3.org/2001/XMLSchema-instance" xsi:schemaLocation="http://www.topografix.com/GPX/1/1 http://www.topografix.com/GPX/1/1/gpx.xsd" version="1.1" creator="gpx.py -- https://github.com/tkrajina/gpxpy">
  <wpt lat="27.236798" lon="77.4862414">
    <name>Bharatpur Junction</name>
  </wpt>
  <wpt lat="27.1648982" lon="77.9908329">
    <name>Agra Cantt.</name>
  </wpt>
  <wpt lat="27.0407796" lon="76.5682304">
    <name>Bandikui Junction</name>
  </wpt>
  <wpt lat="26.9017368" lon="76.3340991">
    <name>Dausa</name>
  </wpt>
  <wpt lat="26.9204954" lon="75.7866329">
    <name>Jaipur Junction</name>
  </wpt>
  <trk>
    <name>agra_-_jaipur__vies_regionals_</name>
    <trkseg>
      <trkpt lat="27.236798" lon="77.4862414">
      </trkpt>
      <trkpt lat="27.2363043" lon="77.4912407">
      </trkpt>
      <trkpt lat="27.2362695" lon="77.4915711">
      </trkpt>
      <trkpt lat="27.2362435" lon="77.4917343">
      </trkpt>
      <trkpt lat="27.2361796" lon="77.4920463">
      </trkpt>
      <trkpt lat="27.2359742" lon="77.492736">
      </trkpt>
      <trkpt lat="27.2359082" lon="77.4929966">
      </trkpt>
      <trkpt lat="27.2357964" lon="77.4934218">
      </trkpt>
      <trkpt lat="27.23455" lon="77.4983261">
      </trkpt>
      <trkpt lat="27.2345428" lon="77.4983481">
      </trkpt>
      <trkpt lat="27.2319737" lon="77.5096073">
      </trkpt>
      <trkpt lat="27.2306301" lon="77.5156589">
      </trkpt>
      <trkpt lat="27.2304276" lon="77.5165512">
      </trkpt>
      <trkpt lat="27.229998" lon="77.5183343">
      </trkpt>
      <trkpt lat="27.2298759" lon="77.5189086">
      </trkpt>
      <trkpt lat="27.2284369" lon="77.5259097">
      </trkpt>
      <trkpt lat="27.2269598" lon="77.5328017">
      </trkpt>
      <trkpt lat="27.2269554" lon="77.532822">
      </trkpt>
      <trkpt lat="27.2264136" lon="77.5353496">
      </trkpt>
      <trkpt lat="27.2220595" lon="77.5562774">
      </trkpt>
      <trkpt lat="27.2183913" lon="77.5742857">
      </trkpt>
      <trkpt lat="27.2145657" lon="77.5929587">
      </trkpt>
      <trkpt lat="27.2117524" lon="77.6066877">
      </trkpt>
      <trkpt lat="27.2109839" lon="77.6102424">
      </trkpt>
      <trkpt lat="27.2078295" lon="77.6256772">
      </trkpt>
      <trkpt lat="27.2045249" lon="77.6417672">
      </trkpt>
      <trkpt lat="27.2043953" lon="77.6423275">
      </trkpt>
      <trkpt lat="27.2035085" lon="77.6462731">
      </trkpt>
      <trkpt lat="27.2010952" lon="77.6570098">
      </trkpt>
      <trkpt lat="27.2009515" lon="77.6575997">
      </trkpt>
      <trkpt lat="27.1983231" lon="77.6690283">
      </trkpt>
      <trkpt lat="27.192474" lon="77.6944596">
      </trkpt>
      <trkpt lat="27.1924477" lon="77.6946178">
      </trkpt>
      <trkpt lat="27.1924209" lon="77.6947142">
      </trkpt>
      <trkpt lat="27.1906891" lon="77.7022486">
      </trkpt>
      <trkpt lat="27.1881713" lon="77.7131042">
      </trkpt>
      <trkpt lat="27.1860124" lon="77.7226138">
      </trkpt>
      <trkpt lat="27.1858517" lon="77.7235269">
      </trkpt>
      <trkpt lat="27.185717" lon="77.7242923">
      </trkpt>
      <trkpt lat="27.1843427" lon="77.733047">
      </trkpt>
      <trkpt lat="27.1831796" lon="77.7404292">
      </trkpt>
      <trkpt lat="27.1827446" lon="77.74319">
      </trkpt>
      <trkpt lat="27.1818492" lon="77.7490706">
      </trkpt>
      <trkpt lat="27.1817757" lon="77.7499705">
      </trkpt>
      <trkpt lat="27.181746" lon="77.7507">
      </trkpt>
      <trkpt lat="27.1817375" lon="77.7525669">
      </trkpt>
      <trkpt lat="27.1817439" lon="77.7553698">
      </trkpt>
      <trkpt lat="27.1817488" lon="77.7563511">
      </trkpt>
      <trkpt lat="27.1817459" lon="77.7566305">
      </trkpt>
      <trkpt lat="27.1818089" lon="77.7655917">
      </trkpt>
      <trkpt lat="27.1818121" lon="77.7659515">
      </trkpt>
      <trkpt lat="27.1818151" lon="77.7669248">
      </trkpt>
      <trkpt lat="27.1818234" lon="77.7678126">
      </trkpt>
      <trkpt lat="27.1818091" lon="77.7686146">
      </trkpt>
      <trkpt lat="27.1817669" lon="77.7708202">
      </trkpt>
      <trkpt lat="27.1818891" lon="77.7989026">
      </trkpt>
      <trkpt lat="27.181776" lon="77.804612">
      </trkpt>
      <trkpt lat="27.1817751" lon="77.8048797">
      </trkpt>
      <trkpt lat="27.18176" lon="77.8054641">
      </trkpt>
      <trkpt lat="27.1816758" lon="77.8087335">
      </trkpt>
      <trkpt lat="27.181546" lon="77.8147331">
      </trkpt>
      <trkpt lat="27.181538" lon="77.8151604">
      </trkpt>
      <trkpt lat="27.1813857" lon="77.8225008">
      </trkpt>
      <trkpt lat="27.1812864" lon="77.8269725">
      </trkpt>
      <trkpt lat="27.1811795" lon="77.830277">
      </trkpt>
      <trkpt lat="27.1810726" lon="77.8324142">
      </trkpt>
      <trkpt lat="27.1809883" lon="77.834495">
      </trkpt>
      <trkpt lat="27.1809692" lon="77.8347874">
      </trkpt>
      <trkpt lat="27.180645" lon="77.8388687">
      </trkpt>
      <trkpt lat="27.1805446" lon="77.8409465">
      </trkpt>
      <trkpt lat="27.180332" lon="77.8451343">
      </trkpt>
      <trkpt lat="27.1801335" lon="77.8487649">
      </trkpt>
      <trkpt lat="27.1801019" lon="77.8493733">
      </trkpt>
      <trkpt lat="27.1794426" lon="77.8624114">
      </trkpt>
      <trkpt lat="27.1791046" lon="77.8686862">
      </trkpt>
      <trkpt lat="27.178847" lon="77.873967">
      </trkpt>
      <trkpt lat="27.1785063" lon="77.8800539">
      </trkpt>
      <trkpt lat="27.1784537" lon="77.8806682">
      </trkpt>
      <trkpt lat="27.1783072" lon="77.8835378">
      </trkpt>
      <trkpt lat="27.1783032" lon="77.8836162">
      </trkpt>
      <trkpt lat="27.1780533" lon="77.8885129">
      </trkpt>
      <trkpt lat="27.1779574" lon="77.8903928">
      </trkpt>
      <trkpt lat="27.1776424" lon="77.8963516">
      </trkpt>
      <trkpt lat="27.1771949" lon="77.9056091">
      </trkpt>
      <trkpt lat="27.1772077" lon="77.9058155">
      </trkpt>
      <trkpt lat="27.1772082" lon="77.9058891">
      </trkpt>
      <trkpt lat="27.1771952" lon="77.9060888">
      </trkpt>
      <trkpt lat="27.1771349" lon="77.9073038">
      </trkpt>
      <trkpt lat="27.177093" lon="77.9078151">
      </trkpt>
      <trkpt lat="27.176645" lon="77.9169892">
      </trkpt>
      <trkpt lat="27.1766145" lon="77.9175715">
      </trkpt>
      <trkpt lat="27.1765955" lon="77.9179936">
      </trkpt>
      <trkpt lat="27.1765076" lon="77.9193739">
      </trkpt>
      <trkpt lat="27.1763792" lon="77.9210234">
      </trkpt>
      <trkpt lat="27.1757497" lon="77.9324196">
      </trkpt>
      <trkpt lat="27.1756919" lon="77.934153">
      </trkpt>
      <trkpt lat="27.1756352" lon="77.9350655">
      </trkpt>
      <trkpt lat="27.1755536" lon="77.935966">
      </trkpt>
      <trkpt lat="27.1753497" lon="77.9380896">
      </trkpt>
      <trkpt lat="27.1751676" lon="77.9395759">
      </trkpt>
      <trkpt lat="27.1751448" lon="77.9397515">
      </trkpt>
      <trkpt lat="27.1742226" lon="77.9486679">
      </trkpt>
      <trkpt lat="27.1732317" lon="77.9582796">
      </trkpt>
      <trkpt lat="27.1730024" lon="77.9604342">
      </trkpt>
      <trkpt lat="27.1728099" lon="77.962269">
      </trkpt>
      <trkpt lat="27.1727772" lon="77.962581">
      </trkpt>
      <trkpt lat="27.1717484" lon="77.9726809">
      </trkpt>
      <trkpt lat="27.1714584" lon="77.9751694">
      </trkpt>
      <trkpt lat="27.1714763" lon="77.9753674">
      </trkpt>
      <trkpt lat="27.1714343" lon="77.9758636">
      </trkpt>
      <trkpt lat="27.1714089" lon="77.9763266">
      </trkpt>
      <trkpt lat="27.1713918" lon="77.9768067">
      </trkpt>
      <trkpt lat="27.1713919" lon="77.9772253">
      </trkpt>
      <trkpt lat="27.1714007" lon="77.9776504">
      </trkpt>
      <trkpt lat="27.17152" lon="77.9801911">
      </trkpt>
      <trkpt lat="27.1716444" lon="77.9829227">
      </trkpt>
      <trkpt lat="27.1717793" lon="77.9856271">
      </trkpt>
      <trkpt lat="27.1718844" lon="77.9885392">
      </trkpt>
      <trkpt lat="27.1718941" lon="77.9887054">
      </trkpt>
      <trkpt lat="27.1719741" lon="77.9900375">
      </trkpt>
      <trkpt lat="27.1719813" lon="77.990149">
      </trkpt>
      <trkpt lat="27.1720714" lon="77.9915357">
      </trkpt>
      <trkpt lat="27.17215" lon="77.9926902">
      </trkpt>
      <trkpt lat="27.1721697" lon="77.9932852">
      </trkpt>
      <trkpt lat="27.1722076" lon="77.9945744">
      </trkpt>
      <trkpt lat="27.1722243" lon="77.9949821">
      </trkpt>
      <trkpt lat="27.172248" lon="77.9953779">
      </trkpt>
      <trkpt lat="27.1722934" lon="77.9957954">
      </trkpt>
      <trkpt lat="27.1723354" lon="77.9960632">
      </trkpt>
      <trkpt lat="27.1723842" lon="77.9963515">
      </trkpt>
      <trkpt lat="27.1724523" lon="77.9966535">
      </trkpt>
      <trkpt lat="27.1725263" lon="77.9969586">
      </trkpt>
      <trkpt lat="27.1726488" lon="77.9973715">
      </trkpt>
      <trkpt lat="27.1740867" lon="78.001847">
      </trkpt>
      <trkpt lat="27.1744904" lon="78.0031858">
      </trkpt>
      <trkpt lat="27.1746224" lon="78.0037295">
      </trkpt>
      <trkpt lat="27.1747024" lon="78.0039729">
      </trkpt>
      <trkpt lat="27.1748038" lon="78.0042218">
      </trkpt>
      <trkpt lat="27.1749375" lon="78.0044984">
      </trkpt>
      <trkpt lat="27.1750593" lon="78.0047087">
      </trkpt>
      <trkpt lat="27.175221" lon="78.0049358">
      </trkpt>
      <trkpt lat="27.1753899" lon="78.005158">
      </trkpt>
      <trkpt lat="27.1756381" lon="78.0054449">
      </trkpt>
      <trkpt lat="27.1757714" lon="78.0056425">
      </trkpt>
      <trkpt lat="27.1758771" lon="78.0058324">
      </trkpt>
      <trkpt lat="27.1759794" lon="78.0060843">
      </trkpt>
      <trkpt lat="27.1760612" lon="78.0063853">
      </trkpt>
      <trkpt lat="27.1761336" lon="78.0066863">
      </trkpt>
      <trkpt lat="27.1761842" lon="78.0070621">
      </trkpt>
      <trkpt lat="27.176206" lon="78.0072921">
      </trkpt>
      <trkpt lat="27.1762508" lon="78.0075426">
      </trkpt>
      <trkpt lat="27.1763266" lon="78.0078346">
      </trkpt>
      <trkpt lat="27.1764967" lon="78.0083151">
      </trkpt>
      <trkpt lat="27.1766415" lon="78.0086522">
      </trkpt>
      <trkpt lat="27.1767817" lon="78.008917">
      </trkpt>
      <trkpt lat="27.1770483" lon="78.0093639">
      </trkpt>
      <trkpt lat="27.1772091" lon="78.0096468">
      </trkpt>
      <trkpt lat="27.1773344" lon="78.009887">
      </trkpt>
      <trkpt lat="27.1775389" lon="78.0103016">
      </trkpt>
      <trkpt lat="27.1783453" lon="78.0121135">
      </trkpt>
      <trkpt lat="27.1786004" lon="78.0127091">
      </trkpt>
      <trkpt lat="27.1787483" lon="78.0130452">
      </trkpt>
      <trkpt lat="27.1789195" lon="78.013403">
      </trkpt>
      <trkpt lat="27.1790668" lon="78.0137046">
      </trkpt>
      <trkpt lat="27.1793271" lon="78.0141617">
      </trkpt>
      <trkpt lat="27.1795876" lon="78.014592">
      </trkpt>
      <trkpt lat="27.1797274" lon="78.0148043">
      </trkpt>
      <trkpt lat="27.1798609" lon="78.0150124">
      </trkpt>
      <trkpt lat="27.1800142" lon="78.0152209">
      </trkpt>
      <trkpt lat="27.1802029" lon="78.0154405">
      </trkpt>
      <trkpt lat="27.1804576" lon="78.0157222">
      </trkpt>
      <trkpt lat="27.1806798" lon="78.0159487">
      </trkpt>
      <trkpt lat="27.1811543" lon="78.0164061">
      </trkpt>
      <trkpt lat="27.1813529" lon="78.0165977">
      </trkpt>
      <trkpt lat="27.1814915" lon="78.0167592">
      </trkpt>
      <trkpt lat="27.1816147" lon="78.0169186">
      </trkpt>
      <trkpt lat="27.1829513" lon="78.0188076">
      </trkpt>
      <trkpt lat="27.1833073" lon="78.0193107">
      </trkpt>
      <trkpt lat="27.1834683" lon="78.0195589">
      </trkpt>
      <trkpt lat="27.1835897" lon="78.0197973">
      </trkpt>
      <trkpt lat="27.1836824" lon="78.0200418">
      </trkpt>
      <trkpt lat="27.183739" lon="78.0202414">
      </trkpt>
      <trkpt lat="27.1837943" lon="78.0204855">
      </trkpt>
      <trkpt lat="27.1838349" lon="78.0207025">
      </trkpt>
      <trkpt lat="27.1838816" lon="78.021009">
      </trkpt>
      <trkpt lat="27.1839202" lon="78.0214316">
      </trkpt>
      <trkpt lat="27.1839335" lon="78.0218312">
      </trkpt>
      <trkpt lat="27.1839464" lon="78.0224677">
      </trkpt>
      <trkpt lat="27.1838871" lon="78.0216969">
      </trkpt>
      <trkpt lat="27.1838544" lon="78.0212723">
      </trkpt>
      <trkpt lat="27.1838295" lon="78.0210327">
      </trkpt>
      <trkpt lat="27.1837834" lon="78.0207457">
      </trkpt>
      <trkpt lat="27.183681" lon="78.0202819">
      </trkpt>
      <trkpt lat="27.18363" lon="78.0200618">
      </trkpt>
      <trkpt lat="27.1835377" lon="78.0198102">
      </trkpt>
      <trkpt lat="27.1834283" lon="78.0196021">
      </trkpt>
      <trkpt lat="27.1832585" lon="78.0193422">
      </trkpt>
      <trkpt lat="27.1829933" lon="78.0189637">
      </trkpt>
      <trkpt lat="27.181575" lon="78.0169393">
      </trkpt>
      <trkpt lat="27.1814601" lon="78.0167905">
      </trkpt>
      <trkpt lat="27.1813197" lon="78.0166365">
      </trkpt>
      <trkpt lat="27.1811766" lon="78.0164912">
      </trkpt>
      <trkpt lat="27.1805211" lon="78.0158622">
      </trkpt>
      <trkpt lat="27.1804147" lon="78.0157493">
      </trkpt>
      <trkpt lat="27.1801678" lon="78.0154634">
      </trkpt>
      <trkpt lat="27.1800115" lon="78.0152931">
      </trkpt>
      <trkpt lat="27.1798566" lon="78.0150831">
      </trkpt>
      <trkpt lat="27.1797162" lon="78.0148663">
      </trkpt>
      <trkpt lat="27.1794071" lon="78.0143681">
      </trkpt>
      <trkpt lat="27.1792286" lon="78.0140723">
      </trkpt>
      <trkpt lat="27.179115" lon="78.0138981">
      </trkpt>
      <trkpt lat="27.1789003" lon="78.0134993">
      </trkpt>
      <trkpt lat="27.1787703" lon="78.013231">
      </trkpt>
      <trkpt lat="27.1785623" lon="78.012741">
      </trkpt>
      <trkpt lat="27.1783053" lon="78.012165">
      </trkpt>
      <trkpt lat="27.1774953" lon="78.0103343">
      </trkpt>
      <trkpt lat="27.1772986" lon="78.0099191">
      </trkpt>
      <trkpt lat="27.1771744" lon="78.0096766">
      </trkpt>
      <trkpt lat="27.1770238" lon="78.0094185">
      </trkpt>
      <trkpt lat="27.1767936" lon="78.0090317">
      </trkpt>
      <trkpt lat="27.1765977" lon="78.0086828">
      </trkpt>
      <trkpt lat="27.1764482" lon="78.0083418">
      </trkpt>
      <trkpt lat="27.1763311" lon="78.007999">
      </trkpt>
      <trkpt lat="27.1762832" lon="78.0078478">
      </trkpt>
      <trkpt lat="27.176214" lon="78.0075659">
      </trkpt>
      <trkpt lat="27.1761665" lon="78.0072993">
      </trkpt>
      <trkpt lat="27.1761448" lon="78.0070606">
      </trkpt>
      <trkpt lat="27.1760934" lon="78.0067127">
      </trkpt>
      <trkpt lat="27.176021" lon="78.0064043">
      </trkpt>
      <trkpt lat="27.1759366" lon="78.0061073">
      </trkpt>
      <trkpt lat="27.1758353" lon="78.0058618">
      </trkpt>
      <trkpt lat="27.1757311" lon="78.0056731">
      </trkpt>
      <trkpt lat="27.1756035" lon="78.0054866">
      </trkpt>
      <trkpt lat="27.1753548" lon="78.0051868">
      </trkpt>
      <trkpt lat="27.1751759" lon="78.0049582">
      </trkpt>
      <trkpt lat="27.1750127" lon="78.0047338">
      </trkpt>
      <trkpt lat="27.1747495" lon="78.0042635">
      </trkpt>
      <trkpt lat="27.1746293" lon="78.0039877">
      </trkpt>
      <trkpt lat="27.1744754" lon="78.0035231">
      </trkpt>
      <trkpt lat="27.1743622" lon="78.0031768">
      </trkpt>
      <trkpt lat="27.1741924" lon="78.0026533">
      </trkpt>
      <trkpt lat="27.1740746" lon="78.002158">
      </trkpt>
      <trkpt lat="27.1740363" lon="78.0020067">
      </trkpt>
      <trkpt lat="27.1734638" lon="78.0002068">
      </trkpt>
      <trkpt lat="27.1734023" lon="78.0000295">
      </trkpt>
      <trkpt lat="27.17325" lon="77.9997005">
      </trkpt>
      <trkpt lat="27.1731398" lon="77.9994314">
      </trkpt>
      <trkpt lat="27.1730349" lon="77.9991815">
      </trkpt>
      <trkpt lat="27.1729609" lon="77.9989574">
      </trkpt>
      <trkpt lat="27.1720553" lon="77.9961101">
      </trkpt>
      <trkpt lat="27.1719039" lon="77.995614">
      </trkpt>
      <trkpt lat="27.1717348" lon="77.995141">
      </trkpt>
      <trkpt lat="27.1713163" lon="77.9938569">
      </trkpt>
      <trkpt lat="27.1711614" lon="77.9934653">
      </trkpt>
      <trkpt lat="27.1710869" lon="77.9933033">
      </trkpt>
      <trkpt lat="27.1710055" lon="77.9931456">
      </trkpt>
      <trkpt lat="27.1709172" lon="77.9929925">
      </trkpt>
      <trkpt lat="27.1708224" lon="77.9928445">
      </trkpt>
      <trkpt lat="27.1707212" lon="77.9927019">
      </trkpt>
      <trkpt lat="27.170614" lon="77.9925651">
      </trkpt>
      <trkpt lat="27.1705008" lon="77.9924344">
      </trkpt>
      <trkpt lat="27.1703821" lon="77.99231">
      </trkpt>
      <trkpt lat="27.1702932" lon="77.9922318">
      </trkpt>
      <trkpt lat="27.170125" lon="77.9920784">
      </trkpt>
      <trkpt lat="27.169987" lon="77.9919721">
      </trkpt>
      <trkpt lat="27.1698443" lon="77.9918738">
      </trkpt>
      <trkpt lat="27.1696974" lon="77.9917838">
      </trkpt>
      <trkpt lat="27.1695466" lon="77.9917023">
      </trkpt>
      <trkpt lat="27.1693923" lon="77.9916294">
      </trkpt>
      <trkpt lat="27.1692384" lon="77.9915839">
      </trkpt>
      <trkpt lat="27.168841" lon="77.9914237">
      </trkpt>
      <trkpt lat="27.168663" lon="77.9913658">
      </trkpt>
      <trkpt lat="27.1684259" lon="77.9913155">
      </trkpt>
      <trkpt lat="27.1680992" lon="77.991278">
      </trkpt>
      <trkpt lat="27.1679999" lon="77.9912624">
      </trkpt>
      <trkpt lat="27.1676447" lon="77.9912236">
      </trkpt>
      <trkpt lat="27.1674193" lon="77.9911981">
      </trkpt>
      <trkpt lat="27.1665209" lon="77.9910917">
      </trkpt>
      <trkpt lat="27.1661222" lon="77.9910474">
      </trkpt>
      <trkpt lat="27.1658693" lon="77.9910259">
      </trkpt>
      <trkpt lat="27.1656488" lon="77.9910019">
      </trkpt>
      <trkpt lat="27.1655323" lon="77.9909897">
      </trkpt>
      <trkpt lat="27.1653745" lon="77.9909397">
      </trkpt>
      <trkpt lat="27.1651503" lon="77.9908887">
      </trkpt>
      <trkpt lat="27.1648982" lon="77.9908329">
      </trkpt>
      <trkpt lat="27.1651503" lon="77.9908887">
      </trkpt>
      <trkpt lat="27.1653745" lon="77.9909397">
      </trkpt>
      <trkpt lat="27.1655323" lon="77.9909897">
      </trkpt>
      <trkpt lat="27.1656488" lon="77.9910019">
      </trkpt>
      <trkpt lat="27.1658693" lon="77.9910259">
      </trkpt>
      <trkpt lat="27.1661222" lon="77.9910474">
      </trkpt>
      <trkpt lat="27.1665209" lon="77.9910917">
      </trkpt>
      <trkpt lat="27.1674193" lon="77.9911981">
      </trkpt>
      <trkpt lat="27.1676447" lon="77.9912236">
      </trkpt>
      <trkpt lat="27.1679999" lon="77.9912624">
      </trkpt>
      <trkpt lat="27.1680992" lon="77.991278">
      </trkpt>
      <trkpt lat="27.1684259" lon="77.9913155">
      </trkpt>
      <trkpt lat="27.168663" lon="77.9913658">
      </trkpt>
      <trkpt lat="27.168841" lon="77.9914237">
      </trkpt>
      <trkpt lat="27.1692384" lon="77.9915839">
      </trkpt>
      <trkpt lat="27.1693923" lon="77.9916294">
      </trkpt>
      <trkpt lat="27.1695466" lon="77.9917023">
      </trkpt>
      <trkpt lat="27.1696974" lon="77.9917838">
      </trkpt>
      <trkpt lat="27.1698443" lon="77.9918738">
      </trkpt>
      <trkpt lat="27.169987" lon="77.9919721">
      </trkpt>
      <trkpt lat="27.170125" lon="77.9920784">
      </trkpt>
      <trkpt lat="27.1702932" lon="77.9922318">
      </trkpt>
      <trkpt lat="27.1703821" lon="77.99231">
      </trkpt>
      <trkpt lat="27.1705008" lon="77.9924344">
      </trkpt>
      <trkpt lat="27.170614" lon="77.9925651">
      </trkpt>
      <trkpt lat="27.1707212" lon="77.9927019">
      </trkpt>
      <trkpt lat="27.1708224" lon="77.9928445">
      </trkpt>
      <trkpt lat="27.1709172" lon="77.9929925">
      </trkpt>
      <trkpt lat="27.1710055" lon="77.9931456">
      </trkpt>
      <trkpt lat="27.1710869" lon="77.9933033">
      </trkpt>
      <trkpt lat="27.1711614" lon="77.9934653">
      </trkpt>
      <trkpt lat="27.1713163" lon="77.9938569">
      </trkpt>
      <trkpt lat="27.1717348" lon="77.995141">
      </trkpt>
      <trkpt lat="27.1719039" lon="77.995614">
      </trkpt>
      <trkpt lat="27.1720553" lon="77.9961101">
      </trkpt>
      <trkpt lat="27.1729609" lon="77.9989574">
      </trkpt>
      <trkpt lat="27.1730349" lon="77.9991815">
      </trkpt>
      <trkpt lat="27.1731398" lon="77.9994314">
      </trkpt>
      <trkpt lat="27.17325" lon="77.9997005">
      </trkpt>
      <trkpt lat="27.1734023" lon="78.0000295">
      </trkpt>
      <trkpt lat="27.1734638" lon="78.0002068">
      </trkpt>
      <trkpt lat="27.1740363" lon="78.0020067">
      </trkpt>
      <trkpt lat="27.1740746" lon="78.002158">
      </trkpt>
      <trkpt lat="27.1741924" lon="78.0026533">
      </trkpt>
      <trkpt lat="27.1743622" lon="78.0031768">
      </trkpt>
      <trkpt lat="27.1744754" lon="78.0035231">
      </trkpt>
      <trkpt lat="27.1746293" lon="78.0039877">
      </trkpt>
      <trkpt lat="27.1747495" lon="78.0042635">
      </trkpt>
      <trkpt lat="27.1750127" lon="78.0047338">
      </trkpt>
      <trkpt lat="27.1751759" lon="78.0049582">
      </trkpt>
      <trkpt lat="27.1753548" lon="78.0051868">
      </trkpt>
      <trkpt lat="27.1756035" lon="78.0054866">
      </trkpt>
      <trkpt lat="27.1757311" lon="78.0056731">
      </trkpt>
      <trkpt lat="27.1758353" lon="78.0058618">
      </trkpt>
      <trkpt lat="27.1759366" lon="78.0061073">
      </trkpt>
      <trkpt lat="27.176021" lon="78.0064043">
      </trkpt>
      <trkpt lat="27.1760934" lon="78.0067127">
      </trkpt>
      <trkpt lat="27.1761448" lon="78.0070606">
      </trkpt>
      <trkpt lat="27.1761665" lon="78.0072993">
      </trkpt>
      <trkpt lat="27.176214" lon="78.0075659">
      </trkpt>
      <trkpt lat="27.1762832" lon="78.0078478">
      </trkpt>
      <trkpt lat="27.1763311" lon="78.007999">
      </trkpt>
      <trkpt lat="27.1764482" lon="78.0083418">
      </trkpt>
      <trkpt lat="27.1765977" lon="78.0086828">
      </trkpt>
      <trkpt lat="27.1767936" lon="78.0090317">
      </trkpt>
      <trkpt lat="27.1770238" lon="78.0094185">
      </trkpt>
      <trkpt lat="27.1771744" lon="78.0096766">
      </trkpt>
      <trkpt lat="27.1772986" lon="78.0099191">
      </trkpt>
      <trkpt lat="27.1774953" lon="78.0103343">
      </trkpt>
      <trkpt lat="27.1783053" lon="78.012165">
      </trkpt>
      <trkpt lat="27.1785623" lon="78.012741">
      </trkpt>
      <trkpt lat="27.1787703" lon="78.013231">
      </trkpt>
      <trkpt lat="27.1789003" lon="78.0134993">
      </trkpt>
      <trkpt lat="27.179115" lon="78.0138981">
      </trkpt>
      <trkpt lat="27.1792286" lon="78.0140723">
      </trkpt>
      <trkpt lat="27.1794071" lon="78.0143681">
      </trkpt>
      <trkpt lat="27.1797162" lon="78.0148663">
      </trkpt>
      <trkpt lat="27.1798566" lon="78.0150831">
      </trkpt>
      <trkpt lat="27.1800115" lon="78.0152931">
      </trkpt>
      <trkpt lat="27.1801678" lon="78.0154634">
      </trkpt>
      <trkpt lat="27.1804147" lon="78.0157493">
      </trkpt>
      <trkpt lat="27.1805211" lon="78.0158622">
      </trkpt>
      <trkpt lat="27.1811766" lon="78.0164912">
      </trkpt>
      <trkpt lat="27.1813197" lon="78.0166365">
      </trkpt>
      <trkpt lat="27.1814601" lon="78.0167905">
      </trkpt>
      <trkpt lat="27.181575" lon="78.0169393">
      </trkpt>
      <trkpt lat="27.1829933" lon="78.0189637">
      </trkpt>
      <trkpt lat="27.1832585" lon="78.0193422">
      </trkpt>
      <trkpt lat="27.1834283" lon="78.0196021">
      </trkpt>
      <trkpt lat="27.1835377" lon="78.0198102">
      </trkpt>
      <trkpt lat="27.18363" lon="78.0200618">
      </trkpt>
      <trkpt lat="27.183681" lon="78.0202819">
      </trkpt>
      <trkpt lat="27.1837834" lon="78.0207457">
      </trkpt>
      <trkpt lat="27.1838295" lon="78.0210327">
      </trkpt>
      <trkpt lat="27.1838544" lon="78.0212723">
      </trkpt>
      <trkpt lat="27.1838871" lon="78.0216969">
      </trkpt>
      <trkpt lat="27.1839464" lon="78.0224677">
      </trkpt>
      <trkpt lat="27.1839335" lon="78.0218312">
      </trkpt>
      <trkpt lat="27.1839202" lon="78.0214316">
      </trkpt>
      <trkpt lat="27.1838816" lon="78.021009">
      </trkpt>
      <trkpt lat="27.1838349" lon="78.0207025">
      </trkpt>
      <trkpt lat="27.1837943" lon="78.0204855">
      </trkpt>
      <trkpt lat="27.183739" lon="78.0202414">
      </trkpt>
      <trkpt lat="27.1836824" lon="78.0200418">
      </trkpt>
      <trkpt lat="27.1835897" lon="78.0197973">
      </trkpt>
      <trkpt lat="27.1834683" lon="78.0195589">
      </trkpt>
      <trkpt lat="27.1833073" lon="78.0193107">
      </trkpt>
      <trkpt lat="27.1829513" lon="78.0188076">
      </trkpt>
      <trkpt lat="27.1816147" lon="78.0169186">
      </trkpt>
      <trkpt lat="27.1814915" lon="78.0167592">
      </trkpt>
      <trkpt lat="27.1813529" lon="78.0165977">
      </trkpt>
      <trkpt lat="27.1811543" lon="78.0164061">
      </trkpt>
      <trkpt lat="27.1806798" lon="78.0159487">
      </trkpt>
      <trkpt lat="27.1804576" lon="78.0157222">
      </trkpt>
      <trkpt lat="27.1802029" lon="78.0154405">
      </trkpt>
      <trkpt lat="27.1800142" lon="78.0152209">
      </trkpt>
      <trkpt lat="27.1798609" lon="78.0150124">
      </trkpt>
      <trkpt lat="27.1797274" lon="78.0148043">
      </trkpt>
      <trkpt lat="27.1795876" lon="78.014592">
      </trkpt>
      <trkpt lat="27.1793271" lon="78.0141617">
      </trkpt>
      <trkpt lat="27.1790668" lon="78.0137046">
      </trkpt>
      <trkpt lat="27.1789195" lon="78.013403">
      </trkpt>
      <trkpt lat="27.1787483" lon="78.0130452">
      </trkpt>
      <trkpt lat="27.1786004" lon="78.0127091">
      </trkpt>
      <trkpt lat="27.1783453" lon="78.0121135">
      </trkpt>
      <trkpt lat="27.1775389" lon="78.0103016">
      </trkpt>
      <trkpt lat="27.1773344" lon="78.009887">
      </trkpt>
      <trkpt lat="27.1772091" lon="78.0096468">
      </trkpt>
      <trkpt lat="27.1770483" lon="78.0093639">
      </trkpt>
      <trkpt lat="27.1767817" lon="78.008917">
      </trkpt>
      <trkpt lat="27.1766415" lon="78.0086522">
      </trkpt>
      <trkpt lat="27.1764967" lon="78.0083151">
      </trkpt>
      <trkpt lat="27.1763266" lon="78.0078346">
      </trkpt>
      <trkpt lat="27.1762508" lon="78.0075426">
      </trkpt>
      <trkpt lat="27.176206" lon="78.0072921">
      </trkpt>
      <trkpt lat="27.1761842" lon="78.0070621">
      </trkpt>
      <trkpt lat="27.1761336" lon="78.0066863">
      </trkpt>
      <trkpt lat="27.1760612" lon="78.0063853">
      </trkpt>
      <trkpt lat="27.1759794" lon="78.0060843">
      </trkpt>
      <trkpt lat="27.1758771" lon="78.0058324">
      </trkpt>
      <trkpt lat="27.1757714" lon="78.0056425">
      </trkpt>
      <trkpt lat="27.1756381" lon="78.0054449">
      </trkpt>
      <trkpt lat="27.1753899" lon="78.005158">
      </trkpt>
      <trkpt lat="27.175221" lon="78.0049358">
      </trkpt>
      <trkpt lat="27.1750593" lon="78.0047087">
      </trkpt>
      <trkpt lat="27.1749375" lon="78.0044984">
      </trkpt>
      <trkpt lat="27.1748038" lon="78.0042218">
      </trkpt>
      <trkpt lat="27.1747024" lon="78.0039729">
      </trkpt>
      <trkpt lat="27.1746224" lon="78.0037295">
      </trkpt>
      <trkpt lat="27.1744904" lon="78.0031858">
      </trkpt>
      <trkpt lat="27.1740867" lon="78.001847">
      </trkpt>
      <trkpt lat="27.1726488" lon="77.9973715">
      </trkpt>
      <trkpt lat="27.1725263" lon="77.9969586">
      </trkpt>
      <trkpt lat="27.1724523" lon="77.9966535">
      </trkpt>
      <trkpt lat="27.1723842" lon="77.9963515">
      </trkpt>
      <trkpt lat="27.1723354" lon="77.9960632">
      </trkpt>
      <trkpt lat="27.1722934" lon="77.9957954">
      </trkpt>
      <trkpt lat="27.172248" lon="77.9953779">
      </trkpt>
      <trkpt lat="27.1722243" lon="77.9949821">
      </trkpt>
      <trkpt lat="27.1722076" lon="77.9945744">
      </trkpt>
      <trkpt lat="27.1721697" lon="77.9932852">
      </trkpt>
      <trkpt lat="27.17215" lon="77.9926902">
      </trkpt>
      <trkpt lat="27.1720714" lon="77.9915357">
      </trkpt>
      <trkpt lat="27.1719813" lon="77.990149">
      </trkpt>
      <trkpt lat="27.1719741" lon="77.9900375">
      </trkpt>
      <trkpt lat="27.1718941" lon="77.9887054">
      </trkpt>
      <trkpt lat="27.1718844" lon="77.9885392">
      </trkpt>
      <trkpt lat="27.1717793" lon="77.9856271">
      </trkpt>
      <trkpt lat="27.1716444" lon="77.9829227">
      </trkpt>
      <trkpt lat="27.17152" lon="77.9801911">
      </trkpt>
      <trkpt lat="27.1714007" lon="77.9776504">
      </trkpt>
      <trkpt lat="27.1713919" lon="77.9772253">
      </trkpt>
      <trkpt lat="27.1713918" lon="77.9768067">
      </trkpt>
      <trkpt lat="27.1714089" lon="77.9763266">
      </trkpt>
      <trkpt lat="27.1714343" lon="77.9758636">
      </trkpt>
      <trkpt lat="27.1714763" lon="77.9753674">
      </trkpt>
      <trkpt lat="27.1714584" lon="77.9751694">
      </trkpt>
      <trkpt lat="27.1717484" lon="77.9726809">
      </trkpt>
      <trkpt lat="27.1727772" lon="77.962581">
      </trkpt>
      <trkpt lat="27.1728099" lon="77.962269">
      </trkpt>
      <trkpt lat="27.1730024" lon="77.9604342">
      </trkpt>
      <trkpt lat="27.1732317" lon="77.9582796">
      </trkpt>
      <trkpt lat="27.1742226" lon="77.9486679">
      </trkpt>
      <trkpt lat="27.1751448" lon="77.9397515">
      </trkpt>
      <trkpt lat="27.1751676" lon="77.9395759">
      </trkpt>
      <trkpt lat="27.1753497" lon="77.9380896">
      </trkpt>
      <trkpt lat="27.1755536" lon="77.935966">
      </trkpt>
      <trkpt lat="27.1756352" lon="77.9350655">
      </trkpt>
      <trkpt lat="27.1756919" lon="77.934153">
      </trkpt>
      <trkpt lat="27.1757497" lon="77.9324196">
      </trkpt>
      <trkpt lat="27.1763792" lon="77.9210234">
      </trkpt>
      <trkpt lat="27.1765076" lon="77.9193739">
      </trkpt>
      <trkpt lat="27.1765955" lon="77.9179936">
      </trkpt>
      <trkpt lat="27.1766145" lon="77.9175715">
      </trkpt>
      <trkpt lat="27.176645" lon="77.9169892">
      </trkpt>
      <trkpt lat="27.177093" lon="77.9078151">
      </trkpt>
      <trkpt lat="27.1771349" lon="77.9073038">
      </trkpt>
      <trkpt lat="27.1771952" lon="77.9060888">
      </trkpt>
      <trkpt lat="27.1772082" lon="77.9058891">
      </trkpt>
      <trkpt lat="27.1772077" lon="77.9058155">
      </trkpt>
      <trkpt lat="27.1771949" lon="77.9056091">
      </trkpt>
      <trkpt lat="27.1776424" lon="77.8963516">
      </trkpt>
      <trkpt lat="27.1779574" lon="77.8903928">
      </trkpt>
      <trkpt lat="27.1780533" lon="77.8885129">
      </trkpt>
      <trkpt lat="27.1783032" lon="77.8836162">
      </trkpt>
      <trkpt lat="27.1783072" lon="77.8835378">
      </trkpt>
      <trkpt lat="27.1784537" lon="77.8806682">
      </trkpt>
      <trkpt lat="27.1785063" lon="77.8800539">
      </trkpt>
      <trkpt lat="27.178847" lon="77.873967">
      </trkpt>
      <trkpt lat="27.1791046" lon="77.8686862">
      </trkpt>
      <trkpt lat="27.1794426" lon="77.8624114">
      </trkpt>
      <trkpt lat="27.1801019" lon="77.8493733">
      </trkpt>
      <trkpt lat="27.1801335" lon="77.8487649">
      </trkpt>
      <trkpt lat="27.180332" lon="77.8451343">
      </trkpt>
      <trkpt lat="27.1805446" lon="77.8409465">
      </trkpt>
      <trkpt lat="27.180645" lon="77.8388687">
      </trkpt>
      <trkpt lat="27.1809692" lon="77.8347874">
      </trkpt>
      <trkpt lat="27.1809883" lon="77.834495">
      </trkpt>
      <trkpt lat="27.1810726" lon="77.8324142">
      </trkpt>
      <trkpt lat="27.1811795" lon="77.830277">
      </trkpt>
      <trkpt lat="27.1812864" lon="77.8269725">
      </trkpt>
      <trkpt lat="27.1813857" lon="77.8225008">
      </trkpt>
      <trkpt lat="27.181538" lon="77.8151604">
      </trkpt>
      <trkpt lat="27.181546" lon="77.8147331">
      </trkpt>
      <trkpt lat="27.1816758" lon="77.8087335">
      </trkpt>
      <trkpt lat="27.18176" lon="77.8054641">
      </trkpt>
      <trkpt lat="27.1817751" lon="77.8048797">
      </trkpt>
      <trkpt lat="27.181776" lon="77.804612">
      </trkpt>
      <trkpt lat="27.1818891" lon="77.7989026">
      </trkpt>
      <trkpt lat="27.1817669" lon="77.7708202">
      </trkpt>
      <trkpt lat="27.1818091" lon="77.7686146">
      </trkpt>
      <trkpt lat="27.1818234" lon="77.7678126">
      </trkpt>
      <trkpt lat="27.1818151" lon="77.7669248">
      </trkpt>
      <trkpt lat="27.1818121" lon="77.7659515">
      </trkpt>
      <trkpt lat="27.1818089" lon="77.7655917">
      </trkpt>
      <trkpt lat="27.1817459" lon="77.7566305">
      </trkpt>
      <trkpt lat="27.1817488" lon="77.7563511">
      </trkpt>
      <trkpt lat="27.1817439" lon="77.7553698">
      </trkpt>
      <trkpt lat="27.1817375" lon="77.7525669">
      </trkpt>
      <trkpt lat="27.181746" lon="77.7507">
      </trkpt>
      <trkpt lat="27.1817757" lon="77.7499705">
      </trkpt>
      <trkpt lat="27.1818492" lon="77.7490706">
      </trkpt>
      <trkpt lat="27.1827446" lon="77.74319">
      </trkpt>
      <trkpt lat="27.1831796" lon="77.7404292">
      </trkpt>
      <trkpt lat="27.1843427" lon="77.733047">
      </trkpt>
      <trkpt lat="27.185717" lon="77.7242923">
      </trkpt>
      <trkpt lat="27.1858517" lon="77.7235269">
      </trkpt>
      <trkpt lat="27.1860124" lon="77.7226138">
      </trkpt>
      <trkpt lat="27.1881713" lon="77.7131042">
      </trkpt>
      <trkpt lat="27.1906891" lon="77.7022486">
      </trkpt>
      <trkpt lat="27.1924209" lon="77.6947142">
      </trkpt>
      <trkpt lat="27.1924477" lon="77.6946178">
      </trkpt>
      <trkpt lat="27.192474" lon="77.6944596">
      </trkpt>
      <trkpt lat="27.1983231" lon="77.6690283">
      </trkpt>
      <trkpt lat="27.2009515" lon="77.6575997">
      </trkpt>
      <trkpt lat="27.2010952" lon="77.6570098">
      </trkpt>
      <trkpt lat="27.2035085" lon="77.6462731">
      </trkpt>
      <trkpt lat="27.2043953" lon="77.6423275">
      </trkpt>
      <trkpt lat="27.2045249" lon="77.6417672">
      </trkpt>
      <trkpt lat="27.2078295" lon="77.6256772">
      </trkpt>
      <trkpt lat="27.2109839" lon="77.6102424">
      </trkpt>
      <trkpt lat="27.2117524" lon="77.6066877">
      </trkpt>
      <trkpt lat="27.2145657" lon="77.5929587">
      </trkpt>
      <trkpt lat="27.2183913" lon="77.5742857">
      </trkpt>
      <trkpt lat="27.2220595" lon="77.5562774">
      </trkpt>
      <trkpt lat="27.2264136" lon="77.5353496">
      </trkpt>
      <trkpt lat="27.2269554" lon="77.532822">
      </trkpt>
      <trkpt lat="27.2269598" lon="77.5328017">
      </trkpt>
      <trkpt lat="27.2284369" lon="77.5259097">
      </trkpt>
      <trkpt lat="27.2298759" lon="77.5189086">
      </trkpt>
      <trkpt lat="27.229998" lon="77.5183343">
      </trkpt>
      <trkpt lat="27.2304276" lon="77.5165512">
      </trkpt>
      <trkpt lat="27.2306301" lon="77.5156589">
      </trkpt>
      <trkpt lat="27.2319737" lon="77.5096073">
      </trkpt>
      <trkpt lat="27.2345428" lon="77.4983481">
      </trkpt>
      <trkpt lat="27.23455" lon="77.4983261">
      </trkpt>
      <trkpt lat="27.2357964" lon="77.4934218">
      </trkpt>
      <trkpt lat="27.2359082" lon="77.4929966">
      </trkpt>
      <trkpt lat="27.2359742" lon="77.492736">
      </trkpt>
      <trkpt lat="27.2361796" lon="77.4920463">
      </trkpt>
      <trkpt lat="27.2362435" lon="77.4917343">
      </trkpt>
      <trkpt lat="27.2362695" lon="77.4915711">
      </trkpt>
      <trkpt lat="27.2363043" lon="77.4912407">
      </trkpt>
      <trkpt lat="27.236798" lon="77.4862414">
      </trkpt>
      <trkpt lat="27.2368233" lon="77.4859798">
      </trkpt>
      <trkpt lat="27.2368355" lon="77.4857118">
      </trkpt>
      <trkpt lat="27.236833" lon="77.4854207">
      </trkpt>
      <trkpt lat="27.2368202" lon="77.485203">
      </trkpt>
      <trkpt lat="27.2367919" lon="77.4849737">
      </trkpt>
      <trkpt lat="27.2367403" lon="77.4846594">
      </trkpt>
      <trkpt lat="27.2365723" lon="77.4838819">
      </trkpt>
      <trkpt lat="27.2364828" lon="77.4835586">
      </trkpt>
      <trkpt lat="27.2363533" lon="77.4832054">
      </trkpt>
      <trkpt lat="27.2362188" lon="77.4829202">
      </trkpt>
      <trkpt lat="27.2360069" lon="77.4825515">
      </trkpt>
      <trkpt lat="27.235719" lon="77.4821157">
      </trkpt>
      <trkpt lat="27.2345716" lon="77.4804599">
      </trkpt>
      <trkpt lat="27.2344617" lon="77.480315">
      </trkpt>
      <trkpt lat="27.2315265" lon="77.4760309">
      </trkpt>
      <trkpt lat="27.2310561" lon="77.4753081">
      </trkpt>
      <trkpt lat="27.2307674" lon="77.4746943">
      </trkpt>
      <trkpt lat="27.2306238" lon="77.4743207">
      </trkpt>
      <trkpt lat="27.2305361" lon="77.4739203">
      </trkpt>
      <trkpt lat="27.230491" lon="77.4736081">
      </trkpt>
      <trkpt lat="27.2304564" lon="77.4731748">
      </trkpt>
      <trkpt lat="27.2304605" lon="77.4728078">
      </trkpt>
      <trkpt lat="27.2304873" lon="77.4723533">
      </trkpt>
      <trkpt lat="27.2305448" lon="77.4718944">
      </trkpt>
      <trkpt lat="27.230639" lon="77.4714736">
      </trkpt>
      <trkpt lat="27.2308674" lon="77.4705396">
      </trkpt>
      <trkpt lat="27.2309383" lon="77.4702665">
      </trkpt>
      <trkpt lat="27.2311901" lon="77.4693367">
      </trkpt>
      <trkpt lat="27.2318392" lon="77.4670329">
      </trkpt>
      <trkpt lat="27.2319545" lon="77.4666287">
      </trkpt>
      <trkpt lat="27.2326572" lon="77.4641133">
      </trkpt>
      <trkpt lat="27.2327492" lon="77.4638428">
      </trkpt>
      <trkpt lat="27.2350801" lon="77.4554153">
      </trkpt>
      <trkpt lat="27.2354828" lon="77.4538765">
      </trkpt>
      <trkpt lat="27.2357787" lon="77.4528952">
      </trkpt>
      <trkpt lat="27.2367257" lon="77.4497553">
      </trkpt>
      <trkpt lat="27.2371318" lon="77.448699">
      </trkpt>
      <trkpt lat="27.2374689" lon="77.4477734">
      </trkpt>
      <trkpt lat="27.2380872" lon="77.4461162">
      </trkpt>
      <trkpt lat="27.2389258" lon="77.4438138">
      </trkpt>
      <trkpt lat="27.2389687" lon="77.4436878">
      </trkpt>
      <trkpt lat="27.2407189" lon="77.4390691">
      </trkpt>
      <trkpt lat="27.2409454" lon="77.4384715">
      </trkpt>
      <trkpt lat="27.2412046" lon="77.4378384">
      </trkpt>
      <trkpt lat="27.241452" lon="77.4369604">
      </trkpt>
      <trkpt lat="27.2416145" lon="77.4361554">
      </trkpt>
      <trkpt lat="27.2416672" lon="77.4355355">
      </trkpt>
      <trkpt lat="27.2416819" lon="77.4353634">
      </trkpt>
      <trkpt lat="27.2416817" lon="77.4351946">
      </trkpt>
      <trkpt lat="27.241689" lon="77.4349992">
      </trkpt>
      <trkpt lat="27.2416881" lon="77.4348016">
      </trkpt>
      <trkpt lat="27.2416835" lon="77.4341678">
      </trkpt>
      <trkpt lat="27.2416348" lon="77.4336718">
      </trkpt>
      <trkpt lat="27.2415031" lon="77.4326092">
      </trkpt>
      <trkpt lat="27.2413412" lon="77.4312872">
      </trkpt>
      <trkpt lat="27.2411041" lon="77.4293515">
      </trkpt>
      <trkpt lat="27.2406372" lon="77.4256416">
      </trkpt>
      <trkpt lat="27.2397335" lon="77.4183743">
      </trkpt>
      <trkpt lat="27.238067" lon="77.4050731">
      </trkpt>
      <trkpt lat="27.2378788" lon="77.4035711">
      </trkpt>
      <trkpt lat="27.2355103" lon="77.3842156">
      </trkpt>
      <trkpt lat="27.2353207" lon="77.3827092">
      </trkpt>
      <trkpt lat="27.2352884" lon="77.3824523">
      </trkpt>
      <trkpt lat="27.2345868" lon="77.3768781">
      </trkpt>
      <trkpt lat="27.2341569" lon="77.3733525">
      </trkpt>
      <trkpt lat="27.2341331" lon="77.3731568">
      </trkpt>
      <trkpt lat="27.2340545" lon="77.3725125">
      </trkpt>
      <trkpt lat="27.2337271" lon="77.3695679">
      </trkpt>
      <trkpt lat="27.2264902" lon="77.3113071">
      </trkpt>
      <trkpt lat="27.2261804" lon="77.3089503">
      </trkpt>
      <trkpt lat="27.2261251" lon="77.3085297">
      </trkpt>
      <trkpt lat="27.225889" lon="77.3067331">
      </trkpt>
      <trkpt lat="27.2256107" lon="77.3044596">
      </trkpt>
      <trkpt lat="27.2249874" lon="77.2995016">
      </trkpt>
      <trkpt lat="27.2249114" lon="77.2988978">
      </trkpt>
      <trkpt lat="27.2248468" lon="77.2983836">
      </trkpt>
      <trkpt lat="27.2242653" lon="77.2933423">
      </trkpt>
      <trkpt lat="27.2226123" lon="77.2800615">
      </trkpt>
      <trkpt lat="27.2212459" lon="77.2692586">
      </trkpt>
      <trkpt lat="27.2189412" lon="77.251077">
      </trkpt>
      <trkpt lat="27.2167511" lon="77.233611">
      </trkpt>
      <trkpt lat="27.2159062" lon="77.2274557">
      </trkpt>
      <trkpt lat="27.2151516" lon="77.2209359">
      </trkpt>
      <trkpt lat="27.2151484" lon="77.220908">
      </trkpt>
      <trkpt lat="27.2148293" lon="77.2181515">
      </trkpt>
      <trkpt lat="27.2146704" lon="77.216779">
      </trkpt>
      <trkpt lat="27.2146115" lon="77.2163238">
      </trkpt>
      <trkpt lat="27.2145342" lon="77.2157265">
      </trkpt>
      <trkpt lat="27.2134025" lon="77.2067136">
      </trkpt>
      <trkpt lat="27.2130221" lon="77.2037551">
      </trkpt>
      <trkpt lat="27.2129475" lon="77.202949">
      </trkpt>
      <trkpt lat="27.2128317" lon="77.2019622">
      </trkpt>
      <trkpt lat="27.2127948" lon="77.2013169">
      </trkpt>
      <trkpt lat="27.212638" lon="77.1992608">
      </trkpt>
      <trkpt lat="27.2125204" lon="77.1977889">
      </trkpt>
      <trkpt lat="27.2124864" lon="77.1973678">
      </trkpt>
      <trkpt lat="27.212319" lon="77.1951447">
      </trkpt>
      <trkpt lat="27.2111783" lon="77.1805007">
      </trkpt>
      <trkpt lat="27.2106915" lon="77.1742867">
      </trkpt>
      <trkpt lat="27.2104065" lon="77.1702761">
      </trkpt>
      <trkpt lat="27.2095518" lon="77.1594757">
      </trkpt>
      <trkpt lat="27.2087352" lon="77.1487911">
      </trkpt>
      <trkpt lat="27.2079265" lon="77.1382272">
      </trkpt>
      <trkpt lat="27.2048589" lon="77.0983454">
      </trkpt>
      <trkpt lat="27.2042554" lon="77.0905794">
      </trkpt>
      <trkpt lat="27.2041922" lon="77.0897662">
      </trkpt>
      <trkpt lat="27.2006436" lon="77.0433685">
      </trkpt>
      <trkpt lat="27.2006133" lon="77.0429781">
      </trkpt>
      <trkpt lat="27.2005749" lon="77.0424824">
      </trkpt>
      <trkpt lat="27.2001743" lon="77.0373097">
      </trkpt>
      <trkpt lat="27.1999562" lon="77.0344653">
      </trkpt>
      <trkpt lat="27.1999044" lon="77.0337949">
      </trkpt>
      <trkpt lat="27.1998459" lon="77.0330376">
      </trkpt>
      <trkpt lat="27.1998289" lon="77.0328179">
      </trkpt>
      <trkpt lat="27.1994887" lon="77.0259233">
      </trkpt>
      <trkpt lat="27.1994897" lon="77.0257715">
      </trkpt>
      <trkpt lat="27.1988924" lon="77.0086519">
      </trkpt>
      <trkpt lat="27.1980268" lon="76.9847564">
      </trkpt>
      <trkpt lat="27.1979177" lon="76.9809762">
      </trkpt>
      <trkpt lat="27.1977473" lon="76.9750698">
      </trkpt>
      <trkpt lat="27.1976479" lon="76.9718384">
      </trkpt>
      <trkpt lat="27.197503" lon="76.9686088">
      </trkpt>
      <trkpt lat="27.1974289" lon="76.9659343">
      </trkpt>
      <trkpt lat="27.1974031" lon="76.9650033">
      </trkpt>
      <trkpt lat="27.1971678" lon="76.9603249">
      </trkpt>
      <trkpt lat="27.1966719" lon="76.9463467">
      </trkpt>
      <trkpt lat="27.1965732" lon="76.9445888">
      </trkpt>
      <trkpt lat="27.1963976" lon="76.9432388">
      </trkpt>
      <trkpt lat="27.1961594" lon="76.9418958">
      </trkpt>
      <trkpt lat="27.1957658" lon="76.9404978">
      </trkpt>
      <trkpt lat="27.1952536" lon="76.9391008">
      </trkpt>
      <trkpt lat="27.193281" lon="76.934453">
      </trkpt>
      <trkpt lat="27.191802" lon="76.9309414">
      </trkpt>
      <trkpt lat="27.1916444" lon="76.930564">
      </trkpt>
      <trkpt lat="27.1910496" lon="76.9291551">
      </trkpt>
      <trkpt lat="27.1864607" lon="76.918463">
      </trkpt>
      <trkpt lat="27.1841442" lon="76.9130893">
      </trkpt>
      <trkpt lat="27.1818302" lon="76.9075827">
      </trkpt>
      <trkpt lat="27.1772977" lon="76.8969231">
      </trkpt>
      <trkpt lat="27.1725716" lon="76.8840934">
      </trkpt>
      <trkpt lat="27.1686206" lon="76.8733106">
      </trkpt>
      <trkpt lat="27.1678842" lon="76.871315">
      </trkpt>
      <trkpt lat="27.16725" lon="76.8696471">
      </trkpt>
      <trkpt lat="27.1669598" lon="76.8689839">
      </trkpt>
      <trkpt lat="27.1668205" lon="76.8686655">
      </trkpt>
      <trkpt lat="27.166333" lon="76.8677268">
      </trkpt>
      <trkpt lat="27.1655495" lon="76.8662253">
      </trkpt>
      <trkpt lat="27.1641192" lon="76.8635035">
      </trkpt>
      <trkpt lat="27.1613995" lon="76.8583168">
      </trkpt>
      <trkpt lat="27.1602861" lon="76.856256">
      </trkpt>
      <trkpt lat="27.1594175" lon="76.8548448">
      </trkpt>
      <trkpt lat="27.1586436" lon="76.8538655">
      </trkpt>
      <trkpt lat="27.1580524" lon="76.8531175">
      </trkpt>
      <trkpt lat="27.1560176" lon="76.8506582">
      </trkpt>
      <trkpt lat="27.1469409" lon="76.8396886">
      </trkpt>
      <trkpt lat="27.145765" lon="76.8383009">
      </trkpt>
      <trkpt lat="27.1442633" lon="76.8365107">
      </trkpt>
      <trkpt lat="27.1427904" lon="76.8348093">
      </trkpt>
      <trkpt lat="27.1393392" lon="76.8311163">
      </trkpt>
      <trkpt lat="27.1334565" lon="76.8245765">
      </trkpt>
      <trkpt lat="27.1322474" lon="76.823134">
      </trkpt>
      <trkpt lat="27.1311423" lon="76.8217872">
      </trkpt>
      <trkpt lat="27.130598" lon="76.8209919">
      </trkpt>
      <trkpt lat="27.1302427" lon="76.8203477">
      </trkpt>
      <trkpt lat="27.1299594" lon="76.8196439">
      </trkpt>
      <trkpt lat="27.1297428" lon="76.8189401">
      </trkpt>
      <trkpt lat="27.1292952" lon="76.8162009">
      </trkpt>
      <trkpt lat="27.1290023" lon="76.8143991">
      </trkpt>
      <trkpt lat="27.1267563" lon="76.8005802">
      </trkpt>
      <trkpt lat="27.1254038" lon="76.7918383">
      </trkpt>
      <trkpt lat="27.1245651" lon="76.7865397">
      </trkpt>
      <trkpt lat="27.1238568" lon="76.7820652">
      </trkpt>
      <trkpt lat="27.123321" lon="76.7786229">
      </trkpt>
      <trkpt lat="27.1231649" lon="76.7776199">
      </trkpt>
      <trkpt lat="27.1230607" lon="76.7769504">
      </trkpt>
      <trkpt lat="27.1221775" lon="76.771276">
      </trkpt>
      <trkpt lat="27.1204248" lon="76.7603669">
      </trkpt>
      <trkpt lat="27.1172698" lon="76.7406343">
      </trkpt>
      <trkpt lat="27.1169567" lon="76.7386759">
      </trkpt>
      <trkpt lat="27.1110641" lon="76.7018052">
      </trkpt>
      <trkpt lat="27.1109855" lon="76.7013134">
      </trkpt>
      <trkpt lat="27.1100403" lon="76.6953992">
      </trkpt>
      <trkpt lat="27.1095817" lon="76.6925373">
      </trkpt>
      <trkpt lat="27.1094827" lon="76.6919145">
      </trkpt>
      <trkpt lat="27.1061951" lon="76.6713693">
      </trkpt>
      <trkpt lat="27.1061637" lon="76.6711709">
      </trkpt>
      <trkpt lat="27.1057622" lon="76.668951">
      </trkpt>
      <trkpt lat="27.1052915" lon="76.6672916">
      </trkpt>
      <trkpt lat="27.1047327" lon="76.6657498">
      </trkpt>
      <trkpt lat="27.0962459" lon="76.6475294">
      </trkpt>
      <trkpt lat="27.0961565" lon="76.6473367">
      </trkpt>
      <trkpt lat="27.0952632" lon="76.6452867">
      </trkpt>
      <trkpt lat="27.0856376" lon="76.6246627">
      </trkpt>
      <trkpt lat="27.0840962" lon="76.6213316">
      </trkpt>
      <trkpt lat="27.0835737" lon="76.6202266">
      </trkpt>
      <trkpt lat="27.0835075" lon="76.6200866">
      </trkpt>
      <trkpt lat="27.0826737" lon="76.6183233">
      </trkpt>
      <trkpt lat="27.081982" lon="76.6171644">
      </trkpt>
      <trkpt lat="27.0815224" lon="76.6164306">
      </trkpt>
      <trkpt lat="27.0813164" lon="76.6161018">
      </trkpt>
      <trkpt lat="27.080942" lon="76.6155041">
      </trkpt>
      <trkpt lat="27.0798246" lon="76.6140645">
      </trkpt>
      <trkpt lat="27.0739403" lon="76.6071335">
      </trkpt>
      <trkpt lat="27.0642355" lon="76.5956795">
      </trkpt>
      <trkpt lat="27.0521051" lon="76.5813641">
      </trkpt>
      <trkpt lat="27.0462016" lon="76.5743959">
      </trkpt>
      <trkpt lat="27.0456778" lon="76.573828">
      </trkpt>
      <trkpt lat="27.0443685" lon="76.5724245">
      </trkpt>
      <trkpt lat="27.0432048" lon="76.5710949">
      </trkpt>
      <trkpt lat="27.0424592" lon="76.5702143">
      </trkpt>
      <trkpt lat="27.0420851" lon="76.5697635">
      </trkpt>
      <trkpt lat="27.0417187" lon="76.5693543">
      </trkpt>
      <trkpt lat="27.0407796" lon="76.5682304">
      </trkpt>
      <trkpt lat="27.0403461" lon="76.5677359">
      </trkpt>
      <trkpt lat="27.040074" lon="76.5674126">
      </trkpt>
      <trkpt lat="27.0389242" lon="76.5660533">
      </trkpt>
      <trkpt lat="27.0371692" lon="76.5639598">
      </trkpt>
      <trkpt lat="27.0370042" lon="76.5637686">
      </trkpt>
      <trkpt lat="27.0368777" lon="76.5636008">
      </trkpt>
      <trkpt lat="27.0366252" lon="76.5632367">
      </trkpt>
      <trkpt lat="27.0364689" lon="76.5630326">
      </trkpt>
      <trkpt lat="27.0349887" lon="76.5612906">
      </trkpt>
      <trkpt lat="27.0347343" lon="76.5609848">
      </trkpt>
      <trkpt lat="27.0346279" lon="76.5608481">
      </trkpt>
      <trkpt lat="27.0343689" lon="76.5604813">
      </trkpt>
      <trkpt lat="27.034079" lon="76.5601242">
      </trkpt>
      <trkpt lat="27.0321586" lon="76.5578427">
      </trkpt>
      <trkpt lat="27.0318988" lon="76.5575341">
      </trkpt>
      <trkpt lat="27.0252544" lon="76.5497866">
      </trkpt>
      <trkpt lat="27.0250319" lon="76.5495068">
      </trkpt>
      <trkpt lat="27.0246356" lon="76.5489327">
      </trkpt>
      <trkpt lat="27.0243764" lon="76.5485385">
      </trkpt>
      <trkpt lat="27.0241241" lon="76.5480554">
      </trkpt>
      <trkpt lat="27.0239779" lon="76.5477455">
      </trkpt>
      <trkpt lat="27.0238179" lon="76.5473786">
      </trkpt>
      <trkpt lat="27.0236546" lon="76.5469702">
      </trkpt>
      <trkpt lat="27.0235454" lon="76.5466431">
      </trkpt>
      <trkpt lat="27.0234434" lon="76.5462999">
      </trkpt>
      <trkpt lat="27.0233588" lon="76.5459867">
      </trkpt>
      <trkpt lat="27.0232761" lon="76.5456292">
      </trkpt>
      <trkpt lat="27.023199" lon="76.5452135">
      </trkpt>
      <trkpt lat="27.0231366" lon="76.5447724">
      </trkpt>
      <trkpt lat="27.0229665" lon="76.5432861">
      </trkpt>
      <trkpt lat="27.0228101" lon="76.5418986">
      </trkpt>
      <trkpt lat="27.0223649" lon="76.5378131">
      </trkpt>
      <trkpt lat="27.0223125" lon="76.5373613">
      </trkpt>
      <trkpt lat="27.0222456" lon="76.5369482">
      </trkpt>
      <trkpt lat="27.0221818" lon="76.5365795">
      </trkpt>
      <trkpt lat="27.022101" lon="76.5362146">
      </trkpt>
      <trkpt lat="27.0220356" lon="76.5359633">
      </trkpt>
      <trkpt lat="27.0218302" lon="76.5352784">
      </trkpt>
      <trkpt lat="27.0215684" lon="76.5346321">
      </trkpt>
      <trkpt lat="27.0212444" lon="76.5339739">
      </trkpt>
      <trkpt lat="27.0208684" lon="76.5333452">
      </trkpt>
      <trkpt lat="27.0206119" lon="76.5329317">
      </trkpt>
      <trkpt lat="27.0182584" lon="76.5294416">
      </trkpt>
      <trkpt lat="27.0172213" lon="76.5279283">
      </trkpt>
      <trkpt lat="27.0158818" lon="76.5259268">
      </trkpt>
      <trkpt lat="27.0144991" lon="76.5238573">
      </trkpt>
      <trkpt lat="27.013269" lon="76.5220304">
      </trkpt>
      <trkpt lat="27.0129986" lon="76.5216296">
      </trkpt>
      <trkpt lat="27.0122291" lon="76.520489">
      </trkpt>
      <trkpt lat="27.0115874" lon="76.5195379">
      </trkpt>
      <trkpt lat="27.011352" lon="76.519189">
      </trkpt>
      <trkpt lat="27.0088831" lon="76.5155467">
      </trkpt>
      <trkpt lat="27.0087626" lon="76.5153511">
      </trkpt>
      <trkpt lat="27.0085559" lon="76.5150091">
      </trkpt>
      <trkpt lat="27.0083746" lon="76.5146996">
      </trkpt>
      <trkpt lat="27.0082018" lon="76.5143789">
      </trkpt>
      <trkpt lat="27.0080278" lon="76.5140194">
      </trkpt>
      <trkpt lat="27.0078534" lon="76.5136251">
      </trkpt>
      <trkpt lat="27.0076832" lon="76.5131769">
      </trkpt>
      <trkpt lat="27.0072031" lon="76.5118108">
      </trkpt>
      <trkpt lat="27.0071633" lon="76.5116974">
      </trkpt>
      <trkpt lat="27.0035882" lon="76.5015131">
      </trkpt>
      <trkpt lat="27.0034555" lon="76.501136">
      </trkpt>
      <trkpt lat="27.000438" lon="76.49254">
      </trkpt>
      <trkpt lat="27.0002252" lon="76.4919756">
      </trkpt>
      <trkpt lat="27.0000808" lon="76.4916169">
      </trkpt>
      <trkpt lat="26.9997643" lon="76.4909049">
      </trkpt>
      <trkpt lat="26.9994437" lon="76.4902188">
      </trkpt>
      <trkpt lat="26.9991549" lon="76.4895989">
      </trkpt>
      <trkpt lat="26.9944083" lon="76.4792686">
      </trkpt>
      <trkpt lat="26.9910108" lon="76.471907">
      </trkpt>
      <trkpt lat="26.9897596" lon="76.4691869">
      </trkpt>
      <trkpt lat="26.9865629" lon="76.4622378">
      </trkpt>
      <trkpt lat="26.9808678" lon="76.449858">
      </trkpt>
      <trkpt lat="26.9683955" lon="76.4227857">
      </trkpt>
      <trkpt lat="26.9656061" lon="76.4167312">
      </trkpt>
      <trkpt lat="26.9649247" lon="76.4152558">
      </trkpt>
      <trkpt lat="26.9610077" lon="76.4067479">
      </trkpt>
      <trkpt lat="26.9608573" lon="76.4064321">
      </trkpt>
      <trkpt lat="26.9604006" lon="76.4054469">
      </trkpt>
      <trkpt lat="26.960146" lon="76.4049809">
      </trkpt>
      <trkpt lat="26.9599083" lon="76.4045988">
      </trkpt>
      <trkpt lat="26.9595827" lon="76.4041147">
      </trkpt>
      <trkpt lat="26.9592998" lon="76.4037506">
      </trkpt>
      <trkpt lat="26.959034" lon="76.4034317">
      </trkpt>
      <trkpt lat="26.9587361" lon="76.403098">
      </trkpt>
      <trkpt lat="26.9584283" lon="76.4027868">
      </trkpt>
      <trkpt lat="26.9580687" lon="76.4024754">
      </trkpt>
      <trkpt lat="26.9577565" lon="76.4022195">
      </trkpt>
      <trkpt lat="26.9574412" lon="76.4019822">
      </trkpt>
      <trkpt lat="26.9570668" lon="76.4017314">
      </trkpt>
      <trkpt lat="26.9566087" lon="76.4014806">
      </trkpt>
      <trkpt lat="26.9563101" lon="76.4013103">
      </trkpt>
      <trkpt lat="26.9558892" lon="76.4011174">
      </trkpt>
      <trkpt lat="26.9529552" lon="76.3999414">
      </trkpt>
      <trkpt lat="26.9518513" lon="76.3994527">
      </trkpt>
      <trkpt lat="26.9501577" lon="76.3987698">
      </trkpt>
      <trkpt lat="26.9497472" lon="76.3985865">
      </trkpt>
      <trkpt lat="26.9493483" lon="76.398382">
      </trkpt>
      <trkpt lat="26.9489988" lon="76.3982029">
      </trkpt>
      <trkpt lat="26.9486049" lon="76.3979844">
      </trkpt>
      <trkpt lat="26.9443389" lon="76.3953335">
      </trkpt>
      <trkpt lat="26.9440187" lon="76.3951372">
      </trkpt>
      <trkpt lat="26.9384627" lon="76.3916562">
      </trkpt>
      <trkpt lat="26.9380358" lon="76.3913512">
      </trkpt>
      <trkpt lat="26.9375117" lon="76.3909532">
      </trkpt>
      <trkpt lat="26.9372198" lon="76.3907013">
      </trkpt>
      <trkpt lat="26.9369011" lon="76.3903695">
      </trkpt>
      <trkpt lat="26.9366603" lon="76.3901308">
      </trkpt>
      <trkpt lat="26.9364022" lon="76.3898347">
      </trkpt>
      <trkpt lat="26.9361156" lon="76.3894482">
      </trkpt>
      <trkpt lat="26.9358373" lon="76.3890253">
      </trkpt>
      <trkpt lat="26.9355093" lon="76.3885203">
      </trkpt>
      <trkpt lat="26.928805" lon="76.3778139">
      </trkpt>
      <trkpt lat="26.9213051" lon="76.3657701">
      </trkpt>
      <trkpt lat="26.9199468" lon="76.3635971">
      </trkpt>
      <trkpt lat="26.9090969" lon="76.3462413">
      </trkpt>
      <trkpt lat="26.9051761" lon="76.3399975">
      </trkpt>
      <trkpt lat="26.9032373" lon="76.3369071">
      </trkpt>
      <trkpt lat="26.90253" lon="76.3357631">
      </trkpt>
      <trkpt lat="26.9023429" lon="76.3354205">
      </trkpt>
      <trkpt lat="26.9021573" lon="76.3350538">
      </trkpt>
      <trkpt lat="26.901922" lon="76.3345407">
      </trkpt>
      <trkpt lat="26.9017368" lon="76.3340991">
      </trkpt>
      <trkpt lat="26.9017605" lon="76.3340257">
      </trkpt>
      <trkpt lat="26.9015527" lon="76.3334866">
      </trkpt>
      <trkpt lat="26.9010329" lon="76.3321202">
      </trkpt>
      <trkpt lat="26.8992572" lon="76.3274697">
      </trkpt>
      <trkpt lat="26.8982361" lon="76.3248173">
      </trkpt>
      <trkpt lat="26.8973185" lon="76.3224049">
      </trkpt>
      <trkpt lat="26.8961432" lon="76.3193151">
      </trkpt>
      <trkpt lat="26.8954755" lon="76.3175932">
      </trkpt>
      <trkpt lat="26.8951824" lon="76.3167885">
      </trkpt>
      <trkpt lat="26.8948884" lon="76.3158908">
      </trkpt>
      <trkpt lat="26.8945222" lon="76.314573">
      </trkpt>
      <trkpt lat="26.8882611" lon="76.2903048">
      </trkpt>
      <trkpt lat="26.8847684" lon="76.2767369">
      </trkpt>
      <trkpt lat="26.8807821" lon="76.2612698">
      </trkpt>
      <trkpt lat="26.8759954" lon="76.2427471">
      </trkpt>
      <trkpt lat="26.8713592" lon="76.224771">
      </trkpt>
      <trkpt lat="26.8709895" lon="76.2233376">
      </trkpt>
      <trkpt lat="26.8707108" lon="76.2222572">
      </trkpt>
      <trkpt lat="26.8683894" lon="76.2133147">
      </trkpt>
      <trkpt lat="26.8681699" lon="76.2124673">
      </trkpt>
      <trkpt lat="26.8678914" lon="76.2113338">
      </trkpt>
      <trkpt lat="26.8678112" lon="76.2109834">
      </trkpt>
      <trkpt lat="26.8677335" lon="76.2105905">
      </trkpt>
      <trkpt lat="26.8676737" lon="76.2102414">
      </trkpt>
      <trkpt lat="26.8675516" lon="76.2090576">
      </trkpt>
      <trkpt lat="26.8674942" lon="76.2085184">
      </trkpt>
      <trkpt lat="26.8674332" lon="76.2079257">
      </trkpt>
      <trkpt lat="26.8673913" lon="76.2074201">
      </trkpt>
      <trkpt lat="26.8672705" lon="76.2059744">
      </trkpt>
      <trkpt lat="26.8672238" lon="76.2055372">
      </trkpt>
      <trkpt lat="26.8671616" lon="76.2051295">
      </trkpt>
      <trkpt lat="26.8670839" lon="76.2046735">
      </trkpt>
      <trkpt lat="26.8670025" lon="76.2042417">
      </trkpt>
      <trkpt lat="26.8668964" lon="76.2037721">
      </trkpt>
      <trkpt lat="26.8662756" lon="76.2014599">
      </trkpt>
      <trkpt lat="26.8587197" lon="76.1732843">
      </trkpt>
      <trkpt lat="26.8586739" lon="76.1731137">
      </trkpt>
      <trkpt lat="26.8586487" lon="76.1730209">
      </trkpt>
      <trkpt lat="26.8578412" lon="76.1700464">
      </trkpt>
      <trkpt lat="26.8576984" lon="76.1694886">
      </trkpt>
      <trkpt lat="26.8576013" lon="76.1690766">
      </trkpt>
      <trkpt lat="26.8575312" lon="76.1687206">
      </trkpt>
      <trkpt lat="26.8574864" lon="76.1684194">
      </trkpt>
      <trkpt lat="26.8574493" lon="76.1681069">
      </trkpt>
      <trkpt lat="26.8574215" lon="76.1677855">
      </trkpt>
      <trkpt lat="26.8567062" lon="76.1558114">
      </trkpt>
      <trkpt lat="26.8559041" lon="76.1423856">
      </trkpt>
      <trkpt lat="26.8558998" lon="76.1423145">
      </trkpt>
      <trkpt lat="26.8558951" lon="76.1422379">
      </trkpt>
      <trkpt lat="26.8557764" lon="76.1403162">
      </trkpt>
      <trkpt lat="26.8557336" lon="76.1397225">
      </trkpt>
      <trkpt lat="26.8556845" lon="76.1392478">
      </trkpt>
      <trkpt lat="26.8542217" lon="76.1283368">
      </trkpt>
      <trkpt lat="26.8531959" lon="76.1206644">
      </trkpt>
      <trkpt lat="26.8521195" lon="76.1126515">
      </trkpt>
      <trkpt lat="26.8518945" lon="76.1109769">
      </trkpt>
      <trkpt lat="26.8518716" lon="76.1108197">
      </trkpt>
      <trkpt lat="26.8517033" lon="76.1095209">
      </trkpt>
      <trkpt lat="26.8515266" lon="76.1081156">
      </trkpt>
      <trkpt lat="26.8496404" lon="76.0942142">
      </trkpt>
      <trkpt lat="26.8489023" lon="76.0887417">
      </trkpt>
      <trkpt lat="26.8488165" lon="76.0880805">
      </trkpt>
      <trkpt lat="26.8486934" lon="76.0871673">
      </trkpt>
      <trkpt lat="26.848618" lon="76.0866912">
      </trkpt>
      <trkpt lat="26.84849" lon="76.0860099">
      </trkpt>
      <trkpt lat="26.8482728" lon="76.0849888">
      </trkpt>
      <trkpt lat="26.8437118" lon="76.0643268">
      </trkpt>
      <trkpt lat="26.8435107" lon="76.0633523">
      </trkpt>
      <trkpt lat="26.8432518" lon="76.0617883">
      </trkpt>
      <trkpt lat="26.8420637" lon="76.0533087">
      </trkpt>
      <trkpt lat="26.8419049" lon="76.0522077">
      </trkpt>
      <trkpt lat="26.8418778" lon="76.0519782">
      </trkpt>
      <trkpt lat="26.8418632" lon="76.0518542">
      </trkpt>
      <trkpt lat="26.8404297" lon="76.0416779">
      </trkpt>
      <trkpt lat="26.8402352" lon="76.0403232">
      </trkpt>
      <trkpt lat="26.8401797" lon="76.0398705">
      </trkpt>
      <trkpt lat="26.8401302" lon="76.0393564">
      </trkpt>
      <trkpt lat="26.8400912" lon="76.0387695">
      </trkpt>
      <trkpt lat="26.8400666" lon="76.0381748">
      </trkpt>
      <trkpt lat="26.8400541" lon="76.0375853">
      </trkpt>
      <trkpt lat="26.8400756" lon="76.0366438">
      </trkpt>
      <trkpt lat="26.8400791" lon="76.0364655">
      </trkpt>
      <trkpt lat="26.8402989" lon="76.0271729">
      </trkpt>
      <trkpt lat="26.8403019" lon="76.0270447">
      </trkpt>
      <trkpt lat="26.840663" lon="76.0119855">
      </trkpt>
      <trkpt lat="26.841077" lon="75.9947816">
      </trkpt>
      <trkpt lat="26.8410893" lon="75.9939791">
      </trkpt>
      <trkpt lat="26.8411966" lon="75.9895117">
      </trkpt>
      <trkpt lat="26.8415557" lon="75.9748874">
      </trkpt>
      <trkpt lat="26.8415577" lon="75.9746066">
      </trkpt>
      <trkpt lat="26.8418999" lon="75.9602505">
      </trkpt>
      <trkpt lat="26.8419037" lon="75.9600909">
      </trkpt>
      <trkpt lat="26.8421194" lon="75.9509865">
      </trkpt>
      <trkpt lat="26.8421232" lon="75.9508185">
      </trkpt>
      <trkpt lat="26.8421507" lon="75.9496161">
      </trkpt>
      <trkpt lat="26.8422704" lon="75.9443766">
      </trkpt>
      <trkpt lat="26.8423941" lon="75.9425056">
      </trkpt>
      <trkpt lat="26.8425692" lon="75.9397331">
      </trkpt>
      <trkpt lat="26.8426273" lon="75.9376667">
      </trkpt>
      <trkpt lat="26.8427912" lon="75.9308067">
      </trkpt>
      <trkpt lat="26.8427759" lon="75.9289785">
      </trkpt>
      <trkpt lat="26.8426074" lon="75.9275795">
      </trkpt>
      <trkpt lat="26.8423317" lon="75.9264036">
      </trkpt>
      <trkpt lat="26.8418416" lon="75.925202">
      </trkpt>
      <trkpt lat="26.8414663" lon="75.9245325">
      </trkpt>
      <trkpt lat="26.8403558" lon="75.9228931">
      </trkpt>
      <trkpt lat="26.8391805" lon="75.9212307">
      </trkpt>
      <trkpt lat="26.8388101" lon="75.9207687">
      </trkpt>
      <trkpt lat="26.8377226" lon="75.9191933">
      </trkpt>
      <trkpt lat="26.8373369" lon="75.9184824">
      </trkpt>
      <trkpt lat="26.8371554" lon="75.9180275">
      </trkpt>
      <trkpt lat="26.8370195" lon="75.9176572">
      </trkpt>
      <trkpt lat="26.8368712" lon="75.917187">
      </trkpt>
      <trkpt lat="26.8367574" lon="75.9167072">
      </trkpt>
      <trkpt lat="26.8366748" lon="75.9162627">
      </trkpt>
      <trkpt lat="26.8366009" lon="75.9156751">
      </trkpt>
      <trkpt lat="26.8365682" lon="75.9151424">
      </trkpt>
      <trkpt lat="26.8365374" lon="75.91442">
      </trkpt>
      <trkpt lat="26.8361658" lon="75.8978871">
      </trkpt>
      <trkpt lat="26.8361326" lon="75.8967491">
      </trkpt>
      <trkpt lat="26.8361135" lon="75.8961377">
      </trkpt>
      <trkpt lat="26.8358862" lon="75.8864616">
      </trkpt>
      <trkpt lat="26.8358676" lon="75.8854103">
      </trkpt>
      <trkpt lat="26.835714" lon="75.8788119">
      </trkpt>
      <trkpt lat="26.8354796" lon="75.868307">
      </trkpt>
      <trkpt lat="26.8352542" lon="75.8574173">
      </trkpt>
      <trkpt lat="26.8350951" lon="75.8507562">
      </trkpt>
      <trkpt lat="26.8350929" lon="75.8506635">
      </trkpt>
      <trkpt lat="26.8348949" lon="75.8373902">
      </trkpt>
      <trkpt lat="26.8349168" lon="75.8368699">
      </trkpt>
      <trkpt lat="26.8349897" lon="75.8363333">
      </trkpt>
      <trkpt lat="26.8351011" lon="75.8358786">
      </trkpt>
      <trkpt lat="26.8352829" lon="75.8354007">
      </trkpt>
      <trkpt lat="26.8354998" lon="75.8349012">
      </trkpt>
      <trkpt lat="26.8359619" lon="75.8338975">
      </trkpt>
      <trkpt lat="26.837024" lon="75.8315808">
      </trkpt>
      <trkpt lat="26.839797" lon="75.8255321">
      </trkpt>
      <trkpt lat="26.8409936" lon="75.8227072">
      </trkpt>
      <trkpt lat="26.8418947" lon="75.8207393">
      </trkpt>
      <trkpt lat="26.8422617" lon="75.8199913">
      </trkpt>
      <trkpt lat="26.8424991" lon="75.8195357">
      </trkpt>
      <trkpt lat="26.8427101" lon="75.8191203">
      </trkpt>
      <trkpt lat="26.8430468" lon="75.8185889">
      </trkpt>
      <trkpt lat="26.8433785" lon="75.8181583">
      </trkpt>
      <trkpt lat="26.8438168" lon="75.8176359">
      </trkpt>
      <trkpt lat="26.8440869" lon="75.8173787">
      </trkpt>
      <trkpt lat="26.8443383" lon="75.8171298">
      </trkpt>
      <trkpt lat="26.8448705" lon="75.816689">
      </trkpt>
      <trkpt lat="26.8599788" lon="75.8050514">
      </trkpt>
      <trkpt lat="26.8601905" lon="75.8048883">
      </trkpt>
      <trkpt lat="26.8623878" lon="75.8032258">
      </trkpt>
      <trkpt lat="26.8633046" lon="75.8025366">
      </trkpt>
      <trkpt lat="26.8637018" lon="75.802263">
      </trkpt>
      <trkpt lat="26.8641824" lon="75.8019861">
      </trkpt>
      <trkpt lat="26.8646887" lon="75.8017399">
      </trkpt>
      <trkpt lat="26.8651374" lon="75.8015442">
      </trkpt>
      <trkpt lat="26.8656391" lon="75.8013735">
      </trkpt>
      <trkpt lat="26.8694796" lon="75.8002381">
      </trkpt>
      <trkpt lat="26.8776657" lon="75.7977944">
      </trkpt>
      <trkpt lat="26.8783595" lon="75.7975896">
      </trkpt>
      <trkpt lat="26.8806089" lon="75.796928">
      </trkpt>
      <trkpt lat="26.8838548" lon="75.7959324">
      </trkpt>
      <trkpt lat="26.888892" lon="75.7943788">
      </trkpt>
      <trkpt lat="26.8900103" lon="75.7940501">
      </trkpt>
      <trkpt lat="26.8901029" lon="75.794023">
      </trkpt>
      <trkpt lat="26.8933166" lon="75.7930828">
      </trkpt>
      <trkpt lat="26.8944014" lon="75.7927248">
      </trkpt>
      <trkpt lat="26.8947934" lon="75.7925987">
      </trkpt>
      <trkpt lat="26.8981773" lon="75.7916151">
      </trkpt>
      <trkpt lat="26.9012106" lon="75.7906734">
      </trkpt>
      <trkpt lat="26.9022138" lon="75.7904293">
      </trkpt>
      <trkpt lat="26.9027233" lon="75.7903165">
      </trkpt>
      <trkpt lat="26.9032339" lon="75.7902336">
      </trkpt>
      <trkpt lat="26.9035971" lon="75.7901819">
      </trkpt>
      <trkpt lat="26.9040125" lon="75.7901394">
      </trkpt>
      <trkpt lat="26.904427" lon="75.7901088">
      </trkpt>
      <trkpt lat="26.9050666" lon="75.7900799">
      </trkpt>
      <trkpt lat="26.905632" lon="75.7900742">
      </trkpt>
      <trkpt lat="26.9060174" lon="75.7900802">
      </trkpt>
      <trkpt lat="26.9064812" lon="75.7901083">
      </trkpt>
      <trkpt lat="26.9088106" lon="75.7902761">
      </trkpt>
      <trkpt lat="26.9088611" lon="75.7902794">
      </trkpt>
      <trkpt lat="26.9095962" lon="75.7903372">
      </trkpt>
      <trkpt lat="26.9106678" lon="75.7903961">
      </trkpt>
      <trkpt lat="26.9108085" lon="75.7904047">
      </trkpt>
      <trkpt lat="26.9116403" lon="75.7904554">
      </trkpt>
      <trkpt lat="26.9122188" lon="75.7905015">
      </trkpt>
      <trkpt lat="26.9131109" lon="75.7905927">
      </trkpt>
      <trkpt lat="26.9136921" lon="75.7906491">
      </trkpt>
      <trkpt lat="26.915682" lon="75.7907687">
      </trkpt>
      <trkpt lat="26.9159624" lon="75.7907811">
      </trkpt>
      <trkpt lat="26.916234" lon="75.7907627">
      </trkpt>
      <trkpt lat="26.9164815" lon="75.7907199">
      </trkpt>
      <trkpt lat="26.9167456" lon="75.7906479">
      </trkpt>
      <trkpt lat="26.9170499" lon="75.7905121">
      </trkpt>
      <trkpt lat="26.9172858" lon="75.7903742">
      </trkpt>
      <trkpt lat="26.917599" lon="75.7901509">
      </trkpt>
      <trkpt lat="26.9177882" lon="75.789977">
      </trkpt>
      <trkpt lat="26.9179798" lon="75.7897761">
      </trkpt>
      <trkpt lat="26.9181914" lon="75.7895025">
      </trkpt>
      <trkpt lat="26.9184288" lon="75.7892089">
      </trkpt>
      <trkpt lat="26.9187691" lon="75.7887865">
      </trkpt>
      <trkpt lat="26.9204954" lon="75.7866329">
      </trkpt>
    </trkseg>
  </trk>
</gpx>