<?xml version="1.0" encoding="UTF-8"?>
<gpx xmlns="http://www.topografix.com/GPX/1/1" xmlns:xsi="http://www.w3.org/2001/XMLSchema-instance" xsi:schemaLocation="http://www.topografix.com/GPX/1/1 http://www.topografix.com/GPX/1/1/gpx.xsd" version="1.1" creator="gpx.py -- https://github.com/tkrajina/gpxpy">
  <wpt lat="28.0149119" lon="73.3152518">
    <name>Bikaner Junction</name>
  </wpt>
  <wpt lat="27.7922884" lon="73.336156">
    <name>Deshnok</name>
  </wpt>
  <wpt lat="27.5583309" lon="73.4740755">
    <name>Nokha</name>
  </wpt>
  <wpt lat="27.2031912" lon="73.7221661">
    <name>Nagaur</name>
  </wpt>
  <wpt lat="26.7276417" lon="73.9167772">
    <name>Merta Road Junction</name>
  </wpt>
  <wpt lat="26.2855201" lon="73.0245017">
    <name>Jodhpur</name>
  </wpt>
  <trk>
    <name>Bikaner - Jodhpur (Vies regionals)</name>
    <trkseg>
      <trkpt lat="28.0149119" lon="73.3152518">
      </trkpt>
      <trkpt lat="28.0141354" lon="73.3163529">
      </trkpt>
      <trkpt lat="28.0127611" lon="73.3183153">
      </trkpt>
      <trkpt lat="28.0126393" lon="73.3184762">
      </trkpt>
      <trkpt lat="28.0125096" lon="73.3186444">
      </trkpt>
      <trkpt lat="28.0121758" lon="73.3190471">
      </trkpt>
      <trkpt lat="28.0120586" lon="73.3192027">
      </trkpt>
      <trkpt lat="28.0113268" lon="73.3202326">
      </trkpt>
      <trkpt lat="28.0112084" lon="73.3203936">
      </trkpt>
      <trkpt lat="28.0108552" lon="73.3208276">
      </trkpt>
      <trkpt lat="28.0106168" lon="73.3211568">
      </trkpt>
      <trkpt lat="28.0104302" lon="73.3214062">
      </trkpt>
      <trkpt lat="28.0101433" lon="73.3217364">
      </trkpt>
      <trkpt lat="28.009758" lon="73.3221578">
      </trkpt>
      <trkpt lat="28.0092853" lon="73.3225777">
      </trkpt>
      <trkpt lat="28.0091524" lon="73.3226765">
      </trkpt>
      <trkpt lat="28.0087351" lon="73.3229866">
      </trkpt>
      <trkpt lat="28.00824" lon="73.323284">
      </trkpt>
      <trkpt lat="28.0074134" lon="73.3237045">
      </trkpt>
      <trkpt lat="28.0069883" lon="73.323882">
      </trkpt>
      <trkpt lat="28.0015237" lon="73.3262569">
      </trkpt>
      <trkpt lat="27.9953475" lon="73.3288329">
      </trkpt>
      <trkpt lat="27.9948761" lon="73.3290367">
      </trkpt>
      <trkpt lat="27.9923727" lon="73.33001">
      </trkpt>
      <trkpt lat="27.9898826" lon="73.3310671">
      </trkpt>
      <trkpt lat="27.9893305" lon="73.3313402">
      </trkpt>
      <trkpt lat="27.9887987" lon="73.3316638">
      </trkpt>
      <trkpt lat="27.9883012" lon="73.3320108">
      </trkpt>
      <trkpt lat="27.9878972" lon="73.3323449">
      </trkpt>
      <trkpt lat="27.9875169" lon="73.3326991">
      </trkpt>
      <trkpt lat="27.9871357" lon="73.3331137">
      </trkpt>
      <trkpt lat="27.9837853" lon="73.3369218">
      </trkpt>
      <trkpt lat="27.9817793" lon="73.339185">
      </trkpt>
      <trkpt lat="27.9813615" lon="73.3397108">
      </trkpt>
      <trkpt lat="27.9811537" lon="73.3399369">
      </trkpt>
      <trkpt lat="27.9810668" lon="73.3400316">
      </trkpt>
      <trkpt lat="27.9808464" lon="73.3402714">
      </trkpt>
      <trkpt lat="27.9805935" lon="73.3405197">
      </trkpt>
      <trkpt lat="27.9803027" lon="73.3407944">
      </trkpt>
      <trkpt lat="27.980002" lon="73.3410156">
      </trkpt>
      <trkpt lat="27.9793054" lon="73.3415541">
      </trkpt>
      <trkpt lat="27.9784517" lon="73.3419818">
      </trkpt>
      <trkpt lat="27.9761119" lon="73.3428495">
      </trkpt>
      <trkpt lat="27.9716619" lon="73.3445658">
      </trkpt>
      <trkpt lat="27.9701002" lon="73.3451541">
      </trkpt>
      <trkpt lat="27.9687783" lon="73.345482">
      </trkpt>
      <trkpt lat="27.9541763" lon="73.3479877">
      </trkpt>
      <trkpt lat="27.9388996" lon="73.3506009">
      </trkpt>
      <trkpt lat="27.9364083" lon="73.351037">
      </trkpt>
      <trkpt lat="27.933856" lon="73.3514854">
      </trkpt>
      <trkpt lat="27.9332534" lon="73.351583">
      </trkpt>
      <trkpt lat="27.9327246" lon="73.3516155">
      </trkpt>
      <trkpt lat="27.9320346" lon="73.3515542">
      </trkpt>
      <trkpt lat="27.931614" lon="73.3514091">
      </trkpt>
      <trkpt lat="27.9311248" lon="73.3512002">
      </trkpt>
      <trkpt lat="27.9305723" lon="73.350863">
      </trkpt>
      <trkpt lat="27.9299471" lon="73.3503594">
      </trkpt>
      <trkpt lat="27.9234678" lon="73.3443822">
      </trkpt>
      <trkpt lat="27.9091821" lon="73.3312049">
      </trkpt>
      <trkpt lat="27.9084728" lon="73.3303836">
      </trkpt>
      <trkpt lat="27.9076231" lon="73.3293496">
      </trkpt>
      <trkpt lat="27.9060214" lon="73.3273874">
      </trkpt>
      <trkpt lat="27.901926" lon="73.322407">
      </trkpt>
      <trkpt lat="27.8979279" lon="73.3175584">
      </trkpt>
      <trkpt lat="27.8899076" lon="73.3078527">
      </trkpt>
      <trkpt lat="27.8738697" lon="73.2885068">
      </trkpt>
      <trkpt lat="27.862228" lon="73.2744745">
      </trkpt>
      <trkpt lat="27.8616084" lon="73.2737471">
      </trkpt>
      <trkpt lat="27.8609804" lon="73.2732204">
      </trkpt>
      <trkpt lat="27.8602442" lon="73.2727887">
      </trkpt>
      <trkpt lat="27.8597329" lon="73.2725777">
      </trkpt>
      <trkpt lat="27.8590836" lon="73.2723796">
      </trkpt>
      <trkpt lat="27.8581725" lon="73.2722876">
      </trkpt>
      <trkpt lat="27.8557196" lon="73.2724884">
      </trkpt>
      <trkpt lat="27.8535947" lon="73.2726706">
      </trkpt>
      <trkpt lat="27.8522112" lon="73.2728087">
      </trkpt>
      <trkpt lat="27.8499583" lon="73.2729754">
      </trkpt>
      <trkpt lat="27.8465719" lon="73.2732713">
      </trkpt>
      <trkpt lat="27.845317" lon="73.2733748">
      </trkpt>
      <trkpt lat="27.8440373" lon="73.2735379">
      </trkpt>
      <trkpt lat="27.8431614" lon="73.2737372">
      </trkpt>
      <trkpt lat="27.8427047" lon="73.2739145">
      </trkpt>
      <trkpt lat="27.839654" lon="73.2753301">
      </trkpt>
      <trkpt lat="27.8366842" lon="73.276672">
      </trkpt>
      <trkpt lat="27.8326478" lon="73.278501">
      </trkpt>
      <trkpt lat="27.8286781" lon="73.2803628">
      </trkpt>
      <trkpt lat="27.8276054" lon="73.2808881">
      </trkpt>
      <trkpt lat="27.8265839" lon="73.2815032">
      </trkpt>
      <trkpt lat="27.8260327" lon="73.2819609">
      </trkpt>
      <trkpt lat="27.8253814" lon="73.2825636">
      </trkpt>
      <trkpt lat="27.8247037" lon="73.2834252">
      </trkpt>
      <trkpt lat="27.8241456" lon="73.2842849">
      </trkpt>
      <trkpt lat="27.8220099" lon="73.2877388">
      </trkpt>
      <trkpt lat="27.8198556" lon="73.291183">
      </trkpt>
      <trkpt lat="27.8155414" lon="73.2982317">
      </trkpt>
      <trkpt lat="27.8124639" lon="73.3032221">
      </trkpt>
      <trkpt lat="27.8093661" lon="73.3082597">
      </trkpt>
      <trkpt lat="27.8073144" lon="73.3116252">
      </trkpt>
      <trkpt lat="27.8064542" lon="73.3130018">
      </trkpt>
      <trkpt lat="27.8036062" lon="73.3178554">
      </trkpt>
      <trkpt lat="27.7924749" lon="73.3358645">
      </trkpt>
      <trkpt lat="27.7922884" lon="73.336156">
      </trkpt>
      <trkpt lat="27.790636" lon="73.3387386">
      </trkpt>
      <trkpt lat="27.7888301" lon="73.3416458">
      </trkpt>
      <trkpt lat="27.7872946" lon="73.3442403">
      </trkpt>
      <trkpt lat="27.7826756" lon="73.3520136">
      </trkpt>
      <trkpt lat="27.7823959" lon="73.3524529">
      </trkpt>
      <trkpt lat="27.782066" lon="73.3529056">
      </trkpt>
      <trkpt lat="27.7816226" lon="73.3534042">
      </trkpt>
      <trkpt lat="27.781405" lon="73.3536266">
      </trkpt>
      <trkpt lat="27.7811434" lon="73.35389">
      </trkpt>
      <trkpt lat="27.7792554" lon="73.3555056">
      </trkpt>
      <trkpt lat="27.7790953" lon="73.3556499">
      </trkpt>
      <trkpt lat="27.7690309" lon="73.364924">
      </trkpt>
      <trkpt lat="27.7682503" lon="73.3656241">
      </trkpt>
      <trkpt lat="27.7680387" lon="73.3658659">
      </trkpt>
      <trkpt lat="27.7677867" lon="73.3661243">
      </trkpt>
      <trkpt lat="27.7674418" lon="73.3665869">
      </trkpt>
      <trkpt lat="27.7673726" lon="73.3666882">
      </trkpt>
      <trkpt lat="27.7671688" lon="73.3669868">
      </trkpt>
      <trkpt lat="27.7671053" lon="73.3670798">
      </trkpt>
      <trkpt lat="27.7668005" lon="73.3676131">
      </trkpt>
      <trkpt lat="27.7626217" lon="73.3763007">
      </trkpt>
      <trkpt lat="27.7624524" lon="73.376668">
      </trkpt>
      <trkpt lat="27.7523193" lon="73.3983818">
      </trkpt>
      <trkpt lat="27.7452576" lon="73.4133931">
      </trkpt>
      <trkpt lat="27.7417651" lon="73.4208268">
      </trkpt>
      <trkpt lat="27.7382444" lon="73.428372">
      </trkpt>
      <trkpt lat="27.737607" lon="73.429717">
      </trkpt>
      <trkpt lat="27.736952" lon="73.4310941">
      </trkpt>
      <trkpt lat="27.7356563" lon="73.4338485">
      </trkpt>
      <trkpt lat="27.7344044" lon="73.4365305">
      </trkpt>
      <trkpt lat="27.7341204" lon="73.4371388">
      </trkpt>
      <trkpt lat="27.7338136" lon="73.437757">
      </trkpt>
      <trkpt lat="27.733543" lon="73.4382236">
      </trkpt>
      <trkpt lat="27.7332705" lon="73.4385838">
      </trkpt>
      <trkpt lat="27.7329101" lon="73.4390077">
      </trkpt>
      <trkpt lat="27.732462" lon="73.4394128">
      </trkpt>
      <trkpt lat="27.7321034" lon="73.4396728">
      </trkpt>
      <trkpt lat="27.731861" lon="73.4398194">
      </trkpt>
      <trkpt lat="27.7314545" lon="73.4400335">
      </trkpt>
      <trkpt lat="27.7309495" lon="73.440262">
      </trkpt>
      <trkpt lat="27.7295879" lon="73.4406244">
      </trkpt>
      <trkpt lat="27.7281798" lon="73.4409658">
      </trkpt>
      <trkpt lat="27.7268027" lon="73.4412747">
      </trkpt>
      <trkpt lat="27.7259403" lon="73.4413965">
      </trkpt>
      <trkpt lat="27.7250252" lon="73.4414608">
      </trkpt>
      <trkpt lat="27.7176476" lon="73.4419867">
      </trkpt>
      <trkpt lat="27.7154341" lon="73.4421234">
      </trkpt>
      <trkpt lat="27.7088732" lon="73.4425285">
      </trkpt>
      <trkpt lat="27.7078047" lon="73.442619">
      </trkpt>
      <trkpt lat="27.7072253" lon="73.442674">
      </trkpt>
      <trkpt lat="27.7039817" lon="73.4429521">
      </trkpt>
      <trkpt lat="27.7022573" lon="73.4430736">
      </trkpt>
      <trkpt lat="27.6934636" lon="73.4436933">
      </trkpt>
      <trkpt lat="27.6924782" lon="73.4438934">
      </trkpt>
      <trkpt lat="27.6911588" lon="73.4443994">
      </trkpt>
      <trkpt lat="27.6896439" lon="73.4451387">
      </trkpt>
      <trkpt lat="27.6603741" lon="73.4596371">
      </trkpt>
      <trkpt lat="27.659071" lon="73.460233">
      </trkpt>
      <trkpt lat="27.6571563" lon="73.4608868">
      </trkpt>
      <trkpt lat="27.6527597" lon="73.4622478">
      </trkpt>
      <trkpt lat="27.6450041" lon="73.4646167">
      </trkpt>
      <trkpt lat="27.6446572" lon="73.4647218">
      </trkpt>
      <trkpt lat="27.6436569" lon="73.4650247">
      </trkpt>
      <trkpt lat="27.6422823" lon="73.4653234">
      </trkpt>
      <trkpt lat="27.6409703" lon="73.4654894">
      </trkpt>
      <trkpt lat="27.6396546" lon="73.4655931">
      </trkpt>
      <trkpt lat="27.6372255" lon="73.4658308">
      </trkpt>
      <trkpt lat="27.6243073" lon="73.4669673">
      </trkpt>
      <trkpt lat="27.5757472" lon="73.4714514">
      </trkpt>
      <trkpt lat="27.5631874" lon="73.4725866">
      </trkpt>
      <trkpt lat="27.5624565" lon="73.4726376">
      </trkpt>
      <trkpt lat="27.5619732" lon="73.4727186">
      </trkpt>
      <trkpt lat="27.5615346" lon="73.4727907">
      </trkpt>
      <trkpt lat="27.5610137" lon="73.4728948">
      </trkpt>
      <trkpt lat="27.560476" lon="73.4730399">
      </trkpt>
      <trkpt lat="27.5599969" lon="73.4732102">
      </trkpt>
      <trkpt lat="27.5593042" lon="73.4735079">
      </trkpt>
      <trkpt lat="27.5586862" lon="73.4738628">
      </trkpt>
      <trkpt lat="27.5583309" lon="73.4740755">
      </trkpt>
      <trkpt lat="27.5579943" lon="73.4742844">
      </trkpt>
      <trkpt lat="27.5573077" lon="73.4746533">
      </trkpt>
      <trkpt lat="27.5567477" lon="73.4749667">
      </trkpt>
      <trkpt lat="27.5546803" lon="73.4761726">
      </trkpt>
      <trkpt lat="27.5507544" lon="73.4784749">
      </trkpt>
      <trkpt lat="27.5478644" lon="73.4802055">
      </trkpt>
      <trkpt lat="27.5468189" lon="73.480793">
      </trkpt>
      <trkpt lat="27.5428905" lon="73.4830524">
      </trkpt>
      <trkpt lat="27.5387352" lon="73.4854636">
      </trkpt>
      <trkpt lat="27.5319615" lon="73.4892421">
      </trkpt>
      <trkpt lat="27.5285903" lon="73.4911942">
      </trkpt>
      <trkpt lat="27.5251352" lon="73.4931963">
      </trkpt>
      <trkpt lat="27.5234827" lon="73.4941454">
      </trkpt>
      <trkpt lat="27.5222942" lon="73.4948138">
      </trkpt>
      <trkpt lat="27.521495" lon="73.4952174">
      </trkpt>
      <trkpt lat="27.5210934" lon="73.4953404">
      </trkpt>
      <trkpt lat="27.5204936" lon="73.4954687">
      </trkpt>
      <trkpt lat="27.5200102" lon="73.4954834">
      </trkpt>
      <trkpt lat="27.519219" lon="73.4954452">
      </trkpt>
      <trkpt lat="27.5173146" lon="73.4949943">
      </trkpt>
      <trkpt lat="27.5131578" lon="73.4938965">
      </trkpt>
      <trkpt lat="27.5122235" lon="73.4937427">
      </trkpt>
      <trkpt lat="27.5116798" lon="73.4937143">
      </trkpt>
      <trkpt lat="27.5109736" lon="73.4937383">
      </trkpt>
      <trkpt lat="27.5098593" lon="73.4938664">
      </trkpt>
      <trkpt lat="27.5040126" lon="73.4948278">
      </trkpt>
      <trkpt lat="27.5024444" lon="73.4950064">
      </trkpt>
      <trkpt lat="27.501481" lon="73.495218">
      </trkpt>
      <trkpt lat="27.500699" lon="73.4954946">
      </trkpt>
      <trkpt lat="27.4921252" lon="73.4985054">
      </trkpt>
      <trkpt lat="27.4916328" lon="73.4987163">
      </trkpt>
      <trkpt lat="27.4915694" lon="73.4987434">
      </trkpt>
      <trkpt lat="27.4912116" lon="73.4989434">
      </trkpt>
      <trkpt lat="27.4909179" lon="73.4991169">
      </trkpt>
      <trkpt lat="27.4905564" lon="73.4993482">
      </trkpt>
      <trkpt lat="27.4900446" lon="73.4997283">
      </trkpt>
      <trkpt lat="27.4894526" lon="73.5002802">
      </trkpt>
      <trkpt lat="27.4888173" lon="73.5009755">
      </trkpt>
      <trkpt lat="27.4877652" lon="73.5022662">
      </trkpt>
      <trkpt lat="27.4866168" lon="73.5036324">
      </trkpt>
      <trkpt lat="27.4843485" lon="73.5063468">
      </trkpt>
      <trkpt lat="27.4834281" lon="73.5074415">
      </trkpt>
      <trkpt lat="27.4824425" lon="73.5086178">
      </trkpt>
      <trkpt lat="27.4805043" lon="73.5109444">
      </trkpt>
      <trkpt lat="27.4799135" lon="73.511652">
      </trkpt>
      <trkpt lat="27.4794994" lon="73.5121063">
      </trkpt>
      <trkpt lat="27.4789866" lon="73.5125611">
      </trkpt>
      <trkpt lat="27.4786297" lon="73.512847">
      </trkpt>
      <trkpt lat="27.4783034" lon="73.5130842">
      </trkpt>
      <trkpt lat="27.4775702" lon="73.5135167">
      </trkpt>
      <trkpt lat="27.4751974" lon="73.514901">
      </trkpt>
      <trkpt lat="27.4726998" lon="73.516383">
      </trkpt>
      <trkpt lat="27.4714438" lon="73.51712">
      </trkpt>
      <trkpt lat="27.4701761" lon="73.5178675">
      </trkpt>
      <trkpt lat="27.4675688" lon="73.519389">
      </trkpt>
      <trkpt lat="27.4664889" lon="73.5200093">
      </trkpt>
      <trkpt lat="27.4662122" lon="73.520142">
      </trkpt>
      <trkpt lat="27.4656796" lon="73.5203501">
      </trkpt>
      <trkpt lat="27.4648189" lon="73.5205883">
      </trkpt>
      <trkpt lat="27.4607349" lon="73.5215109">
      </trkpt>
      <trkpt lat="27.45603" lon="73.5226774">
      </trkpt>
      <trkpt lat="27.4451836" lon="73.5251514">
      </trkpt>
      <trkpt lat="27.4408136" lon="73.5261327">
      </trkpt>
      <trkpt lat="27.4249726" lon="73.5297007">
      </trkpt>
      <trkpt lat="27.4234193" lon="73.530064">
      </trkpt>
      <trkpt lat="27.4226046" lon="73.5304204">
      </trkpt>
      <trkpt lat="27.4219536" lon="73.5308282">
      </trkpt>
      <trkpt lat="27.4208637" lon="73.531893">
      </trkpt>
      <trkpt lat="27.4197457" lon="73.5334965">
      </trkpt>
      <trkpt lat="27.4177321" lon="73.5364801">
      </trkpt>
      <trkpt lat="27.4169121" lon="73.5376108">
      </trkpt>
      <trkpt lat="27.4156853" lon="73.539345">
      </trkpt>
      <trkpt lat="27.4108501" lon="73.5463129">
      </trkpt>
      <trkpt lat="27.4108065" lon="73.5462101">
      </trkpt>
      <trkpt lat="27.4101319" lon="73.5470337">
      </trkpt>
      <trkpt lat="27.4094901" lon="73.5475853">
      </trkpt>
      <trkpt lat="27.4089005" lon="73.5478662">
      </trkpt>
      <trkpt lat="27.4083401" lon="73.5481208">
      </trkpt>
      <trkpt lat="27.4076622" lon="73.5482746">
      </trkpt>
      <trkpt lat="27.4067204" lon="73.54842">
      </trkpt>
      <trkpt lat="27.3970918" lon="73.5492523">
      </trkpt>
      <trkpt lat="27.3921824" lon="73.5497088">
      </trkpt>
      <trkpt lat="27.389758" lon="73.5499064">
      </trkpt>
      <trkpt lat="27.3876529" lon="73.5500823">
      </trkpt>
      <trkpt lat="27.3866189" lon="73.5501238">
      </trkpt>
      <trkpt lat="27.385398" lon="73.5501927">
      </trkpt>
      <trkpt lat="27.3837047" lon="73.5501541">
      </trkpt>
      <trkpt lat="27.3804442" lon="73.5500744">
      </trkpt>
      <trkpt lat="27.3775072" lon="73.5500775">
      </trkpt>
      <trkpt lat="27.3746258" lon="73.5499758">
      </trkpt>
      <trkpt lat="27.3718744" lon="73.5499577">
      </trkpt>
      <trkpt lat="27.3689459" lon="73.5499108">
      </trkpt>
      <trkpt lat="27.3632148" lon="73.5498225">
      </trkpt>
      <trkpt lat="27.3608473" lon="73.5497735">
      </trkpt>
      <trkpt lat="27.3597114" lon="73.5497357">
      </trkpt>
      <trkpt lat="27.3578839" lon="73.5497703">
      </trkpt>
      <trkpt lat="27.3570554" lon="73.5497383">
      </trkpt>
      <trkpt lat="27.3565028" lon="73.5498097">
      </trkpt>
      <trkpt lat="27.355779" lon="73.5499534">
      </trkpt>
      <trkpt lat="27.3551213" lon="73.5501333">
      </trkpt>
      <trkpt lat="27.3545259" lon="73.5503457">
      </trkpt>
      <trkpt lat="27.3540851" lon="73.5506035">
      </trkpt>
      <trkpt lat="27.3532277" lon="73.5510643">
      </trkpt>
      <trkpt lat="27.3522681" lon="73.5517557">
      </trkpt>
      <trkpt lat="27.3472009" lon="73.5551417">
      </trkpt>
      <trkpt lat="27.3465702" lon="73.5555979">
      </trkpt>
      <trkpt lat="27.3461442" lon="73.5559448">
      </trkpt>
      <trkpt lat="27.3457501" lon="73.556318">
      </trkpt>
      <trkpt lat="27.3454185" lon="73.5566934">
      </trkpt>
      <trkpt lat="27.3447871" lon="73.5574948">
      </trkpt>
      <trkpt lat="27.3445091" lon="73.5579469">
      </trkpt>
      <trkpt lat="27.3441876" lon="73.5585321">
      </trkpt>
      <trkpt lat="27.3438709" lon="73.559256">
      </trkpt>
      <trkpt lat="27.3436008" lon="73.5600645">
      </trkpt>
      <trkpt lat="27.3432265" lon="73.5613688">
      </trkpt>
      <trkpt lat="27.3400581" lon="73.5759723">
      </trkpt>
      <trkpt lat="27.3387741" lon="73.5810818">
      </trkpt>
      <trkpt lat="27.3383085" lon="73.5833127">
      </trkpt>
      <trkpt lat="27.3381203" lon="73.584044">
      </trkpt>
      <trkpt lat="27.3377671" lon="73.5854165">
      </trkpt>
      <trkpt lat="27.3370994" lon="73.5882431">
      </trkpt>
      <trkpt lat="27.3368131" lon="73.5895157">
      </trkpt>
      <trkpt lat="27.3367904" lon="73.5895841">
      </trkpt>
      <trkpt lat="27.3356619" lon="73.5929817">
      </trkpt>
      <trkpt lat="27.334165" lon="73.5974099">
      </trkpt>
      <trkpt lat="27.331126" lon="73.6063568">
      </trkpt>
      <trkpt lat="27.3281989" lon="73.6148568">
      </trkpt>
      <trkpt lat="27.3280263" lon="73.6153424">
      </trkpt>
      <trkpt lat="27.3274221" lon="73.6170423">
      </trkpt>
      <trkpt lat="27.3258757" lon="73.6213929">
      </trkpt>
      <trkpt lat="27.3234482" lon="73.6282221">
      </trkpt>
      <trkpt lat="27.3223975" lon="73.631178">
      </trkpt>
      <trkpt lat="27.3222347" lon="73.6316361">
      </trkpt>
      <trkpt lat="27.3128628" lon="73.6578481">
      </trkpt>
      <trkpt lat="27.3122574" lon="73.6594466">
      </trkpt>
      <trkpt lat="27.3120311" lon="73.6601026">
      </trkpt>
      <trkpt lat="27.3115169" lon="73.6615454">
      </trkpt>
      <trkpt lat="27.3108952" lon="73.663326">
      </trkpt>
      <trkpt lat="27.3096108" lon="73.6669074">
      </trkpt>
      <trkpt lat="27.3082833" lon="73.6705318">
      </trkpt>
      <trkpt lat="27.3040743" lon="73.6823344">
      </trkpt>
      <trkpt lat="27.3036789" lon="73.6833531">
      </trkpt>
      <trkpt lat="27.3033393" lon="73.6842422">
      </trkpt>
      <trkpt lat="27.3029573" lon="73.6849815">
      </trkpt>
      <trkpt lat="27.3024661" lon="73.6857668">
      </trkpt>
      <trkpt lat="27.30206" lon="73.6862967">
      </trkpt>
      <trkpt lat="27.3016518" lon="73.686739">
      </trkpt>
      <trkpt lat="27.300919" lon="73.6874249">
      </trkpt>
      <trkpt lat="27.2998131" lon="73.6883783">
      </trkpt>
      <trkpt lat="27.298746" lon="73.689377">
      </trkpt>
      <trkpt lat="27.2965971" lon="73.6912438">
      </trkpt>
      <trkpt lat="27.2944705" lon="73.6931309">
      </trkpt>
      <trkpt lat="27.2923282" lon="73.69505">
      </trkpt>
      <trkpt lat="27.291573" lon="73.695674">
      </trkpt>
      <trkpt lat="27.2911955" lon="73.6959253">
      </trkpt>
      <trkpt lat="27.2908115" lon="73.696147">
      </trkpt>
      <trkpt lat="27.29045" lon="73.6963368">
      </trkpt>
      <trkpt lat="27.2900693" lon="73.6965062">
      </trkpt>
      <trkpt lat="27.2897884" lon="73.6966205">
      </trkpt>
      <trkpt lat="27.2893969" lon="73.6967398">
      </trkpt>
      <trkpt lat="27.2889676" lon="73.6968594">
      </trkpt>
      <trkpt lat="27.2884696" lon="73.6969789">
      </trkpt>
      <trkpt lat="27.279494" lon="73.6989796">
      </trkpt>
      <trkpt lat="27.277102" lon="73.6995995">
      </trkpt>
      <trkpt lat="27.2742485" lon="73.700181">
      </trkpt>
      <trkpt lat="27.2713342" lon="73.7009465">
      </trkpt>
      <trkpt lat="27.2682477" lon="73.7015727">
      </trkpt>
      <trkpt lat="27.2655065" lon="73.7022366">
      </trkpt>
      <trkpt lat="27.2615818" lon="73.7032067">
      </trkpt>
      <trkpt lat="27.2540538" lon="73.7049185">
      </trkpt>
      <trkpt lat="27.2425687" lon="73.7075922">
      </trkpt>
      <trkpt lat="27.2407306" lon="73.7080427">
      </trkpt>
      <trkpt lat="27.2398763" lon="73.7082095">
      </trkpt>
      <trkpt lat="27.2385731" lon="73.7085317">
      </trkpt>
      <trkpt lat="27.237347" lon="73.708962">
      </trkpt>
      <trkpt lat="27.2331828" lon="73.7105863">
      </trkpt>
      <trkpt lat="27.2257484" lon="73.7134582">
      </trkpt>
      <trkpt lat="27.2183322" lon="73.716337">
      </trkpt>
      <trkpt lat="27.2168708" lon="73.7168802">
      </trkpt>
      <trkpt lat="27.2037357" lon="73.7219548">
      </trkpt>
      <trkpt lat="27.2036848" lon="73.7219744">
      </trkpt>
      <trkpt lat="27.2031912" lon="73.7221661">
      </trkpt>
      <trkpt lat="27.2024316" lon="73.722448">
      </trkpt>
      <trkpt lat="27.2021428" lon="73.7226023">
      </trkpt>
      <trkpt lat="27.2020514" lon="73.7226433">
      </trkpt>
      <trkpt lat="27.1958447" lon="73.7250545">
      </trkpt>
      <trkpt lat="27.1951702" lon="73.7253166">
      </trkpt>
      <trkpt lat="27.1950565" lon="73.7253538">
      </trkpt>
      <trkpt lat="27.1946333" lon="73.725475">
      </trkpt>
      <trkpt lat="27.1937723" lon="73.7257937">
      </trkpt>
      <trkpt lat="27.1889143" lon="73.7277159">
      </trkpt>
      <trkpt lat="27.1819483" lon="73.7304199">
      </trkpt>
      <trkpt lat="27.1816131" lon="73.7305554">
      </trkpt>
      <trkpt lat="27.1813703" lon="73.7306536">
      </trkpt>
      <trkpt lat="27.1809729" lon="73.7308523">
      </trkpt>
      <trkpt lat="27.1807713" lon="73.7309531">
      </trkpt>
      <trkpt lat="27.1800099" lon="73.7314547">
      </trkpt>
      <trkpt lat="27.1792204" lon="73.7320243">
      </trkpt>
      <trkpt lat="27.1763956" lon="73.7341555">
      </trkpt>
      <trkpt lat="27.1732871" lon="73.7364117">
      </trkpt>
      <trkpt lat="27.1704106" lon="73.7385386">
      </trkpt>
      <trkpt lat="27.1674155" lon="73.7407531">
      </trkpt>
      <trkpt lat="27.1612148" lon="73.7453006">
      </trkpt>
      <trkpt lat="27.1551528" lon="73.7497611">
      </trkpt>
      <trkpt lat="27.1488418" lon="73.7544346">
      </trkpt>
      <trkpt lat="27.1439569" lon="73.7580285">
      </trkpt>
      <trkpt lat="27.1148845" lon="73.7795475">
      </trkpt>
      <trkpt lat="27.080487" lon="73.8049461">
      </trkpt>
      <trkpt lat="27.0747379" lon="73.809189">
      </trkpt>
      <trkpt lat="27.0690791" lon="73.8133266">
      </trkpt>
      <trkpt lat="27.0682309" lon="73.8139484">
      </trkpt>
      <trkpt lat="27.0675235" lon="73.8143701">
      </trkpt>
      <trkpt lat="27.0670817" lon="73.8145812">
      </trkpt>
      <trkpt lat="27.0665831" lon="73.8147603">
      </trkpt>
      <trkpt lat="27.0660245" lon="73.8149521">
      </trkpt>
      <trkpt lat="27.0628523" lon="73.8159962">
      </trkpt>
      <trkpt lat="27.0615027" lon="73.816465">
      </trkpt>
      <trkpt lat="27.0571086" lon="73.8180493">
      </trkpt>
      <trkpt lat="27.0546326" lon="73.8189508">
      </trkpt>
      <trkpt lat="27.05204" lon="73.8198482">
      </trkpt>
      <trkpt lat="27.0470425" lon="73.8215317">
      </trkpt>
      <trkpt lat="27.0459159" lon="73.8219355">
      </trkpt>
      <trkpt lat="27.0442028" lon="73.8225082">
      </trkpt>
      <trkpt lat="27.0332584" lon="73.8263497">
      </trkpt>
      <trkpt lat="27.0129501" lon="73.8332674">
      </trkpt>
      <trkpt lat="27.0094163" lon="73.8344825">
      </trkpt>
      <trkpt lat="27.0056852" lon="73.8357541">
      </trkpt>
      <trkpt lat="27.0021634" lon="73.8369479">
      </trkpt>
      <trkpt lat="26.9984088" lon="73.8381067">
      </trkpt>
      <trkpt lat="26.9837638" lon="73.8426694">
      </trkpt>
      <trkpt lat="26.9777405" lon="73.8445451">
      </trkpt>
      <trkpt lat="26.9715832" lon="73.8465167">
      </trkpt>
      <trkpt lat="26.928685" lon="73.8597804">
      </trkpt>
      <trkpt lat="26.9231843" lon="73.8614351">
      </trkpt>
      <trkpt lat="26.8890357" lon="73.8723986">
      </trkpt>
      <trkpt lat="26.8486485" lon="73.8858306">
      </trkpt>
      <trkpt lat="26.8440509" lon="73.8873594">
      </trkpt>
      <trkpt lat="26.8190575" lon="73.8957276">
      </trkpt>
      <trkpt lat="26.8189535" lon="73.8957624">
      </trkpt>
      <trkpt lat="26.8130366" lon="73.8977435">
      </trkpt>
      <trkpt lat="26.7895596" lon="73.9055413">
      </trkpt>
      <trkpt lat="26.7828799" lon="73.907706">
      </trkpt>
      <trkpt lat="26.7629245" lon="73.91438">
      </trkpt>
      <trkpt lat="26.7498934" lon="73.9186292">
      </trkpt>
      <trkpt lat="26.7480755" lon="73.9193227">
      </trkpt>
      <trkpt lat="26.7374298" lon="73.9227863">
      </trkpt>
      <trkpt lat="26.7369273" lon="73.9230055">
      </trkpt>
      <trkpt lat="26.7327486" lon="73.9243969">
      </trkpt>
      <trkpt lat="26.7325364" lon="73.9244713">
      </trkpt>
      <trkpt lat="26.7323244" lon="73.9245665">
      </trkpt>
      <trkpt lat="26.7321459" lon="73.9246617">
      </trkpt>
      <trkpt lat="26.731971" lon="73.924773">
      </trkpt>
      <trkpt lat="26.7317821" lon="73.9249222">
      </trkpt>
      <trkpt lat="26.7315866" lon="73.9250954">
      </trkpt>
      <trkpt lat="26.7312311" lon="73.9255393">
      </trkpt>
      <trkpt lat="26.7310621" lon="73.9258431">
      </trkpt>
      <trkpt lat="26.7309278" lon="73.9261504">
      </trkpt>
      <trkpt lat="26.7308343" lon="73.9264339">
      </trkpt>
      <trkpt lat="26.7307535" lon="73.9267645">
      </trkpt>
      <trkpt lat="26.7307109" lon="73.9271413">
      </trkpt>
      <trkpt lat="26.7307287" lon="73.9275437">
      </trkpt>
      <trkpt lat="26.7307913" lon="73.9278697">
      </trkpt>
      <trkpt lat="26.7309314" lon="73.9284128">
      </trkpt>
      <trkpt lat="26.7310823" lon="73.9291424">
      </trkpt>
      <trkpt lat="26.7311781" lon="73.9294884">
      </trkpt>
      <trkpt lat="26.7313483" lon="73.9302946">
      </trkpt>
      <trkpt lat="26.7299858" lon="73.9252939">
      </trkpt>
      <trkpt lat="26.7297622" lon="73.9245208">
      </trkpt>
      <trkpt lat="26.7292592" lon="73.922676">
      </trkpt>
      <trkpt lat="26.7290618" lon="73.9219811">
      </trkpt>
      <trkpt lat="26.728883" lon="73.9213515">
      </trkpt>
      <trkpt lat="26.7283771" lon="73.9194328">
      </trkpt>
      <trkpt lat="26.7276417" lon="73.9167772">
      </trkpt>
      <trkpt lat="26.7264631" lon="73.9124953">
      </trkpt>
      <trkpt lat="26.726272" lon="73.911772">
      </trkpt>
      <trkpt lat="26.7258838" lon="73.910379">
      </trkpt>
      <trkpt lat="26.7260849" lon="73.9109205">
      </trkpt>
      <trkpt lat="26.7257353" lon="73.9096427">
      </trkpt>
      <trkpt lat="26.7255269" lon="73.9088547">
      </trkpt>
      <trkpt lat="26.7254888" lon="73.9087252">
      </trkpt>
      <trkpt lat="26.703196" lon="73.8282355">
      </trkpt>
      <trkpt lat="26.7029046" lon="73.8272686">
      </trkpt>
      <trkpt lat="26.7025932" lon="73.826344">
      </trkpt>
      <trkpt lat="26.7022406" lon="73.8255041">
      </trkpt>
      <trkpt lat="26.701812" lon="73.8245684">
      </trkpt>
      <trkpt lat="26.7014541" lon="73.8238988">
      </trkpt>
      <trkpt lat="26.7003298" lon="73.822223">
      </trkpt>
      <trkpt lat="26.6984752" lon="73.8190299">
      </trkpt>
      <trkpt lat="26.6960619" lon="73.8150366">
      </trkpt>
      <trkpt lat="26.6916705" lon="73.8076747">
      </trkpt>
      <trkpt lat="26.6830217" lon="73.7934195">
      </trkpt>
      <trkpt lat="26.6806703" lon="73.7894463">
      </trkpt>
      <trkpt lat="26.6788122" lon="73.7870034">
      </trkpt>
      <trkpt lat="26.6768142" lon="73.7843268">
      </trkpt>
      <trkpt lat="26.672991" lon="73.7792025">
      </trkpt>
      <trkpt lat="26.6716213" lon="73.7768786">
      </trkpt>
      <trkpt lat="26.6705937" lon="73.7749512">
      </trkpt>
      <trkpt lat="26.6642971" lon="73.7619352">
      </trkpt>
      <trkpt lat="26.6592857" lon="73.7518097">
      </trkpt>
      <trkpt lat="26.6566286" lon="73.7463951">
      </trkpt>
      <trkpt lat="26.6546785" lon="73.74244">
      </trkpt>
      <trkpt lat="26.6541702" lon="73.7414007">
      </trkpt>
      <trkpt lat="26.6539812" lon="73.7410178">
      </trkpt>
      <trkpt lat="26.6509935" lon="73.7349665">
      </trkpt>
      <trkpt lat="26.6501928" lon="73.7333102">
      </trkpt>
      <trkpt lat="26.6499711" lon="73.7328563">
      </trkpt>
      <trkpt lat="26.6498208" lon="73.7325601">
      </trkpt>
      <trkpt lat="26.6458468" lon="73.7245161">
      </trkpt>
      <trkpt lat="26.6455413" lon="73.7239484">
      </trkpt>
      <trkpt lat="26.6453029" lon="73.7235744">
      </trkpt>
      <trkpt lat="26.6449759" lon="73.7231488">
      </trkpt>
      <trkpt lat="26.639717" lon="73.7170195">
      </trkpt>
      <trkpt lat="26.6391853" lon="73.7165097">
      </trkpt>
      <trkpt lat="26.6384938" lon="73.7158659">
      </trkpt>
      <trkpt lat="26.6261108" lon="73.7054514">
      </trkpt>
      <trkpt lat="26.6254933" lon="73.7049216">
      </trkpt>
      <trkpt lat="26.6237772" lon="73.7031462">
      </trkpt>
      <trkpt lat="26.6159416" lon="73.6937452">
      </trkpt>
      <trkpt lat="26.614608" lon="73.6921453">
      </trkpt>
      <trkpt lat="26.6097116" lon="73.6863579">
      </trkpt>
      <trkpt lat="26.6094631" lon="73.6860604">
      </trkpt>
      <trkpt lat="26.6093893" lon="73.6859739">
      </trkpt>
      <trkpt lat="26.6070847" lon="73.6832721">
      </trkpt>
      <trkpt lat="26.6046335" lon="73.6803364">
      </trkpt>
      <trkpt lat="26.5851791" lon="73.6574456">
      </trkpt>
      <trkpt lat="26.5833885" lon="73.6553266">
      </trkpt>
      <trkpt lat="26.5790049" lon="73.6501392">
      </trkpt>
      <trkpt lat="26.5732518" lon="73.6433387">
      </trkpt>
      <trkpt lat="26.5688606" lon="73.6384232">
      </trkpt>
      <trkpt lat="26.5676116" lon="73.6367061">
      </trkpt>
      <trkpt lat="26.5655381" lon="73.6334316">
      </trkpt>
      <trkpt lat="26.547962" lon="73.6043606">
      </trkpt>
      <trkpt lat="26.5470683" lon="73.6029336">
      </trkpt>
      <trkpt lat="26.5273809" lon="73.5708015">
      </trkpt>
      <trkpt lat="26.5257999" lon="73.5681873">
      </trkpt>
      <trkpt lat="26.5071614" lon="73.5374832">
      </trkpt>
      <trkpt lat="26.5023767" lon="73.5297241">
      </trkpt>
      <trkpt lat="26.4977423" lon="73.5223235">
      </trkpt>
      <trkpt lat="26.491944" lon="73.5128112">
      </trkpt>
      <trkpt lat="26.4874311" lon="73.5054691">
      </trkpt>
      <trkpt lat="26.4860047" lon="73.5030919">
      </trkpt>
      <trkpt lat="26.4830638" lon="73.4982817">
      </trkpt>
      <trkpt lat="26.4799247" lon="73.4932308">
      </trkpt>
      <trkpt lat="26.4743391" lon="73.4840033">
      </trkpt>
      <trkpt lat="26.4741544" lon="73.4836983">
      </trkpt>
      <trkpt lat="26.4663754" lon="73.4710593">
      </trkpt>
      <trkpt lat="26.4588556" lon="73.458719">
      </trkpt>
      <trkpt lat="26.4568538" lon="73.4554525">
      </trkpt>
      <trkpt lat="26.4551177" lon="73.452697">
      </trkpt>
      <trkpt lat="26.4547485" lon="73.452118">
      </trkpt>
      <trkpt lat="26.4547147" lon="73.452067">
      </trkpt>
      <trkpt lat="26.4544073" lon="73.4515703">
      </trkpt>
      <trkpt lat="26.4525998" lon="73.4486498">
      </trkpt>
      <trkpt lat="26.4516498" lon="73.4471111">
      </trkpt>
      <trkpt lat="26.4510479" lon="73.4461085">
      </trkpt>
      <trkpt lat="26.4500781" lon="73.4444451">
      </trkpt>
      <trkpt lat="26.4499471" lon="73.4442204">
      </trkpt>
      <trkpt lat="26.449309" lon="73.4431101">
      </trkpt>
      <trkpt lat="26.4485862" lon="73.4419587">
      </trkpt>
      <trkpt lat="26.4481008" lon="73.4411855">
      </trkpt>
      <trkpt lat="26.4461911" lon="73.4380123">
      </trkpt>
      <trkpt lat="26.4455853" lon="73.4370455">
      </trkpt>
      <trkpt lat="26.4449424" lon="73.435966">
      </trkpt>
      <trkpt lat="26.4444326" lon="73.4350312">
      </trkpt>
      <trkpt lat="26.4440023" lon="73.4341154">
      </trkpt>
      <trkpt lat="26.4433687" lon="73.4324421">
      </trkpt>
      <trkpt lat="26.4432157" lon="73.4320353">
      </trkpt>
      <trkpt lat="26.4422308" lon="73.4293141">
      </trkpt>
      <trkpt lat="26.4367343" lon="73.4141459">
      </trkpt>
      <trkpt lat="26.43127" lon="73.39907">
      </trkpt>
      <trkpt lat="26.4296466" lon="73.3946108">
      </trkpt>
      <trkpt lat="26.4294778" lon="73.3941474">
      </trkpt>
      <trkpt lat="26.4288264" lon="73.3923595">
      </trkpt>
      <trkpt lat="26.4280346" lon="73.3901453">
      </trkpt>
      <trkpt lat="26.4266983" lon="73.3864555">
      </trkpt>
      <trkpt lat="26.4262426" lon="73.3851972">
      </trkpt>
      <trkpt lat="26.4238147" lon="73.378505">
      </trkpt>
      <trkpt lat="26.4214116" lon="73.3717904">
      </trkpt>
      <trkpt lat="26.4210835" lon="73.3708607">
      </trkpt>
      <trkpt lat="26.4183528" lon="73.3633206">
      </trkpt>
      <trkpt lat="26.4158603" lon="73.3564381">
      </trkpt>
      <trkpt lat="26.4130865" lon="73.3487457">
      </trkpt>
      <trkpt lat="26.4111505" lon="73.3433767">
      </trkpt>
      <trkpt lat="26.4106655" lon="73.3420318">
      </trkpt>
      <trkpt lat="26.4095236" lon="73.3388836">
      </trkpt>
      <trkpt lat="26.4084539" lon="73.3359044">
      </trkpt>
      <trkpt lat="26.408398" lon="73.3357487">
      </trkpt>
      <trkpt lat="26.4061246" lon="73.3294479">
      </trkpt>
      <trkpt lat="26.405249" lon="73.3270119">
      </trkpt>
      <trkpt lat="26.4045394" lon="73.3250501">
      </trkpt>
      <trkpt lat="26.4015508" lon="73.316786">
      </trkpt>
      <trkpt lat="26.3991901" lon="73.3102442">
      </trkpt>
      <trkpt lat="26.3988912" lon="73.3094156">
      </trkpt>
      <trkpt lat="26.3975264" lon="73.3056329">
      </trkpt>
      <trkpt lat="26.3962507" lon="73.3020691">
      </trkpt>
      <trkpt lat="26.3960401" lon="73.3014807">
      </trkpt>
      <trkpt lat="26.3957203" lon="73.3005873">
      </trkpt>
      <trkpt lat="26.3921171" lon="73.29062">
      </trkpt>
      <trkpt lat="26.3899116" lon="73.284519">
      </trkpt>
      <trkpt lat="26.3879919" lon="73.2791338">
      </trkpt>
      <trkpt lat="26.3869222" lon="73.276159">
      </trkpt>
      <trkpt lat="26.3856459" lon="73.2726093">
      </trkpt>
      <trkpt lat="26.3829186" lon="73.2650247">
      </trkpt>
      <trkpt lat="26.3816532" lon="73.2615159">
      </trkpt>
      <trkpt lat="26.3778029" lon="73.2508401">
      </trkpt>
      <trkpt lat="26.369582" lon="73.2280978">
      </trkpt>
      <trkpt lat="26.3676307" lon="73.2225057">
      </trkpt>
      <trkpt lat="26.3568639" lon="73.1927853">
      </trkpt>
      <trkpt lat="26.3479798" lon="73.1682641">
      </trkpt>
      <trkpt lat="26.3455047" lon="73.1614522">
      </trkpt>
      <trkpt lat="26.342931" lon="73.1543264">
      </trkpt>
      <trkpt lat="26.3427957" lon="73.1539519">
      </trkpt>
      <trkpt lat="26.3426976" lon="73.1536841">
      </trkpt>
      <trkpt lat="26.3423782" lon="73.1528125">
      </trkpt>
      <trkpt lat="26.3418654" lon="73.1514188">
      </trkpt>
      <trkpt lat="26.3413695" lon="73.1501984">
      </trkpt>
      <trkpt lat="26.3397426" lon="73.146984">
      </trkpt>
      <trkpt lat="26.3382784" lon="73.1440256">
      </trkpt>
      <trkpt lat="26.338142" lon="73.1437501">
      </trkpt>
      <trkpt lat="26.3378992" lon="73.1432595">
      </trkpt>
      <trkpt lat="26.3327921" lon="73.1329353">
      </trkpt>
      <trkpt lat="26.3248099" lon="73.1167997">
      </trkpt>
      <trkpt lat="26.3163604" lon="73.0997352">
      </trkpt>
      <trkpt lat="26.3100237" lon="73.086946">
      </trkpt>
      <trkpt lat="26.3091957" lon="73.0852954">
      </trkpt>
      <trkpt lat="26.3083703" lon="73.0836359">
      </trkpt>
      <trkpt lat="26.3067541" lon="73.0803785">
      </trkpt>
      <trkpt lat="26.3058976" lon="73.0786187">
      </trkpt>
      <trkpt lat="26.3051949" lon="73.0771749">
      </trkpt>
      <trkpt lat="26.3047303" lon="73.0762815">
      </trkpt>
      <trkpt lat="26.3042934" lon="73.0753874">
      </trkpt>
      <trkpt lat="26.3039724" lon="73.0746657">
      </trkpt>
      <trkpt lat="26.3036758" lon="73.0739182">
      </trkpt>
      <trkpt lat="26.3027896" lon="73.0711961">
      </trkpt>
      <trkpt lat="26.3018948" lon="73.0683666">
      </trkpt>
      <trkpt lat="26.3018838" lon="73.0683319">
      </trkpt>
      <trkpt lat="26.3009668" lon="73.0654552">
      </trkpt>
      <trkpt lat="26.3005214" lon="73.0640356">
      </trkpt>
      <trkpt lat="26.3001557" lon="73.0628525">
      </trkpt>
      <trkpt lat="26.299623" lon="73.0612215">
      </trkpt>
      <trkpt lat="26.2991114" lon="73.0596428">
      </trkpt>
      <trkpt lat="26.2987775" lon="73.0585953">
      </trkpt>
      <trkpt lat="26.2973569" lon="73.0541389">
      </trkpt>
      <trkpt lat="26.2969522" lon="73.0528587">
      </trkpt>
      <trkpt lat="26.2948189" lon="73.0461252">
      </trkpt>
      <trkpt lat="26.2946252" lon="73.0455146">
      </trkpt>
      <trkpt lat="26.2944383" lon="73.0450339">
      </trkpt>
      <trkpt lat="26.2941714" lon="73.0444555">
      </trkpt>
      <trkpt lat="26.2938791" lon="73.0439517">
      </trkpt>
      <trkpt lat="26.2936026" lon="73.0435306">
      </trkpt>
      <trkpt lat="26.2905606" lon="73.0391157">
      </trkpt>
      <trkpt lat="26.2903394" lon="73.0387804">
      </trkpt>
      <trkpt lat="26.2901854" lon="73.038488">
      </trkpt>
      <trkpt lat="26.2900243" lon="73.0381286">
      </trkpt>
      <trkpt lat="26.2898344" lon="73.0376244">
      </trkpt>
      <trkpt lat="26.2897021" lon="73.0371657">
      </trkpt>
      <trkpt lat="26.2896083" lon="73.0366588">
      </trkpt>
      <trkpt lat="26.2895506" lon="73.0362269">
      </trkpt>
      <trkpt lat="26.2891273" lon="73.0324047">
      </trkpt>
      <trkpt lat="26.2890342" lon="73.0316162">
      </trkpt>
      <trkpt lat="26.2888652" lon="73.0300391">
      </trkpt>
      <trkpt lat="26.2887883" lon="73.0294999">
      </trkpt>
      <trkpt lat="26.288715" lon="73.0291137">
      </trkpt>
      <trkpt lat="26.2886019" lon="73.0286805">
      </trkpt>
      <trkpt lat="26.2885045" lon="73.0283855">
      </trkpt>
      <trkpt lat="26.2883891" lon="73.0280837">
      </trkpt>
      <trkpt lat="26.2882532" lon="73.0277807">
      </trkpt>
      <trkpt lat="26.28805" lon="73.0273958">
      </trkpt>
      <trkpt lat="26.2878732" lon="73.0271088">
      </trkpt>
      <trkpt lat="26.2876718" lon="73.0268228">
      </trkpt>
      <trkpt lat="26.2874817" lon="73.0265675">
      </trkpt>
      <trkpt lat="26.2870922" lon="73.0260799">
      </trkpt>
      <trkpt lat="26.2868468" lon="73.0257752">
      </trkpt>
      <trkpt lat="26.2867008" lon="73.025586">
      </trkpt>
      <trkpt lat="26.2865692" lon="73.0254317">
      </trkpt>
      <trkpt lat="26.2864496" lon="73.025305">
      </trkpt>
      <trkpt lat="26.2862512" lon="73.0250958">
      </trkpt>
      <trkpt lat="26.2860624" lon="73.0249067">
      </trkpt>
      <trkpt lat="26.2858363" lon="73.0247216">
      </trkpt>
      <trkpt lat="26.2857017" lon="73.0246156">
      </trkpt>
      <trkpt lat="26.2855201" lon="73.0245017">
      </trkpt>
    </trkseg>
  </trk>
</gpx>