<?xml version="1.0" encoding="UTF-8"?>
<gpx xmlns="http://www.topografix.com/GPX/1/1" xmlns:xsi="http://www.w3.org/2001/XMLSchema-instance" xsi:schemaLocation="http://www.topografix.com/GPX/1/1 http://www.topografix.com/GPX/1/1/gpx.xsd" version="1.1" creator="gpx.py -- https://github.com/tkrajina/gpxpy">
  <wpt lat="28.6424082" lon="77.2199116">
    <name>New Delhi</name>
  </wpt>
  <wpt lat="27.4937764" lon="77.674399">
    <name>Mathura Junction</name>
  </wpt>
  <wpt lat="27.1619877" lon="77.9905266">
    <name>Agra Cantt.</name>
  </wpt>
  <trk>
    <name>Delhi - Agra (Vies regionals)</name>
    <trkseg>
      <trkpt lat="28.6424082" lon="77.2199116">
      </trkpt>
      <trkpt lat="28.6408246" lon="77.2202102">
      </trkpt>
      <trkpt lat="28.6400166" lon="77.2203854">
      </trkpt>
      <trkpt lat="28.6397703" lon="77.2204489">
      </trkpt>
      <trkpt lat="28.6394481" lon="77.2205522">
      </trkpt>
      <trkpt lat="28.6392242" lon="77.2206379">
      </trkpt>
      <trkpt lat="28.6389954" lon="77.2207478">
      </trkpt>
      <trkpt lat="28.6388746" lon="77.2208056">
      </trkpt>
      <trkpt lat="28.6386155" lon="77.2209443">
      </trkpt>
      <trkpt lat="28.6383555" lon="77.2210882">
      </trkpt>
      <trkpt lat="28.6379449" lon="77.2213555">
      </trkpt>
      <trkpt lat="28.6377308" lon="77.2214973">
      </trkpt>
      <trkpt lat="28.6372459" lon="77.2218288">
      </trkpt>
      <trkpt lat="28.6368441" lon="77.222088">
      </trkpt>
      <trkpt lat="28.6366904" lon="77.2221925">
      </trkpt>
      <trkpt lat="28.6363319" lon="77.2224362">
      </trkpt>
      <trkpt lat="28.6361423" lon="77.2225653">
      </trkpt>
      <trkpt lat="28.6359722" lon="77.2226931">
      </trkpt>
      <trkpt lat="28.6357069" lon="77.2229128">
      </trkpt>
      <trkpt lat="28.6354672" lon="77.223117">
      </trkpt>
      <trkpt lat="28.6353893" lon="77.2231915">
      </trkpt>
      <trkpt lat="28.6352841" lon="77.2232987">
      </trkpt>
      <trkpt lat="28.6350957" lon="77.2235011">
      </trkpt>
      <trkpt lat="28.6349554" lon="77.2236634">
      </trkpt>
      <trkpt lat="28.6348262" lon="77.223828">
      </trkpt>
      <trkpt lat="28.6347751" lon="77.2238984">
      </trkpt>
      <trkpt lat="28.6343351" lon="77.2245728">
      </trkpt>
      <trkpt lat="28.6339132" lon="77.2254203">
      </trkpt>
      <trkpt lat="28.6331806" lon="77.2269702">
      </trkpt>
      <trkpt lat="28.6297612" lon="77.2342171">
      </trkpt>
      <trkpt lat="28.629522" lon="77.2347003">
      </trkpt>
      <trkpt lat="28.6291734" lon="77.2353731">
      </trkpt>
      <trkpt lat="28.628232" lon="77.2369758">
      </trkpt>
      <trkpt lat="28.6272514" lon="77.2386744">
      </trkpt>
      <trkpt lat="28.6268425" lon="77.2394085">
      </trkpt>
      <trkpt lat="28.6261101" lon="77.2406609">
      </trkpt>
      <trkpt lat="28.6258609" lon="77.2410944">
      </trkpt>
      <trkpt lat="28.6256101" lon="77.2415281">
      </trkpt>
      <trkpt lat="28.6253365" lon="77.2419841">
      </trkpt>
      <trkpt lat="28.6251267" lon="77.2422988">
      </trkpt>
      <trkpt lat="28.6248824" lon="77.2426218">
      </trkpt>
      <trkpt lat="28.6246274" lon="77.2429225">
      </trkpt>
      <trkpt lat="28.6243449" lon="77.2432322">
      </trkpt>
      <trkpt lat="28.6240801" lon="77.2435145">
      </trkpt>
      <trkpt lat="28.623895" lon="77.2436979">
      </trkpt>
      <trkpt lat="28.6236809" lon="77.2439028">
      </trkpt>
      <trkpt lat="28.6234709" lon="77.2440947">
      </trkpt>
      <trkpt lat="28.6233649" lon="77.244189">
      </trkpt>
      <trkpt lat="28.6230548" lon="77.2444444">
      </trkpt>
      <trkpt lat="28.6228609" lon="77.2445926">
      </trkpt>
      <trkpt lat="28.6225527" lon="77.2448173">
      </trkpt>
      <trkpt lat="28.6221518" lon="77.2450852">
      </trkpt>
      <trkpt lat="28.6217807" lon="77.2453113">
      </trkpt>
      <trkpt lat="28.6213713" lon="77.2455415">
      </trkpt>
      <trkpt lat="28.6212397" lon="77.2456081">
      </trkpt>
      <trkpt lat="28.6209093" lon="77.2457673">
      </trkpt>
      <trkpt lat="28.6204772" lon="77.2459453">
      </trkpt>
      <trkpt lat="28.6203606" lon="77.2459897">
      </trkpt>
      <trkpt lat="28.6200069" lon="77.246115">
      </trkpt>
      <trkpt lat="28.6195792" lon="77.2462556">
      </trkpt>
      <trkpt lat="28.6150746" lon="77.2476802">
      </trkpt>
      <trkpt lat="28.6147679" lon="77.2477888">
      </trkpt>
      <trkpt lat="28.6144809" lon="77.2478969">
      </trkpt>
      <trkpt lat="28.6139854" lon="77.2480993">
      </trkpt>
      <trkpt lat="28.6133604" lon="77.2484009">
      </trkpt>
      <trkpt lat="28.6130025" lon="77.2485787">
      </trkpt>
      <trkpt lat="28.6125936" lon="77.2487941">
      </trkpt>
      <trkpt lat="28.612066" lon="77.2490933">
      </trkpt>
      <trkpt lat="28.6118653" lon="77.2492053">
      </trkpt>
      <trkpt lat="28.6117731" lon="77.2492579">
      </trkpt>
      <trkpt lat="28.6105985" lon="77.2499194">
      </trkpt>
      <trkpt lat="28.6102824" lon="77.2500842">
      </trkpt>
      <trkpt lat="28.6099126" lon="77.2502439">
      </trkpt>
      <trkpt lat="28.6096077" lon="77.2503445">
      </trkpt>
      <trkpt lat="28.6092899" lon="77.2504215">
      </trkpt>
      <trkpt lat="28.6089682" lon="77.2504752">
      </trkpt>
      <trkpt lat="28.60856" lon="77.250515">
      </trkpt>
      <trkpt lat="28.6074885" lon="77.2506174">
      </trkpt>
      <trkpt lat="28.6056691" lon="77.2507547">
      </trkpt>
      <trkpt lat="28.6055037" lon="77.250772">
      </trkpt>
      <trkpt lat="28.6052833" lon="77.2508144">
      </trkpt>
      <trkpt lat="28.6049789" lon="77.2508834">
      </trkpt>
      <trkpt lat="28.6046841" lon="77.250965">
      </trkpt>
      <trkpt lat="28.6035299" lon="77.2513183">
      </trkpt>
      <trkpt lat="28.6024671" lon="77.2516516">
      </trkpt>
      <trkpt lat="28.6007654" lon="77.2521878">
      </trkpt>
      <trkpt lat="28.5993774" lon="77.252626">
      </trkpt>
      <trkpt lat="28.5983826" lon="77.2529402">
      </trkpt>
      <trkpt lat="28.5978582" lon="77.2530852">
      </trkpt>
      <trkpt lat="28.5973421" lon="77.2532106">
      </trkpt>
      <trkpt lat="28.5954242" lon="77.2536669">
      </trkpt>
      <trkpt lat="28.5949395" lon="77.2537713">
      </trkpt>
      <trkpt lat="28.5943993" lon="77.2538612">
      </trkpt>
      <trkpt lat="28.5936761" lon="77.2539454">
      </trkpt>
      <trkpt lat="28.5935736" lon="77.2539505">
      </trkpt>
      <trkpt lat="28.592079" lon="77.2540052">
      </trkpt>
      <trkpt lat="28.5918499" lon="77.2540132">
      </trkpt>
      <trkpt lat="28.5902984" lon="77.2540765">
      </trkpt>
      <trkpt lat="28.5882703" lon="77.2541476">
      </trkpt>
      <trkpt lat="28.5875882" lon="77.2541944">
      </trkpt>
      <trkpt lat="28.5873186" lon="77.2541988">
      </trkpt>
      <trkpt lat="28.587044" lon="77.2542303">
      </trkpt>
      <trkpt lat="28.5864625" lon="77.2543089">
      </trkpt>
      <trkpt lat="28.585547" lon="77.2544491">
      </trkpt>
      <trkpt lat="28.5853313" lon="77.2544676">
      </trkpt>
      <trkpt lat="28.5850125" lon="77.2544725">
      </trkpt>
      <trkpt lat="28.5844965" lon="77.2545069">
      </trkpt>
      <trkpt lat="28.5842071" lon="77.2545223">
      </trkpt>
      <trkpt lat="28.5834703" lon="77.2545369">
      </trkpt>
      <trkpt lat="28.5824985" lon="77.2545751">
      </trkpt>
      <trkpt lat="28.5817208" lon="77.2546086">
      </trkpt>
      <trkpt lat="28.5812565" lon="77.2546168">
      </trkpt>
      <trkpt lat="28.5807922" lon="77.2546139">
      </trkpt>
      <trkpt lat="28.5786324" lon="77.2545658">
      </trkpt>
      <trkpt lat="28.5780663" lon="77.2545684">
      </trkpt>
      <trkpt lat="28.5768675" lon="77.2546082">
      </trkpt>
      <trkpt lat="28.5753345" lon="77.2546735">
      </trkpt>
      <trkpt lat="28.5749515" lon="77.2546914">
      </trkpt>
      <trkpt lat="28.5744477" lon="77.2547327">
      </trkpt>
      <trkpt lat="28.5739704" lon="77.254797">
      </trkpt>
      <trkpt lat="28.5734944" lon="77.2548886">
      </trkpt>
      <trkpt lat="28.5730476" lon="77.2549968">
      </trkpt>
      <trkpt lat="28.5725997" lon="77.2551281">
      </trkpt>
      <trkpt lat="28.5720981" lon="77.2553019">
      </trkpt>
      <trkpt lat="28.5716457" lon="77.2554898">
      </trkpt>
      <trkpt lat="28.5713886" lon="77.2556076">
      </trkpt>
      <trkpt lat="28.5711032" lon="77.2557472">
      </trkpt>
      <trkpt lat="28.5705964" lon="77.2560306">
      </trkpt>
      <trkpt lat="28.5701188" lon="77.2563398">
      </trkpt>
      <trkpt lat="28.5697564" lon="77.2566099">
      </trkpt>
      <trkpt lat="28.5694073" lon="77.2568841">
      </trkpt>
      <trkpt lat="28.5665675" lon="77.259325">
      </trkpt>
      <trkpt lat="28.5623777" lon="77.2629086">
      </trkpt>
      <trkpt lat="28.562279" lon="77.2629932">
      </trkpt>
      <trkpt lat="28.5607652" lon="77.2643216">
      </trkpt>
      <trkpt lat="28.5579463" lon="77.2668988">
      </trkpt>
      <trkpt lat="28.5569032" lon="77.2678477">
      </trkpt>
      <trkpt lat="28.5565745" lon="77.2681411">
      </trkpt>
      <trkpt lat="28.5557483" lon="77.268858">
      </trkpt>
      <trkpt lat="28.5551192" lon="77.2694315">
      </trkpt>
      <trkpt lat="28.5474669" lon="77.2764132">
      </trkpt>
      <trkpt lat="28.547325" lon="77.2765353">
      </trkpt>
      <trkpt lat="28.5465846" lon="77.277172">
      </trkpt>
      <trkpt lat="28.5464336" lon="77.2773019">
      </trkpt>
      <trkpt lat="28.546039" lon="77.2776069">
      </trkpt>
      <trkpt lat="28.5454869" lon="77.2780066">
      </trkpt>
      <trkpt lat="28.5449566" lon="77.2783383">
      </trkpt>
      <trkpt lat="28.5444878" lon="77.2786142">
      </trkpt>
      <trkpt lat="28.5441512" lon="77.2788122">
      </trkpt>
      <trkpt lat="28.5437533" lon="77.2790131">
      </trkpt>
      <trkpt lat="28.5429602" lon="77.2794447">
      </trkpt>
      <trkpt lat="28.5329632" lon="77.2846726">
      </trkpt>
      <trkpt lat="28.531809" lon="77.2852641">
      </trkpt>
      <trkpt lat="28.5257039" lon="77.2884579">
      </trkpt>
      <trkpt lat="28.5220608" lon="77.2903657">
      </trkpt>
      <trkpt lat="28.51927" lon="77.2918097">
      </trkpt>
      <trkpt lat="28.5183096" lon="77.2922594">
      </trkpt>
      <trkpt lat="28.5172131" lon="77.2926757">
      </trkpt>
      <trkpt lat="28.5157224" lon="77.293177">
      </trkpt>
      <trkpt lat="28.5133412" lon="77.2938921">
      </trkpt>
      <trkpt lat="28.5126884" lon="77.2941189">
      </trkpt>
      <trkpt lat="28.5119981" lon="77.2943452">
      </trkpt>
      <trkpt lat="28.5083904" lon="77.2955218">
      </trkpt>
      <trkpt lat="28.5082091" lon="77.2955787">
      </trkpt>
      <trkpt lat="28.5081098" lon="77.2956098">
      </trkpt>
      <trkpt lat="28.5070299" lon="77.2959487">
      </trkpt>
      <trkpt lat="28.5068897" lon="77.2959919">
      </trkpt>
      <trkpt lat="28.505846" lon="77.2963122">
      </trkpt>
      <trkpt lat="28.503257" lon="77.2971254">
      </trkpt>
      <trkpt lat="28.4993479" lon="77.2983518">
      </trkpt>
      <trkpt lat="28.4990789" lon="77.298435">
      </trkpt>
      <trkpt lat="28.497768" lon="77.2988425">
      </trkpt>
      <trkpt lat="28.4964409" lon="77.2992576">
      </trkpt>
      <trkpt lat="28.4959674" lon="77.2993932">
      </trkpt>
      <trkpt lat="28.4955684" lon="77.2994947">
      </trkpt>
      <trkpt lat="28.4949054" lon="77.2996346">
      </trkpt>
      <trkpt lat="28.4945716" lon="77.299692">
      </trkpt>
      <trkpt lat="28.4940439" lon="77.2997649">
      </trkpt>
      <trkpt lat="28.4879098" lon="77.3004239">
      </trkpt>
      <trkpt lat="28.4752971" lon="77.301771">
      </trkpt>
      <trkpt lat="28.4624923" lon="77.3031258">
      </trkpt>
      <trkpt lat="28.4623882" lon="77.3031366">
      </trkpt>
      <trkpt lat="28.4596619" lon="77.3034327">
      </trkpt>
      <trkpt lat="28.4591633" lon="77.3034952">
      </trkpt>
      <trkpt lat="28.4589799" lon="77.3035177">
      </trkpt>
      <trkpt lat="28.4583587" lon="77.3035854">
      </trkpt>
      <trkpt lat="28.4582343" lon="77.3035971">
      </trkpt>
      <trkpt lat="28.4540014" lon="77.3040658">
      </trkpt>
      <trkpt lat="28.4489295" lon="77.3045903">
      </trkpt>
      <trkpt lat="28.4478369" lon="77.3046862">
      </trkpt>
      <trkpt lat="28.4230546" lon="77.306428">
      </trkpt>
      <trkpt lat="28.42196" lon="77.3065049">
      </trkpt>
      <trkpt lat="28.4212217" lon="77.3065653">
      </trkpt>
      <trkpt lat="28.4195081" lon="77.3067593">
      </trkpt>
      <trkpt lat="28.4188782" lon="77.3068194">
      </trkpt>
      <trkpt lat="28.4170713" lon="77.3069523">
      </trkpt>
      <trkpt lat="28.4167747" lon="77.3069762">
      </trkpt>
      <trkpt lat="28.4158083" lon="77.3070455">
      </trkpt>
      <trkpt lat="28.413605" lon="77.3072866">
      </trkpt>
      <trkpt lat="28.4115483" lon="77.3074248">
      </trkpt>
      <trkpt lat="28.4096746" lon="77.3075564">
      </trkpt>
      <trkpt lat="28.4083275" lon="77.307599">
      </trkpt>
      <trkpt lat="28.4081629" lon="77.3076045">
      </trkpt>
      <trkpt lat="28.4076032" lon="77.3076222">
      </trkpt>
      <trkpt lat="28.4045373" lon="77.3078271">
      </trkpt>
      <trkpt lat="28.4040696" lon="77.3078593">
      </trkpt>
      <trkpt lat="28.4034469" lon="77.3079031">
      </trkpt>
      <trkpt lat="28.4028364" lon="77.3079415">
      </trkpt>
      <trkpt lat="28.4023081" lon="77.3079676">
      </trkpt>
      <trkpt lat="28.4010872" lon="77.3079988">
      </trkpt>
      <trkpt lat="28.40048" lon="77.3080229">
      </trkpt>
      <trkpt lat="28.3998342" lon="77.3080584">
      </trkpt>
      <trkpt lat="28.3819596" lon="77.3093137">
      </trkpt>
      <trkpt lat="28.3801901" lon="77.3094347">
      </trkpt>
      <trkpt lat="28.3783538" lon="77.3095375">
      </trkpt>
      <trkpt lat="28.3780385" lon="77.3095593">
      </trkpt>
      <trkpt lat="28.377398" lon="77.3096052">
      </trkpt>
      <trkpt lat="28.3747667" lon="77.3097936">
      </trkpt>
      <trkpt lat="28.3726139" lon="77.3099654">
      </trkpt>
      <trkpt lat="28.3680805" lon="77.3102415">
      </trkpt>
      <trkpt lat="28.3656228" lon="77.31044">
      </trkpt>
      <trkpt lat="28.3645096" lon="77.3105172">
      </trkpt>
      <trkpt lat="28.3639228" lon="77.3105644">
      </trkpt>
      <trkpt lat="28.3626261" lon="77.3106547">
      </trkpt>
      <trkpt lat="28.3613497" lon="77.3107435">
      </trkpt>
      <trkpt lat="28.3515779" lon="77.3114367">
      </trkpt>
      <trkpt lat="28.3503502" lon="77.3115645">
      </trkpt>
      <trkpt lat="28.3499955" lon="77.311605">
      </trkpt>
      <trkpt lat="28.3495096" lon="77.3116747">
      </trkpt>
      <trkpt lat="28.3486212" lon="77.3117946">
      </trkpt>
      <trkpt lat="28.3478516" lon="77.3118822">
      </trkpt>
      <trkpt lat="28.3473721" lon="77.3119368">
      </trkpt>
      <trkpt lat="28.3464983" lon="77.3120758">
      </trkpt>
      <trkpt lat="28.3462254" lon="77.3120602">
      </trkpt>
      <trkpt lat="28.3449462" lon="77.3121189">
      </trkpt>
      <trkpt lat="28.3435448" lon="77.3121409">
      </trkpt>
      <trkpt lat="28.3425223" lon="77.312201">
      </trkpt>
      <trkpt lat="28.3405051" lon="77.3123948">
      </trkpt>
      <trkpt lat="28.3370833" lon="77.3127235">
      </trkpt>
      <trkpt lat="28.3360545" lon="77.3128222">
      </trkpt>
      <trkpt lat="28.3345312" lon="77.3129684">
      </trkpt>
      <trkpt lat="28.3328791" lon="77.3130927">
      </trkpt>
      <trkpt lat="28.3290553" lon="77.3134398">
      </trkpt>
      <trkpt lat="28.3249432" lon="77.3138539">
      </trkpt>
      <trkpt lat="28.3189372" lon="77.314442">
      </trkpt>
      <trkpt lat="28.3055426" lon="77.3157259">
      </trkpt>
      <trkpt lat="28.2919449" lon="77.3170362">
      </trkpt>
      <trkpt lat="28.2909771" lon="77.3171501">
      </trkpt>
      <trkpt lat="28.2895169" lon="77.3173808">
      </trkpt>
      <trkpt lat="28.2876295" lon="77.3177337">
      </trkpt>
      <trkpt lat="28.2872881" lon="77.3177895">
      </trkpt>
      <trkpt lat="28.286704" lon="77.3178895">
      </trkpt>
      <trkpt lat="28.2855407" lon="77.3181182">
      </trkpt>
      <trkpt lat="28.284643" lon="77.3182839">
      </trkpt>
      <trkpt lat="28.2763005" lon="77.3198221">
      </trkpt>
      <trkpt lat="28.2664946" lon="77.3216496">
      </trkpt>
      <trkpt lat="28.2648807" lon="77.3219454">
      </trkpt>
      <trkpt lat="28.2615706" lon="77.3225592">
      </trkpt>
      <trkpt lat="28.2587805" lon="77.3231077">
      </trkpt>
      <trkpt lat="28.2565941" lon="77.3235368">
      </trkpt>
      <trkpt lat="28.2538272" lon="77.3240444">
      </trkpt>
      <trkpt lat="28.2481872" lon="77.3251122">
      </trkpt>
      <trkpt lat="28.2469799" lon="77.3253363">
      </trkpt>
      <trkpt lat="28.245586" lon="77.3255861">
      </trkpt>
      <trkpt lat="28.2432681" lon="77.3259737">
      </trkpt>
      <trkpt lat="28.2359871" lon="77.3273185">
      </trkpt>
      <trkpt lat="28.2131857" lon="77.3315566">
      </trkpt>
      <trkpt lat="28.1942331" lon="77.3350678">
      </trkpt>
      <trkpt lat="28.1651536" lon="77.3404274">
      </trkpt>
      <trkpt lat="28.1645771" lon="77.3405019">
      </trkpt>
      <trkpt lat="28.1611182" lon="77.3409201">
      </trkpt>
      <trkpt lat="28.1571501" lon="77.3413826">
      </trkpt>
      <trkpt lat="28.1568099" lon="77.3414204">
      </trkpt>
      <trkpt lat="28.1544839" lon="77.3416947">
      </trkpt>
      <trkpt lat="28.146794" lon="77.3426023">
      </trkpt>
      <trkpt lat="28.1460449" lon="77.3426768">
      </trkpt>
      <trkpt lat="28.1420531" lon="77.3430973">
      </trkpt>
      <trkpt lat="28.1337935" lon="77.3440719">
      </trkpt>
      <trkpt lat="28.1305317" lon="77.344459">
      </trkpt>
      <trkpt lat="28.1104597" lon="77.3468104">
      </trkpt>
      <trkpt lat="28.1101967" lon="77.3468443">
      </trkpt>
      <trkpt lat="28.109494" lon="77.3469217">
      </trkpt>
      <trkpt lat="28.0917219" lon="77.3490043">
      </trkpt>
      <trkpt lat="28.0836809" lon="77.3497943">
      </trkpt>
      <trkpt lat="28.077585" lon="77.3503748">
      </trkpt>
      <trkpt lat="28.0744559" lon="77.3507223">
      </trkpt>
      <trkpt lat="28.0727601" lon="77.3508851">
      </trkpt>
      <trkpt lat="28.0675831" lon="77.3513844">
      </trkpt>
      <trkpt lat="28.0665219" lon="77.3514868">
      </trkpt>
      <trkpt lat="28.0645656" lon="77.3516686">
      </trkpt>
      <trkpt lat="28.0337996" lon="77.3546437">
      </trkpt>
      <trkpt lat="27.9924395" lon="77.3587228">
      </trkpt>
      <trkpt lat="27.9777116" lon="77.3602127">
      </trkpt>
      <trkpt lat="27.9694776" lon="77.3610217">
      </trkpt>
      <trkpt lat="27.9662152" lon="77.3613321">
      </trkpt>
      <trkpt lat="27.9437702" lon="77.3635291">
      </trkpt>
      <trkpt lat="27.9332692" lon="77.3645804">
      </trkpt>
      <trkpt lat="27.9292079" lon="77.3649926">
      </trkpt>
      <trkpt lat="27.9285408" lon="77.3650493">
      </trkpt>
      <trkpt lat="27.9251678" lon="77.3654007">
      </trkpt>
      <trkpt lat="27.9245598" lon="77.3654672">
      </trkpt>
      <trkpt lat="27.9240029" lon="77.3655544">
      </trkpt>
      <trkpt lat="27.9234341" lon="77.3656751">
      </trkpt>
      <trkpt lat="27.9229355" lon="77.3657821">
      </trkpt>
      <trkpt lat="27.9222581" lon="77.3659749">
      </trkpt>
      <trkpt lat="27.9216286" lon="77.366205">
      </trkpt>
      <trkpt lat="27.9209847" lon="77.3664502">
      </trkpt>
      <trkpt lat="27.9203873" lon="77.3667195">
      </trkpt>
      <trkpt lat="27.9194899" lon="77.36718">
      </trkpt>
      <trkpt lat="27.9190851" lon="77.367416">
      </trkpt>
      <trkpt lat="27.9019761" lon="77.3780564">
      </trkpt>
      <trkpt lat="27.8945886" lon="77.382643">
      </trkpt>
      <trkpt lat="27.8917897" lon="77.3844506">
      </trkpt>
      <trkpt lat="27.8909176" lon="77.3849947">
      </trkpt>
      <trkpt lat="27.8895411" lon="77.3858536">
      </trkpt>
      <trkpt lat="27.8846048" lon="77.3889363">
      </trkpt>
      <trkpt lat="27.8839748" lon="77.3893327">
      </trkpt>
      <trkpt lat="27.8831568" lon="77.3898272">
      </trkpt>
      <trkpt lat="27.8825018" lon="77.3902477">
      </trkpt>
      <trkpt lat="27.8659183" lon="77.4005304">
      </trkpt>
      <trkpt lat="27.865715" lon="77.4006343">
      </trkpt>
      <trkpt lat="27.8586249" lon="77.4050937">
      </trkpt>
      <trkpt lat="27.8447758" lon="77.4136922">
      </trkpt>
      <trkpt lat="27.838224" lon="77.41781">
      </trkpt>
      <trkpt lat="27.8378996" lon="77.417999">
      </trkpt>
      <trkpt lat="27.8375462" lon="77.4181898">
      </trkpt>
      <trkpt lat="27.8367311" lon="77.4185878">
      </trkpt>
      <trkpt lat="27.8236911" lon="77.4241923">
      </trkpt>
      <trkpt lat="27.8103965" lon="77.4300351">
      </trkpt>
      <trkpt lat="27.8096541" lon="77.4303915">
      </trkpt>
      <trkpt lat="27.8090609" lon="77.4307187">
      </trkpt>
      <trkpt lat="27.8084706" lon="77.4310404">
      </trkpt>
      <trkpt lat="27.8078934" lon="77.4314193">
      </trkpt>
      <trkpt lat="27.8072703" lon="77.4318883">
      </trkpt>
      <trkpt lat="27.8067802" lon="77.432289">
      </trkpt>
      <trkpt lat="27.8062301" lon="77.4327834">
      </trkpt>
      <trkpt lat="27.8056996" lon="77.4332785">
      </trkpt>
      <trkpt lat="27.7968218" lon="77.4418274">
      </trkpt>
      <trkpt lat="27.7965667" lon="77.4420583">
      </trkpt>
      <trkpt lat="27.7963591" lon="77.4422327">
      </trkpt>
      <trkpt lat="27.7961325" lon="77.4424107">
      </trkpt>
      <trkpt lat="27.7958964" lon="77.4425706">
      </trkpt>
      <trkpt lat="27.7955362" lon="77.4427854">
      </trkpt>
      <trkpt lat="27.7952688" lon="77.4429354">
      </trkpt>
      <trkpt lat="27.7948451" lon="77.4431491">
      </trkpt>
      <trkpt lat="27.7850098" lon="77.4473997">
      </trkpt>
      <trkpt lat="27.7814704" lon="77.4488966">
      </trkpt>
      <trkpt lat="27.7810481" lon="77.4490951">
      </trkpt>
      <trkpt lat="27.780645" lon="77.4493122">
      </trkpt>
      <trkpt lat="27.7802539" lon="77.4495384">
      </trkpt>
      <trkpt lat="27.7798426" lon="77.4498166">
      </trkpt>
      <trkpt lat="27.7794533" lon="77.4500988">
      </trkpt>
      <trkpt lat="27.7790308" lon="77.4504471">
      </trkpt>
      <trkpt lat="27.7784308" lon="77.4509994">
      </trkpt>
      <trkpt lat="27.7781375" lon="77.4512878">
      </trkpt>
      <trkpt lat="27.777849" lon="77.4515997">
      </trkpt>
      <trkpt lat="27.7775798" lon="77.4519074">
      </trkpt>
      <trkpt lat="27.7773358" lon="77.4522015">
      </trkpt>
      <trkpt lat="27.7769655" lon="77.4526864">
      </trkpt>
      <trkpt lat="27.776656" lon="77.453124">
      </trkpt>
      <trkpt lat="27.7763707" lon="77.4535798">
      </trkpt>
      <trkpt lat="27.7760867" lon="77.4540631">
      </trkpt>
      <trkpt lat="27.7755689" lon="77.4550361">
      </trkpt>
      <trkpt lat="27.7753954" lon="77.4553594">
      </trkpt>
      <trkpt lat="27.7751912" lon="77.4557416">
      </trkpt>
      <trkpt lat="27.7750928" lon="77.455928">
      </trkpt>
      <trkpt lat="27.7738936" lon="77.4581394">
      </trkpt>
      <trkpt lat="27.7736523" lon="77.4585713">
      </trkpt>
      <trkpt lat="27.7733722" lon="77.4590327">
      </trkpt>
      <trkpt lat="27.7730888" lon="77.4594854">
      </trkpt>
      <trkpt lat="27.7727188" lon="77.4600225">
      </trkpt>
      <trkpt lat="27.7724336" lon="77.46041">
      </trkpt>
      <trkpt lat="27.7721894" lon="77.4607307">
      </trkpt>
      <trkpt lat="27.7718569" lon="77.4611422">
      </trkpt>
      <trkpt lat="27.771544" lon="77.4615099">
      </trkpt>
      <trkpt lat="27.7711616" lon="77.4619187">
      </trkpt>
      <trkpt lat="27.7708597" lon="77.462231">
      </trkpt>
      <trkpt lat="27.770119" lon="77.4629276">
      </trkpt>
      <trkpt lat="27.7696498" lon="77.4633309">
      </trkpt>
      <trkpt lat="27.7692706" lon="77.4636234">
      </trkpt>
      <trkpt lat="27.7688345" lon="77.4639438">
      </trkpt>
      <trkpt lat="27.7678531" lon="77.4646211">
      </trkpt>
      <trkpt lat="27.7557975" lon="77.4728434">
      </trkpt>
      <trkpt lat="27.7225308" lon="77.4954798">
      </trkpt>
      <trkpt lat="27.7196343" lon="77.4974833">
      </trkpt>
      <trkpt lat="27.7165047" lon="77.4996481">
      </trkpt>
      <trkpt lat="27.7155707" lon="77.500283">
      </trkpt>
      <trkpt lat="27.708268" lon="77.5052469">
      </trkpt>
      <trkpt lat="27.7079591" lon="77.5054568">
      </trkpt>
      <trkpt lat="27.7064098" lon="77.5065143">
      </trkpt>
      <trkpt lat="27.7058251" lon="77.5068739">
      </trkpt>
      <trkpt lat="27.7043035" lon="77.5077442">
      </trkpt>
      <trkpt lat="27.7038807" lon="77.5079839">
      </trkpt>
      <trkpt lat="27.7018717" lon="77.5091918">
      </trkpt>
      <trkpt lat="27.7005057" lon="77.5100665">
      </trkpt>
      <trkpt lat="27.69718" lon="77.5121151">
      </trkpt>
      <trkpt lat="27.693842" lon="77.5141431">
      </trkpt>
      <trkpt lat="27.6812149" lon="77.5218753">
      </trkpt>
      <trkpt lat="27.6796411" lon="77.5228461">
      </trkpt>
      <trkpt lat="27.6788544" lon="77.5233258">
      </trkpt>
      <trkpt lat="27.6780732" lon="77.5238299">
      </trkpt>
      <trkpt lat="27.6773045" lon="77.5243503">
      </trkpt>
      <trkpt lat="27.6765431" lon="77.5248951">
      </trkpt>
      <trkpt lat="27.6757978" lon="77.5254683">
      </trkpt>
      <trkpt lat="27.6750615" lon="77.526066">
      </trkpt>
      <trkpt lat="27.6721407" lon="77.5284493">
      </trkpt>
      <trkpt lat="27.6692273" lon="77.5308363">
      </trkpt>
      <trkpt lat="27.6625325" lon="77.5363024">
      </trkpt>
      <trkpt lat="27.6536328" lon="77.5435749">
      </trkpt>
      <trkpt lat="27.6491787" lon="77.5472071">
      </trkpt>
      <trkpt lat="27.6469481" lon="77.5490191">
      </trkpt>
      <trkpt lat="27.6447227" lon="77.5508341">
      </trkpt>
      <trkpt lat="27.640061" lon="77.554716">
      </trkpt>
      <trkpt lat="27.6391442" lon="77.5554423">
      </trkpt>
      <trkpt lat="27.6388841" lon="77.5556587">
      </trkpt>
      <trkpt lat="27.6319204" lon="77.5613459">
      </trkpt>
      <trkpt lat="27.6284993" lon="77.5640831">
      </trkpt>
      <trkpt lat="27.6275958" lon="77.5648155">
      </trkpt>
      <trkpt lat="27.6267027" lon="77.5655536">
      </trkpt>
      <trkpt lat="27.625948" lon="77.5661555">
      </trkpt>
      <trkpt lat="27.6215933" lon="77.5697126">
      </trkpt>
      <trkpt lat="27.6161945" lon="77.5741211">
      </trkpt>
      <trkpt lat="27.6036066" lon="77.5843823">
      </trkpt>
      <trkpt lat="27.5748968" lon="77.6077676">
      </trkpt>
      <trkpt lat="27.5651946" lon="77.615663">
      </trkpt>
      <trkpt lat="27.5636567" lon="77.6169155">
      </trkpt>
      <trkpt lat="27.563091" lon="77.6173763">
      </trkpt>
      <trkpt lat="27.5625278" lon="77.6178409">
      </trkpt>
      <trkpt lat="27.5614073" lon="77.6187834">
      </trkpt>
      <trkpt lat="27.5608484" lon="77.6192523">
      </trkpt>
      <trkpt lat="27.560283" lon="77.6197167">
      </trkpt>
      <trkpt lat="27.5591513" lon="77.62064">
      </trkpt>
      <trkpt lat="27.5587389" lon="77.6209764">
      </trkpt>
      <trkpt lat="27.5519021" lon="77.6265377">
      </trkpt>
      <trkpt lat="27.550913" lon="77.6273433">
      </trkpt>
      <trkpt lat="27.5498995" lon="77.6281457">
      </trkpt>
      <trkpt lat="27.5488801" lon="77.6289406">
      </trkpt>
      <trkpt lat="27.5483736" lon="77.6293439">
      </trkpt>
      <trkpt lat="27.5478706" lon="77.6297527">
      </trkpt>
      <trkpt lat="27.546337" lon="77.6310002">
      </trkpt>
      <trkpt lat="27.5453435" lon="77.6318074">
      </trkpt>
      <trkpt lat="27.5198586" lon="77.6525131">
      </trkpt>
      <trkpt lat="27.5105449" lon="77.6600753">
      </trkpt>
      <trkpt lat="27.510065" lon="77.6604672">
      </trkpt>
      <trkpt lat="27.5095886" lon="77.6608645">
      </trkpt>
      <trkpt lat="27.5081953" lon="77.6620638">
      </trkpt>
      <trkpt lat="27.5067693" lon="77.6633158">
      </trkpt>
      <trkpt lat="27.5057288" lon="77.6642175">
      </trkpt>
      <trkpt lat="27.5038394" lon="77.6658792">
      </trkpt>
      <trkpt lat="27.500151" lon="77.6690646">
      </trkpt>
      <trkpt lat="27.4999391" lon="77.6692476">
      </trkpt>
      <trkpt lat="27.4952798" lon="77.6733121">
      </trkpt>
      <trkpt lat="27.4948344" lon="77.6736903">
      </trkpt>
      <trkpt lat="27.4945758" lon="77.6738913">
      </trkpt>
      <trkpt lat="27.4943667" lon="77.6740399">
      </trkpt>
      <trkpt lat="27.4941058" lon="77.6742058">
      </trkpt>
      <trkpt lat="27.4937764" lon="77.674399">
      </trkpt>
      <trkpt lat="27.4935038" lon="77.6745486">
      </trkpt>
      <trkpt lat="27.4931556" lon="77.6747098">
      </trkpt>
      <trkpt lat="27.4929307" lon="77.6748097">
      </trkpt>
      <trkpt lat="27.4926004" lon="77.6749566">
      </trkpt>
      <trkpt lat="27.4924184" lon="77.675022">
      </trkpt>
      <trkpt lat="27.4920273" lon="77.675138">
      </trkpt>
      <trkpt lat="27.4915776" lon="77.6752413">
      </trkpt>
      <trkpt lat="27.4913931" lon="77.6752795">
      </trkpt>
      <trkpt lat="27.4911037" lon="77.6753212">
      </trkpt>
      <trkpt lat="27.490953" lon="77.67534">
      </trkpt>
      <trkpt lat="27.4907555" lon="77.6753578">
      </trkpt>
      <trkpt lat="27.4905598" lon="77.6753695">
      </trkpt>
      <trkpt lat="27.4904352" lon="77.6753738">
      </trkpt>
      <trkpt lat="27.4902693" lon="77.6753776">
      </trkpt>
      <trkpt lat="27.4901099" lon="77.6753782">
      </trkpt>
      <trkpt lat="27.4899589" lon="77.6753732">
      </trkpt>
      <trkpt lat="27.4898077" lon="77.6753643">
      </trkpt>
      <trkpt lat="27.4896598" lon="77.6753535">
      </trkpt>
      <trkpt lat="27.4894845" lon="77.6753401">
      </trkpt>
      <trkpt lat="27.4891996" lon="77.6753039">
      </trkpt>
      <trkpt lat="27.4889934" lon="77.6752702">
      </trkpt>
      <trkpt lat="27.4886858" lon="77.6752163">
      </trkpt>
      <trkpt lat="27.4884301" lon="77.6751653">
      </trkpt>
      <trkpt lat="27.4859993" lon="77.6746344">
      </trkpt>
      <trkpt lat="27.4843203" lon="77.6742432">
      </trkpt>
      <trkpt lat="27.4838654" lon="77.6741432">
      </trkpt>
      <trkpt lat="27.4800512" lon="77.6733024">
      </trkpt>
      <trkpt lat="27.47659" lon="77.6725391">
      </trkpt>
      <trkpt lat="27.4760461" lon="77.6724191">
      </trkpt>
      <trkpt lat="27.4747165" lon="77.6721268">
      </trkpt>
      <trkpt lat="27.4743503" lon="77.6720461">
      </trkpt>
      <trkpt lat="27.4738106" lon="77.6719272">
      </trkpt>
      <trkpt lat="27.4715251" lon="77.6714452">
      </trkpt>
      <trkpt lat="27.4704268" lon="77.6712044">
      </trkpt>
      <trkpt lat="27.4687549" lon="77.6708364">
      </trkpt>
      <trkpt lat="27.4682426" lon="77.6707234">
      </trkpt>
      <trkpt lat="27.4677705" lon="77.6706141">
      </trkpt>
      <trkpt lat="27.4673122" lon="77.6705023">
      </trkpt>
      <trkpt lat="27.4668539" lon="77.6703849">
      </trkpt>
      <trkpt lat="27.4662961" lon="77.6702502">
      </trkpt>
      <trkpt lat="27.4658205" lon="77.6701418">
      </trkpt>
      <trkpt lat="27.4631824" lon="77.6695652">
      </trkpt>
      <trkpt lat="27.4623436" lon="77.6693929">
      </trkpt>
      <trkpt lat="27.4618627" lon="77.6692966">
      </trkpt>
      <trkpt lat="27.4615142" lon="77.6692355">
      </trkpt>
      <trkpt lat="27.4611188" lon="77.6691712">
      </trkpt>
      <trkpt lat="27.4607714" lon="77.6691187">
      </trkpt>
      <trkpt lat="27.4602006" lon="77.6690467">
      </trkpt>
      <trkpt lat="27.4596425" lon="77.6689851">
      </trkpt>
      <trkpt lat="27.4590729" lon="77.6689331">
      </trkpt>
      <trkpt lat="27.4585883" lon="77.6688988">
      </trkpt>
      <trkpt lat="27.4581011" lon="77.6688748">
      </trkpt>
      <trkpt lat="27.45757" lon="77.6688597">
      </trkpt>
      <trkpt lat="27.4569227" lon="77.6688472">
      </trkpt>
      <trkpt lat="27.4251575" lon="77.668516">
      </trkpt>
      <trkpt lat="27.4246448" lon="77.668522">
      </trkpt>
      <trkpt lat="27.4241321" lon="77.6685427">
      </trkpt>
      <trkpt lat="27.4235704" lon="77.6685857">
      </trkpt>
      <trkpt lat="27.422961" lon="77.6686588">
      </trkpt>
      <trkpt lat="27.4223883" lon="77.6687527">
      </trkpt>
      <trkpt lat="27.4218348" lon="77.6688658">
      </trkpt>
      <trkpt lat="27.4212783" lon="77.6690052">
      </trkpt>
      <trkpt lat="27.4207165" lon="77.6691683">
      </trkpt>
      <trkpt lat="27.4193875" lon="77.6697007">
      </trkpt>
      <trkpt lat="27.4184473" lon="77.6701433">
      </trkpt>
      <trkpt lat="27.4173173" lon="77.6707491">
      </trkpt>
      <trkpt lat="27.4162211" lon="77.6715047">
      </trkpt>
      <trkpt lat="27.4149723" lon="77.6725399">
      </trkpt>
      <trkpt lat="27.4130968" lon="77.6741778">
      </trkpt>
      <trkpt lat="27.4125692" lon="77.6746729">
      </trkpt>
      <trkpt lat="27.4103776" lon="77.6766526">
      </trkpt>
      <trkpt lat="27.4067021" lon="77.6799354">
      </trkpt>
      <trkpt lat="27.4064701" lon="77.6801412">
      </trkpt>
      <trkpt lat="27.4060735" lon="77.6804933">
      </trkpt>
      <trkpt lat="27.4058306" lon="77.6807079">
      </trkpt>
      <trkpt lat="27.4049574" lon="77.6814873">
      </trkpt>
      <trkpt lat="27.4005397" lon="77.6854426">
      </trkpt>
      <trkpt lat="27.3939529" lon="77.6913396">
      </trkpt>
      <trkpt lat="27.3932304" lon="77.6919819">
      </trkpt>
      <trkpt lat="27.3840038" lon="77.7001858">
      </trkpt>
      <trkpt lat="27.3795833" lon="77.704172">
      </trkpt>
      <trkpt lat="27.3759336" lon="77.7074638">
      </trkpt>
      <trkpt lat="27.3706425" lon="77.7121858">
      </trkpt>
      <trkpt lat="27.3704756" lon="77.7123328">
      </trkpt>
      <trkpt lat="27.3690152" lon="77.7136057">
      </trkpt>
      <trkpt lat="27.3672807" lon="77.7151578">
      </trkpt>
      <trkpt lat="27.3433405" lon="77.7365188">
      </trkpt>
      <trkpt lat="27.3394847" lon="77.7400069">
      </trkpt>
      <trkpt lat="27.3392033" lon="77.7402591">
      </trkpt>
      <trkpt lat="27.3377738" lon="77.7415404">
      </trkpt>
      <trkpt lat="27.3323625" lon="77.746367">
      </trkpt>
      <trkpt lat="27.3317018" lon="77.7469564">
      </trkpt>
      <trkpt lat="27.3308165" lon="77.7476663">
      </trkpt>
      <trkpt lat="27.3305743" lon="77.7478846">
      </trkpt>
      <trkpt lat="27.3298186" lon="77.7485959">
      </trkpt>
      <trkpt lat="27.3276774" lon="77.750277">
      </trkpt>
      <trkpt lat="27.3230309" lon="77.7540368">
      </trkpt>
      <trkpt lat="27.3213427" lon="77.7555221">
      </trkpt>
      <trkpt lat="27.3187406" lon="77.7579966">
      </trkpt>
      <trkpt lat="27.3144219" lon="77.7619463">
      </trkpt>
      <trkpt lat="27.3100242" lon="77.7660035">
      </trkpt>
      <trkpt lat="27.3090099" lon="77.7669681">
      </trkpt>
      <trkpt lat="27.3023126" lon="77.7731424">
      </trkpt>
      <trkpt lat="27.3011758" lon="77.7741904">
      </trkpt>
      <trkpt lat="27.3005017" lon="77.7747803">
      </trkpt>
      <trkpt lat="27.2984834" lon="77.7765429">
      </trkpt>
      <trkpt lat="27.2965735" lon="77.7782379">
      </trkpt>
      <trkpt lat="27.2961773" lon="77.7786052">
      </trkpt>
      <trkpt lat="27.2946832" lon="77.7800167">
      </trkpt>
      <trkpt lat="27.2931211" lon="77.7815562">
      </trkpt>
      <trkpt lat="27.2929305" lon="77.7817439">
      </trkpt>
      <trkpt lat="27.2923616" lon="77.7823046">
      </trkpt>
      <trkpt lat="27.291308" lon="77.7832997">
      </trkpt>
      <trkpt lat="27.2893275" lon="77.7850908">
      </trkpt>
      <trkpt lat="27.2832666" lon="77.7907213">
      </trkpt>
      <trkpt lat="27.2825891" lon="77.7913456">
      </trkpt>
      <trkpt lat="27.268313" lon="77.8044342">
      </trkpt>
      <trkpt lat="27.265174" lon="77.8073929">
      </trkpt>
      <trkpt lat="27.2574811" lon="77.8144725">
      </trkpt>
      <trkpt lat="27.2572608" lon="77.8146755">
      </trkpt>
      <trkpt lat="27.2504237" lon="77.820972">
      </trkpt>
      <trkpt lat="27.2472185" lon="77.8238332">
      </trkpt>
      <trkpt lat="27.244128" lon="77.826725">
      </trkpt>
      <trkpt lat="27.2436049" lon="77.8272257">
      </trkpt>
      <trkpt lat="27.2432873" lon="77.8275298">
      </trkpt>
      <trkpt lat="27.2429609" lon="77.8278722">
      </trkpt>
      <trkpt lat="27.2426483" lon="77.8282258">
      </trkpt>
      <trkpt lat="27.2423326" lon="77.8286071">
      </trkpt>
      <trkpt lat="27.2420404" lon="77.8289537">
      </trkpt>
      <trkpt lat="27.2419896" lon="77.8290123">
      </trkpt>
      <trkpt lat="27.2418758" lon="77.8291594">
      </trkpt>
      <trkpt lat="27.241512" lon="77.8296636">
      </trkpt>
      <trkpt lat="27.2411764" lon="77.8301583">
      </trkpt>
      <trkpt lat="27.240835" lon="77.8307029">
      </trkpt>
      <trkpt lat="27.2404503" lon="77.8313801">
      </trkpt>
      <trkpt lat="27.2400619" lon="77.832143">
      </trkpt>
      <trkpt lat="27.2397865" lon="77.8327671">
      </trkpt>
      <trkpt lat="27.2394963" lon="77.8334868">
      </trkpt>
      <trkpt lat="27.2392242" lon="77.8342472">
      </trkpt>
      <trkpt lat="27.2389395" lon="77.8351461">
      </trkpt>
      <trkpt lat="27.2387789" lon="77.8357583">
      </trkpt>
      <trkpt lat="27.2381548" lon="77.8382376">
      </trkpt>
      <trkpt lat="27.237349" lon="77.841455">
      </trkpt>
      <trkpt lat="27.2346914" lon="77.8521296">
      </trkpt>
      <trkpt lat="27.2325032" lon="77.8609074">
      </trkpt>
      <trkpt lat="27.2299976" lon="77.8709652">
      </trkpt>
      <trkpt lat="27.2295448" lon="77.8727455">
      </trkpt>
      <trkpt lat="27.2289825" lon="77.8750191">
      </trkpt>
      <trkpt lat="27.2286937" lon="77.8761868">
      </trkpt>
      <trkpt lat="27.2275538" lon="77.8807384">
      </trkpt>
      <trkpt lat="27.224321" lon="77.8936705">
      </trkpt>
      <trkpt lat="27.2241098" lon="77.8945491">
      </trkpt>
      <trkpt lat="27.2218918" lon="77.9034496">
      </trkpt>
      <trkpt lat="27.2218194" lon="77.9037792">
      </trkpt>
      <trkpt lat="27.2185237" lon="77.9168226">
      </trkpt>
      <trkpt lat="27.2169443" lon="77.9231707">
      </trkpt>
      <trkpt lat="27.2169087" lon="77.9233136">
      </trkpt>
      <trkpt lat="27.2166252" lon="77.9244532">
      </trkpt>
      <trkpt lat="27.2164791" lon="77.9250404">
      </trkpt>
      <trkpt lat="27.2159252" lon="77.9272667">
      </trkpt>
      <trkpt lat="27.2137533" lon="77.9358829">
      </trkpt>
      <trkpt lat="27.2133011" lon="77.9376355">
      </trkpt>
      <trkpt lat="27.2130712" lon="77.9385817">
      </trkpt>
      <trkpt lat="27.2129132" lon="77.9392636">
      </trkpt>
      <trkpt lat="27.2127691" lon="77.9399948">
      </trkpt>
      <trkpt lat="27.2126859" lon="77.9405397">
      </trkpt>
      <trkpt lat="27.2126151" lon="77.9409939">
      </trkpt>
      <trkpt lat="27.2125207" lon="77.9418367">
      </trkpt>
      <trkpt lat="27.2112468" lon="77.9518725">
      </trkpt>
      <trkpt lat="27.2107891" lon="77.9554073">
      </trkpt>
      <trkpt lat="27.2097526" lon="77.963389">
      </trkpt>
      <trkpt lat="27.2095591" lon="77.9648608">
      </trkpt>
      <trkpt lat="27.2094452" lon="77.9656358">
      </trkpt>
      <trkpt lat="27.209312" lon="77.9664459">
      </trkpt>
      <trkpt lat="27.2091389" lon="77.967272">
      </trkpt>
      <trkpt lat="27.2090375" lon="77.9676997">
      </trkpt>
      <trkpt lat="27.2089668" lon="77.9679606">
      </trkpt>
      <trkpt lat="27.2087032" lon="77.968861">
      </trkpt>
      <trkpt lat="27.2075482" lon="77.9722922">
      </trkpt>
      <trkpt lat="27.2057017" lon="77.9777772">
      </trkpt>
      <trkpt lat="27.2051068" lon="77.9795445">
      </trkpt>
      <trkpt lat="27.2046007" lon="77.981056">
      </trkpt>
      <trkpt lat="27.2044372" lon="77.9815171">
      </trkpt>
      <trkpt lat="27.2042842" lon="77.981905">
      </trkpt>
      <trkpt lat="27.2037886" lon="77.9830814">
      </trkpt>
      <trkpt lat="27.2006099" lon="77.9901469">
      </trkpt>
      <trkpt lat="27.2000648" lon="77.9914113">
      </trkpt>
      <trkpt lat="27.2000014" lon="77.9915517">
      </trkpt>
      <trkpt lat="27.199543" lon="77.9925712">
      </trkpt>
      <trkpt lat="27.1993163" lon="77.993041">
      </trkpt>
      <trkpt lat="27.19905" lon="77.9935078">
      </trkpt>
      <trkpt lat="27.1987391" lon="77.9939411">
      </trkpt>
      <trkpt lat="27.1986732" lon="77.9940301">
      </trkpt>
      <trkpt lat="27.1984093" lon="77.9943865">
      </trkpt>
      <trkpt lat="27.1980661" lon="77.9947386">
      </trkpt>
      <trkpt lat="27.1977346" lon="77.9950575">
      </trkpt>
      <trkpt lat="27.197334" lon="77.9953747">
      </trkpt>
      <trkpt lat="27.1970303" lon="77.9955915">
      </trkpt>
      <trkpt lat="27.1967317" lon="77.9957864">
      </trkpt>
      <trkpt lat="27.1964276" lon="77.9959644">
      </trkpt>
      <trkpt lat="27.1959784" lon="77.9961967">
      </trkpt>
      <trkpt lat="27.1955945" lon="77.9963734">
      </trkpt>
      <trkpt lat="27.1952514" lon="77.9964962">
      </trkpt>
      <trkpt lat="27.1947253" lon="77.9966436">
      </trkpt>
      <trkpt lat="27.1944204" lon="77.9966938">
      </trkpt>
      <trkpt lat="27.1941264" lon="77.9967521">
      </trkpt>
      <trkpt lat="27.193756" lon="77.9968032">
      </trkpt>
      <trkpt lat="27.1932798" lon="77.9968363">
      </trkpt>
      <trkpt lat="27.1929008" lon="77.9968469">
      </trkpt>
      <trkpt lat="27.1918417" lon="77.9968103">
      </trkpt>
      <trkpt lat="27.1901705" lon="77.9966925">
      </trkpt>
      <trkpt lat="27.1898325" lon="77.996656">
      </trkpt>
      <trkpt lat="27.1896077" lon="77.9966236">
      </trkpt>
      <trkpt lat="27.1895671" lon="77.9966194">
      </trkpt>
      <trkpt lat="27.1895281" lon="77.9966154">
      </trkpt>
      <trkpt lat="27.1892363" lon="77.9965721">
      </trkpt>
      <trkpt lat="27.1889014" lon="77.9964943">
      </trkpt>
      <trkpt lat="27.1884748" lon="77.996374">
      </trkpt>
      <trkpt lat="27.1880951" lon="77.9962184">
      </trkpt>
      <trkpt lat="27.1878845" lon="77.9961435">
      </trkpt>
      <trkpt lat="27.1874145" lon="77.995901">
      </trkpt>
      <trkpt lat="27.1870089" lon="77.9956843">
      </trkpt>
      <trkpt lat="27.1865889" lon="77.9954221">
      </trkpt>
      <trkpt lat="27.1859898" lon="77.9949803">
      </trkpt>
      <trkpt lat="27.1853281" lon="77.9944868">
      </trkpt>
      <trkpt lat="27.1843628" lon="77.9937668">
      </trkpt>
      <trkpt lat="27.1839471" lon="77.9934709">
      </trkpt>
      <trkpt lat="27.1838815" lon="77.9934257">
      </trkpt>
      <trkpt lat="27.1832227" lon="77.993">
      </trkpt>
      <trkpt lat="27.1829811" lon="77.9928375">
      </trkpt>
      <trkpt lat="27.1824853" lon="77.9926152">
      </trkpt>
      <trkpt lat="27.1821126" lon="77.9924649">
      </trkpt>
      <trkpt lat="27.1815759" lon="77.992303">
      </trkpt>
      <trkpt lat="27.1810315" lon="77.9921917">
      </trkpt>
      <trkpt lat="27.1808738" lon="77.9921326">
      </trkpt>
      <trkpt lat="27.1787907" lon="77.9918992">
      </trkpt>
      <trkpt lat="27.178552" lon="77.9918767">
      </trkpt>
      <trkpt lat="27.1761528" lon="77.9916236">
      </trkpt>
      <trkpt lat="27.1759097" lon="77.9915974">
      </trkpt>
      <trkpt lat="27.1721598" lon="77.9911947">
      </trkpt>
      <trkpt lat="27.1717807" lon="77.9911563">
      </trkpt>
      <trkpt lat="27.1684532" lon="77.9907866">
      </trkpt>
      <trkpt lat="27.1678633" lon="77.9907384">
      </trkpt>
      <trkpt lat="27.1675912" lon="77.9907264">
      </trkpt>
      <trkpt lat="27.1671333" lon="77.990719">
      </trkpt>
      <trkpt lat="27.166469" lon="77.9907292">
      </trkpt>
      <trkpt lat="27.1659031" lon="77.9907649">
      </trkpt>
      <trkpt lat="27.1655651" lon="77.9907664">
      </trkpt>
      <trkpt lat="27.1649792" lon="77.9907769">
      </trkpt>
      <trkpt lat="27.1644207" lon="77.9907751">
      </trkpt>
      <trkpt lat="27.1639855" lon="77.9907469">
      </trkpt>
      <trkpt lat="27.1632476" lon="77.99067">
      </trkpt>
      <trkpt lat="27.1619877" lon="77.9905266">
      </trkpt>
    </trkseg>
  </trk>
</gpx>