<?xml version="1.0" encoding="UTF-8"?>
<gpx xmlns="http://www.topografix.com/GPX/1/1" xmlns:xsi="http://www.w3.org/2001/XMLSchema-instance" xsi:schemaLocation="http://www.topografix.com/GPX/1/1 http://www.topografix.com/GPX/1/1/gpx.xsd" version="1.1" creator="gpx.py -- https://github.com/tkrajina/gpxpy">
  <wpt lat="17.4337836" lon="78.5030113">
    <name>Secunderabad Junction</name>
  </wpt>
  <wpt lat="17.5234806" lon="78.8965597">
    <name>Bhongir</name>
  </wpt>
  <wpt lat="17.7220796" lon="79.1511369">
    <name>Jangaon</name>
  </wpt>
  <wpt lat="17.9745417" lon="79.5113426">
    <name>Kazipet Junction</name>
  </wpt>
  <wpt lat="17.9733791" lon="79.6031188">
    <name>Warangal</name>
  </wpt>
  <trk>
    <name>Hyderabad - Warangal (Vies regionals)</name>
    <trkseg>
      <trkpt lat="17.4337836" lon="78.5030113">
      </trkpt>
      <trkpt lat="17.4338421" lon="78.5032695">
      </trkpt>
      <trkpt lat="17.4339032" lon="78.5035918">
      </trkpt>
      <trkpt lat="17.433931" lon="78.5037965">
      </trkpt>
      <trkpt lat="17.433973" lon="78.5041733">
      </trkpt>
      <trkpt lat="17.4340233" lon="78.5045481">
      </trkpt>
      <trkpt lat="17.4340842" lon="78.5048973">
      </trkpt>
      <trkpt lat="17.4341825" lon="78.5054019">
      </trkpt>
      <trkpt lat="17.4342285" lon="78.5056279">
      </trkpt>
      <trkpt lat="17.434273" lon="78.5058263">
      </trkpt>
      <trkpt lat="17.4343613" lon="78.5061935">
      </trkpt>
      <trkpt lat="17.4344665" lon="78.5066308">
      </trkpt>
      <trkpt lat="17.4344908" lon="78.5067261">
      </trkpt>
      <trkpt lat="17.4348331" lon="78.5080712">
      </trkpt>
      <trkpt lat="17.4351755" lon="78.5094401">
      </trkpt>
      <trkpt lat="17.4357215" lon="78.5116393">
      </trkpt>
      <trkpt lat="17.4357582" lon="78.5117871">
      </trkpt>
      <trkpt lat="17.4358584" lon="78.5120938">
      </trkpt>
      <trkpt lat="17.4359363" lon="78.5122826">
      </trkpt>
      <trkpt lat="17.4359696" lon="78.5123725">
      </trkpt>
      <trkpt lat="17.4361113" lon="78.5126642">
      </trkpt>
      <trkpt lat="17.4363166" lon="78.5129942">
      </trkpt>
      <trkpt lat="17.4365333" lon="78.5132754">
      </trkpt>
      <trkpt lat="17.4367262" lon="78.513514">
      </trkpt>
      <trkpt lat="17.4382444" lon="78.5152073">
      </trkpt>
      <trkpt lat="17.4384861" lon="78.5155008">
      </trkpt>
      <trkpt lat="17.438734" lon="78.515872">
      </trkpt>
      <trkpt lat="17.4389154" lon="78.5161912">
      </trkpt>
      <trkpt lat="17.4390737" lon="78.516534">
      </trkpt>
      <trkpt lat="17.4392024" lon="78.5168922">
      </trkpt>
      <trkpt lat="17.4393087" lon="78.5173021">
      </trkpt>
      <trkpt lat="17.4393759" lon="78.5176636">
      </trkpt>
      <trkpt lat="17.4394229" lon="78.5180533">
      </trkpt>
      <trkpt lat="17.4394466" lon="78.518473">
      </trkpt>
      <trkpt lat="17.4394176" lon="78.5218351">
      </trkpt>
      <trkpt lat="17.4393951" lon="78.5222193">
      </trkpt>
      <trkpt lat="17.4393489" lon="78.522529">
      </trkpt>
      <trkpt lat="17.4392514" lon="78.5229244">
      </trkpt>
      <trkpt lat="17.4391169" lon="78.5233096">
      </trkpt>
      <trkpt lat="17.4388911" lon="78.5238994">
      </trkpt>
      <trkpt lat="17.43756" lon="78.5272507">
      </trkpt>
      <trkpt lat="17.4374241" lon="78.5276215">
      </trkpt>
      <trkpt lat="17.4373335" lon="78.5279218">
      </trkpt>
      <trkpt lat="17.4372183" lon="78.5284238">
      </trkpt>
      <trkpt lat="17.4371501" lon="78.5288989">
      </trkpt>
      <trkpt lat="17.4371154" lon="78.529298">
      </trkpt>
      <trkpt lat="17.4370966" lon="78.5298212">
      </trkpt>
      <trkpt lat="17.4370997" lon="78.5313837">
      </trkpt>
      <trkpt lat="17.4370804" lon="78.5318765">
      </trkpt>
      <trkpt lat="17.4370284" lon="78.5322986">
      </trkpt>
      <trkpt lat="17.4369588" lon="78.5326178">
      </trkpt>
      <trkpt lat="17.4368795" lon="78.5329066">
      </trkpt>
      <trkpt lat="17.4367113" lon="78.533335">
      </trkpt>
      <trkpt lat="17.4365427" lon="78.5336744">
      </trkpt>
      <trkpt lat="17.4364321" lon="78.5338591">
      </trkpt>
      <trkpt lat="17.4362771" lon="78.534082">
      </trkpt>
      <trkpt lat="17.4360415" lon="78.5343799">
      </trkpt>
      <trkpt lat="17.435732" lon="78.5347066">
      </trkpt>
      <trkpt lat="17.4346357" lon="78.5356886">
      </trkpt>
      <trkpt lat="17.4343928" lon="78.5359358">
      </trkpt>
      <trkpt lat="17.4342734" lon="78.536065">
      </trkpt>
      <trkpt lat="17.4340795" lon="78.5363152">
      </trkpt>
      <trkpt lat="17.4338968" lon="78.5366065">
      </trkpt>
      <trkpt lat="17.4337163" lon="78.5369803">
      </trkpt>
      <trkpt lat="17.43358" lon="78.5373595">
      </trkpt>
      <trkpt lat="17.4334932" lon="78.5376987">
      </trkpt>
      <trkpt lat="17.4334404" lon="78.5380323">
      </trkpt>
      <trkpt lat="17.4334071" lon="78.5384646">
      </trkpt>
      <trkpt lat="17.4334102" lon="78.5386281">
      </trkpt>
      <trkpt lat="17.4334353" lon="78.5389923">
      </trkpt>
      <trkpt lat="17.4335107" lon="78.5394268">
      </trkpt>
      <trkpt lat="17.4344644" lon="78.5441395">
      </trkpt>
      <trkpt lat="17.4345744" lon="78.5445638">
      </trkpt>
      <trkpt lat="17.4347213" lon="78.5449932">
      </trkpt>
      <trkpt lat="17.4348954" lon="78.5454154">
      </trkpt>
      <trkpt lat="17.4350912" lon="78.5457938">
      </trkpt>
      <trkpt lat="17.435317" lon="78.5461467">
      </trkpt>
      <trkpt lat="17.4355731" lon="78.5464991">
      </trkpt>
      <trkpt lat="17.435773" lon="78.5467308">
      </trkpt>
      <trkpt lat="17.4361146" lon="78.5470956">
      </trkpt>
      <trkpt lat="17.4363399" lon="78.5473005">
      </trkpt>
      <trkpt lat="17.4376252" lon="78.5483335">
      </trkpt>
      <trkpt lat="17.4387458" lon="78.549248">
      </trkpt>
      <trkpt lat="17.4391377" lon="78.5495748">
      </trkpt>
      <trkpt lat="17.440664" lon="78.5507939">
      </trkpt>
      <trkpt lat="17.4424836" lon="78.5522466">
      </trkpt>
      <trkpt lat="17.4427928" lon="78.5525087">
      </trkpt>
      <trkpt lat="17.4430634" lon="78.5527519">
      </trkpt>
      <trkpt lat="17.4433093" lon="78.5530185">
      </trkpt>
      <trkpt lat="17.4435712" lon="78.5533289">
      </trkpt>
      <trkpt lat="17.4438243" lon="78.5536895">
      </trkpt>
      <trkpt lat="17.4440384" lon="78.5540638">
      </trkpt>
      <trkpt lat="17.4442151" lon="78.5544069">
      </trkpt>
      <trkpt lat="17.4449296" lon="78.5558408">
      </trkpt>
      <trkpt lat="17.4491641" lon="78.5642002">
      </trkpt>
      <trkpt lat="17.4493162" lon="78.5645654">
      </trkpt>
      <trkpt lat="17.4494381" lon="78.56495">
      </trkpt>
      <trkpt lat="17.4495327" lon="78.5653159">
      </trkpt>
      <trkpt lat="17.4495905" lon="78.5655751">
      </trkpt>
      <trkpt lat="17.4496424" lon="78.565933">
      </trkpt>
      <trkpt lat="17.4496633" lon="78.5661886">
      </trkpt>
      <trkpt lat="17.4496732" lon="78.5663803">
      </trkpt>
      <trkpt lat="17.4496705" lon="78.5668221">
      </trkpt>
      <trkpt lat="17.4496433" lon="78.5672068">
      </trkpt>
      <trkpt lat="17.4495818" lon="78.5676654">
      </trkpt>
      <trkpt lat="17.4494621" lon="78.5682039">
      </trkpt>
      <trkpt lat="17.4493208" lon="78.5687159">
      </trkpt>
      <trkpt lat="17.4479001" lon="78.5735187">
      </trkpt>
      <trkpt lat="17.4476555" lon="78.574346">
      </trkpt>
      <trkpt lat="17.4476248" lon="78.5744485">
      </trkpt>
      <trkpt lat="17.4472503" lon="78.5757017">
      </trkpt>
      <trkpt lat="17.4463098" lon="78.5788482">
      </trkpt>
      <trkpt lat="17.4461891" lon="78.5793233">
      </trkpt>
      <trkpt lat="17.4461137" lon="78.579675">
      </trkpt>
      <trkpt lat="17.4460457" lon="78.5800943">
      </trkpt>
      <trkpt lat="17.4460397" lon="78.5801844">
      </trkpt>
      <trkpt lat="17.4460314" lon="78.5803103">
      </trkpt>
      <trkpt lat="17.4460184" lon="78.5805056">
      </trkpt>
      <trkpt lat="17.4460143" lon="78.5808827">
      </trkpt>
      <trkpt lat="17.446043" lon="78.5812789">
      </trkpt>
      <trkpt lat="17.4460845" lon="78.5816364">
      </trkpt>
      <trkpt lat="17.4461499" lon="78.582004">
      </trkpt>
      <trkpt lat="17.4462226" lon="78.5823007">
      </trkpt>
      <trkpt lat="17.4463418" lon="78.5826867">
      </trkpt>
      <trkpt lat="17.4465157" lon="78.5831304">
      </trkpt>
      <trkpt lat="17.4467065" lon="78.5835486">
      </trkpt>
      <trkpt lat="17.4473243" lon="78.5847853">
      </trkpt>
      <trkpt lat="17.4476171" lon="78.585387">
      </trkpt>
      <trkpt lat="17.4480158" lon="78.5861922">
      </trkpt>
      <trkpt lat="17.4486791" lon="78.5875641">
      </trkpt>
      <trkpt lat="17.4497768" lon="78.5897273">
      </trkpt>
      <trkpt lat="17.4499948" lon="78.5901695">
      </trkpt>
      <trkpt lat="17.4526712" lon="78.5955646">
      </trkpt>
      <trkpt lat="17.4550449" lon="78.6003638">
      </trkpt>
      <trkpt lat="17.4551808" lon="78.600654">
      </trkpt>
      <trkpt lat="17.4558343" lon="78.6019779">
      </trkpt>
      <trkpt lat="17.4597028" lon="78.6097679">
      </trkpt>
      <trkpt lat="17.4598519" lon="78.6100906">
      </trkpt>
      <trkpt lat="17.460004" lon="78.6104648">
      </trkpt>
      <trkpt lat="17.4601363" lon="78.610877">
      </trkpt>
      <trkpt lat="17.4602394" lon="78.6112905">
      </trkpt>
      <trkpt lat="17.460308" lon="78.6116423">
      </trkpt>
      <trkpt lat="17.4603499" lon="78.6119728">
      </trkpt>
      <trkpt lat="17.4603548" lon="78.6123075">
      </trkpt>
      <trkpt lat="17.4603609" lon="78.6126575">
      </trkpt>
      <trkpt lat="17.4603399" lon="78.6130489">
      </trkpt>
      <trkpt lat="17.460292" lon="78.6134611">
      </trkpt>
      <trkpt lat="17.4602372" lon="78.6137644">
      </trkpt>
      <trkpt lat="17.4601626" lon="78.6140978">
      </trkpt>
      <trkpt lat="17.4600702" lon="78.6144253">
      </trkpt>
      <trkpt lat="17.459951" lon="78.6148">
      </trkpt>
      <trkpt lat="17.4597963" lon="78.6151642">
      </trkpt>
      <trkpt lat="17.4594462" lon="78.6158708">
      </trkpt>
      <trkpt lat="17.4581623" lon="78.618213">
      </trkpt>
      <trkpt lat="17.456948" lon="78.6204083">
      </trkpt>
      <trkpt lat="17.4562646" lon="78.6216558">
      </trkpt>
      <trkpt lat="17.4561827" lon="78.6218054">
      </trkpt>
      <trkpt lat="17.4547989" lon="78.6243316">
      </trkpt>
      <trkpt lat="17.4544798" lon="78.6249313">
      </trkpt>
      <trkpt lat="17.4543352" lon="78.6252089">
      </trkpt>
      <trkpt lat="17.4541897" lon="78.6255093">
      </trkpt>
      <trkpt lat="17.4540474" lon="78.6258633">
      </trkpt>
      <trkpt lat="17.4539421" lon="78.6261697">
      </trkpt>
      <trkpt lat="17.4538637" lon="78.626421">
      </trkpt>
      <trkpt lat="17.4533785" lon="78.628098">
      </trkpt>
      <trkpt lat="17.4532356" lon="78.6287907">
      </trkpt>
      <trkpt lat="17.4531535" lon="78.6295351">
      </trkpt>
      <trkpt lat="17.4530382" lon="78.6311676">
      </trkpt>
      <trkpt lat="17.4530203" lon="78.6315004">
      </trkpt>
      <trkpt lat="17.4530108" lon="78.6319797">
      </trkpt>
      <trkpt lat="17.4530342" lon="78.6325145">
      </trkpt>
      <trkpt lat="17.4530716" lon="78.6329645">
      </trkpt>
      <trkpt lat="17.4539758" lon="78.6406455">
      </trkpt>
      <trkpt lat="17.4543468" lon="78.6437958">
      </trkpt>
      <trkpt lat="17.4543812" lon="78.6440665">
      </trkpt>
      <trkpt lat="17.4548799" lon="78.6484775">
      </trkpt>
      <trkpt lat="17.4549936" lon="78.6494705">
      </trkpt>
      <trkpt lat="17.4550795" lon="78.6503296">
      </trkpt>
      <trkpt lat="17.4550977" lon="78.6506804">
      </trkpt>
      <trkpt lat="17.4550811" lon="78.6511934">
      </trkpt>
      <trkpt lat="17.4550399" lon="78.6517003">
      </trkpt>
      <trkpt lat="17.4549792" lon="78.6523262">
      </trkpt>
      <trkpt lat="17.4530401" lon="78.6693413">
      </trkpt>
      <trkpt lat="17.4529855" lon="78.6698315">
      </trkpt>
      <trkpt lat="17.4529446" lon="78.6702499">
      </trkpt>
      <trkpt lat="17.4529175" lon="78.6706737">
      </trkpt>
      <trkpt lat="17.4529049" lon="78.6712155">
      </trkpt>
      <trkpt lat="17.4529066" lon="78.6716866">
      </trkpt>
      <trkpt lat="17.4529315" lon="78.6724396">
      </trkpt>
      <trkpt lat="17.4529728" lon="78.6741996">
      </trkpt>
      <trkpt lat="17.4529752" lon="78.6743042">
      </trkpt>
      <trkpt lat="17.4529835" lon="78.6750118">
      </trkpt>
      <trkpt lat="17.452988" lon="78.6751708">
      </trkpt>
      <trkpt lat="17.4530571" lon="78.6783325">
      </trkpt>
      <trkpt lat="17.4531487" lon="78.6835047">
      </trkpt>
      <trkpt lat="17.453167" lon="78.6837865">
      </trkpt>
      <trkpt lat="17.4531676" lon="78.6838195">
      </trkpt>
      <trkpt lat="17.4531917" lon="78.6851291">
      </trkpt>
      <trkpt lat="17.4532483" lon="78.6869317">
      </trkpt>
      <trkpt lat="17.4534192" lon="78.6955271">
      </trkpt>
      <trkpt lat="17.4534547" lon="78.6972744">
      </trkpt>
      <trkpt lat="17.4535305" lon="78.7005589">
      </trkpt>
      <trkpt lat="17.4535556" lon="78.7010319">
      </trkpt>
      <trkpt lat="17.4536247" lon="78.7015923">
      </trkpt>
      <trkpt lat="17.4537055" lon="78.7019761">
      </trkpt>
      <trkpt lat="17.4539103" lon="78.7028683">
      </trkpt>
      <trkpt lat="17.4547641" lon="78.7061297">
      </trkpt>
      <trkpt lat="17.4559046" lon="78.7106146">
      </trkpt>
      <trkpt lat="17.4561607" lon="78.7116447">
      </trkpt>
      <trkpt lat="17.4562159" lon="78.7120101">
      </trkpt>
      <trkpt lat="17.4562604" lon="78.7124573">
      </trkpt>
      <trkpt lat="17.4562606" lon="78.7129282">
      </trkpt>
      <trkpt lat="17.4562151" lon="78.7134584">
      </trkpt>
      <trkpt lat="17.4561437" lon="78.7138997">
      </trkpt>
      <trkpt lat="17.4560349" lon="78.7143948">
      </trkpt>
      <trkpt lat="17.4543496" lon="78.720188">
      </trkpt>
      <trkpt lat="17.4526356" lon="78.7260851">
      </trkpt>
      <trkpt lat="17.4524423" lon="78.7271237">
      </trkpt>
      <trkpt lat="17.4524184" lon="78.7276566">
      </trkpt>
      <trkpt lat="17.45244" lon="78.7285146">
      </trkpt>
      <trkpt lat="17.4525363" lon="78.7298008">
      </trkpt>
      <trkpt lat="17.4526246" lon="78.7311619">
      </trkpt>
      <trkpt lat="17.4526766" lon="78.7316391">
      </trkpt>
      <trkpt lat="17.4527822" lon="78.7321467">
      </trkpt>
      <trkpt lat="17.4528913" lon="78.732497">
      </trkpt>
      <trkpt lat="17.4530444" lon="78.7329137">
      </trkpt>
      <trkpt lat="17.4532885" lon="78.7334448">
      </trkpt>
      <trkpt lat="17.4534313" lon="78.7336959">
      </trkpt>
      <trkpt lat="17.4536651" lon="78.734039">
      </trkpt>
      <trkpt lat="17.4541579" lon="78.7346851">
      </trkpt>
      <trkpt lat="17.4572469" lon="78.7383218">
      </trkpt>
      <trkpt lat="17.4587963" lon="78.7401504">
      </trkpt>
      <trkpt lat="17.4603892" lon="78.7420303">
      </trkpt>
      <trkpt lat="17.4609859" lon="78.7428452">
      </trkpt>
      <trkpt lat="17.4613206" lon="78.7434429">
      </trkpt>
      <trkpt lat="17.46153" lon="78.7438636">
      </trkpt>
      <trkpt lat="17.4618496" lon="78.7446625">
      </trkpt>
      <trkpt lat="17.4629251" lon="78.7477671">
      </trkpt>
      <trkpt lat="17.4651759" lon="78.754323">
      </trkpt>
      <trkpt lat="17.4674167" lon="78.7608876">
      </trkpt>
      <trkpt lat="17.4679387" lon="78.7624192">
      </trkpt>
      <trkpt lat="17.4681644" lon="78.7630813">
      </trkpt>
      <trkpt lat="17.4683178" lon="78.7636217">
      </trkpt>
      <trkpt lat="17.4684663" lon="78.7642334">
      </trkpt>
      <trkpt lat="17.4685499" lon="78.7647691">
      </trkpt>
      <trkpt lat="17.4686087" lon="78.76545">
      </trkpt>
      <trkpt lat="17.4698314" lon="78.781975">
      </trkpt>
      <trkpt lat="17.4703811" lon="78.7894538">
      </trkpt>
      <trkpt lat="17.4704315" lon="78.7901393">
      </trkpt>
      <trkpt lat="17.470458" lon="78.7906482">
      </trkpt>
      <trkpt lat="17.4707439" lon="78.7945001">
      </trkpt>
      <trkpt lat="17.4708999" lon="78.7965113">
      </trkpt>
      <trkpt lat="17.4709328" lon="78.796885">
      </trkpt>
      <trkpt lat="17.470994" lon="78.797292">
      </trkpt>
      <trkpt lat="17.471102" lon="78.7977561">
      </trkpt>
      <trkpt lat="17.4712039" lon="78.7981019">
      </trkpt>
      <trkpt lat="17.4712831" lon="78.7983452">
      </trkpt>
      <trkpt lat="17.4714371" lon="78.7987105">
      </trkpt>
      <trkpt lat="17.4715661" lon="78.798957">
      </trkpt>
      <trkpt lat="17.471693" lon="78.7991938">
      </trkpt>
      <trkpt lat="17.4720438" lon="78.7997312">
      </trkpt>
      <trkpt lat="17.4725684" lon="78.8004743">
      </trkpt>
      <trkpt lat="17.4745208" lon="78.8033022">
      </trkpt>
      <trkpt lat="17.4760347" lon="78.8055619">
      </trkpt>
      <trkpt lat="17.4775957" lon="78.8079611">
      </trkpt>
      <trkpt lat="17.4785413" lon="78.8093881">
      </trkpt>
      <trkpt lat="17.4802122" lon="78.8119433">
      </trkpt>
      <trkpt lat="17.480641" lon="78.8126036">
      </trkpt>
      <trkpt lat="17.4811297" lon="78.8133598">
      </trkpt>
      <trkpt lat="17.4817753" lon="78.8142979">
      </trkpt>
      <trkpt lat="17.4825414" lon="78.8154733">
      </trkpt>
      <trkpt lat="17.4828371" lon="78.8159814">
      </trkpt>
      <trkpt lat="17.4830174" lon="78.8163301">
      </trkpt>
      <trkpt lat="17.4831265" lon="78.8165543">
      </trkpt>
      <trkpt lat="17.4833212" lon="78.816995">
      </trkpt>
      <trkpt lat="17.4834031" lon="78.8171837">
      </trkpt>
      <trkpt lat="17.4834996" lon="78.8174456">
      </trkpt>
      <trkpt lat="17.4835649" lon="78.8176171">
      </trkpt>
      <trkpt lat="17.4837628" lon="78.8182203">
      </trkpt>
      <trkpt lat="17.4860709" lon="78.8261849">
      </trkpt>
      <trkpt lat="17.486371" lon="78.8272051">
      </trkpt>
      <trkpt lat="17.4866519" lon="78.8281688">
      </trkpt>
      <trkpt lat="17.4870619" lon="78.8294555">
      </trkpt>
      <trkpt lat="17.489369" lon="78.8372396">
      </trkpt>
      <trkpt lat="17.4897707" lon="78.8383849">
      </trkpt>
      <trkpt lat="17.4900546" lon="78.8391273">
      </trkpt>
      <trkpt lat="17.4906018" lon="78.840154">
      </trkpt>
      <trkpt lat="17.4912024" lon="78.8411461">
      </trkpt>
      <trkpt lat="17.4920868" lon="78.8422802">
      </trkpt>
      <trkpt lat="17.4929645" lon="78.8432037">
      </trkpt>
      <trkpt lat="17.4940031" lon="78.8441389">
      </trkpt>
      <trkpt lat="17.4994137" lon="78.8486781">
      </trkpt>
      <trkpt lat="17.502404" lon="78.8513078">
      </trkpt>
      <trkpt lat="17.5027197" lon="78.8515301">
      </trkpt>
      <trkpt lat="17.5028497" lon="78.8516151">
      </trkpt>
      <trkpt lat="17.5031653" lon="78.8518345">
      </trkpt>
      <trkpt lat="17.5037391" lon="78.8522132">
      </trkpt>
      <trkpt lat="17.506021" lon="78.8535126">
      </trkpt>
      <trkpt lat="17.508689" lon="78.8550036">
      </trkpt>
      <trkpt lat="17.509333" lon="78.8554331">
      </trkpt>
      <trkpt lat="17.5099334" lon="78.8559059">
      </trkpt>
      <trkpt lat="17.5104235" lon="78.8563246">
      </trkpt>
      <trkpt lat="17.5120163" lon="78.8576724">
      </trkpt>
      <trkpt lat="17.5122608" lon="78.8578679">
      </trkpt>
      <trkpt lat="17.5130819" lon="78.8585514">
      </trkpt>
      <trkpt lat="17.5139733" lon="78.859355">
      </trkpt>
      <trkpt lat="17.5144734" lon="78.8598818">
      </trkpt>
      <trkpt lat="17.5148282" lon="78.8603557">
      </trkpt>
      <trkpt lat="17.5150489" lon="78.8607471">
      </trkpt>
      <trkpt lat="17.5153474" lon="78.8613452">
      </trkpt>
      <trkpt lat="17.5161805" lon="78.863212">
      </trkpt>
      <trkpt lat="17.5162233" lon="78.8633117">
      </trkpt>
      <trkpt lat="17.5163613" lon="78.8636332">
      </trkpt>
      <trkpt lat="17.5168806" lon="78.8648432">
      </trkpt>
      <trkpt lat="17.5170293" lon="78.8651896">
      </trkpt>
      <trkpt lat="17.5175981" lon="78.8665151">
      </trkpt>
      <trkpt lat="17.5185762" lon="78.868706">
      </trkpt>
      <trkpt lat="17.5199157" lon="78.8718018">
      </trkpt>
      <trkpt lat="17.5206692" lon="78.8734819">
      </trkpt>
      <trkpt lat="17.5222051" lon="78.8766893">
      </trkpt>
      <trkpt lat="17.5232111" lon="78.8788724">
      </trkpt>
      <trkpt lat="17.5234904" lon="78.8795371">
      </trkpt>
      <trkpt lat="17.5236868" lon="78.8802037">
      </trkpt>
      <trkpt lat="17.523796" lon="78.8807463">
      </trkpt>
      <trkpt lat="17.5238613" lon="78.8811935">
      </trkpt>
      <trkpt lat="17.5239332" lon="78.881717">
      </trkpt>
      <trkpt lat="17.5239406" lon="78.8822235">
      </trkpt>
      <trkpt lat="17.5239396" lon="78.8828395">
      </trkpt>
      <trkpt lat="17.5238496" lon="78.8840589">
      </trkpt>
      <trkpt lat="17.523716" lon="78.8849223">
      </trkpt>
      <trkpt lat="17.5233508" lon="78.8880251">
      </trkpt>
      <trkpt lat="17.5231451" lon="78.8895312">
      </trkpt>
      <trkpt lat="17.5229886" lon="78.8908412">
      </trkpt>
      <trkpt lat="17.5228395" lon="78.8923217">
      </trkpt>
      <trkpt lat="17.522826" lon="78.8926614">
      </trkpt>
      <trkpt lat="17.5228072" lon="78.8934077">
      </trkpt>
      <trkpt lat="17.5228294" lon="78.8937887">
      </trkpt>
      <trkpt lat="17.5229306" lon="78.8946788">
      </trkpt>
      <trkpt lat="17.5230975" lon="78.8954651">
      </trkpt>
      <trkpt lat="17.5234806" lon="78.8965597">
      </trkpt>
      <trkpt lat="17.5242815" lon="78.8983453">
      </trkpt>
      <trkpt lat="17.5245841" lon="78.8989307">
      </trkpt>
      <trkpt lat="17.5247979" lon="78.8992692">
      </trkpt>
      <trkpt lat="17.5249348" lon="78.8994689">
      </trkpt>
      <trkpt lat="17.5251586" lon="78.8997806">
      </trkpt>
      <trkpt lat="17.525428" lon="78.9001881">
      </trkpt>
      <trkpt lat="17.5255894" lon="78.9004227">
      </trkpt>
      <trkpt lat="17.5258499" lon="78.9008138">
      </trkpt>
      <trkpt lat="17.5261127" lon="78.9011933">
      </trkpt>
      <trkpt lat="17.5262396" lon="78.9013847">
      </trkpt>
      <trkpt lat="17.5264422" lon="78.9016848">
      </trkpt>
      <trkpt lat="17.5266426" lon="78.901965">
      </trkpt>
      <trkpt lat="17.5269143" lon="78.9023456">
      </trkpt>
      <trkpt lat="17.5272917" lon="78.9028768">
      </trkpt>
      <trkpt lat="17.5276067" lon="78.9033473">
      </trkpt>
      <trkpt lat="17.5277236" lon="78.9035143">
      </trkpt>
      <trkpt lat="17.5279" lon="78.9037561">
      </trkpt>
      <trkpt lat="17.5280643" lon="78.9039891">
      </trkpt>
      <trkpt lat="17.5282113" lon="78.9041762">
      </trkpt>
      <trkpt lat="17.5283716" lon="78.9043829">
      </trkpt>
      <trkpt lat="17.5285519" lon="78.9046152">
      </trkpt>
      <trkpt lat="17.5294312" lon="78.9054968">
      </trkpt>
      <trkpt lat="17.5298772" lon="78.9058251">
      </trkpt>
      <trkpt lat="17.5316773" lon="78.9069548">
      </trkpt>
      <trkpt lat="17.5320666" lon="78.9072234">
      </trkpt>
      <trkpt lat="17.5324213" lon="78.9075283">
      </trkpt>
      <trkpt lat="17.5329543" lon="78.9080386">
      </trkpt>
      <trkpt lat="17.5342472" lon="78.909492">
      </trkpt>
      <trkpt lat="17.5351834" lon="78.910549">
      </trkpt>
      <trkpt lat="17.5358166" lon="78.911195">
      </trkpt>
      <trkpt lat="17.5364221" lon="78.9116687">
      </trkpt>
      <trkpt lat="17.536979" lon="78.9120474">
      </trkpt>
      <trkpt lat="17.5373247" lon="78.9122508">
      </trkpt>
      <trkpt lat="17.5377349" lon="78.9124455">
      </trkpt>
      <trkpt lat="17.5383848" lon="78.9127336">
      </trkpt>
      <trkpt lat="17.5389896" lon="78.9129267">
      </trkpt>
      <trkpt lat="17.5400292" lon="78.9132674">
      </trkpt>
      <trkpt lat="17.5428711" lon="78.9142043">
      </trkpt>
      <trkpt lat="17.5432877" lon="78.9143584">
      </trkpt>
      <trkpt lat="17.5435415" lon="78.914467">
      </trkpt>
      <trkpt lat="17.5437871" lon="78.914581">
      </trkpt>
      <trkpt lat="17.5442256" lon="78.9148016">
      </trkpt>
      <trkpt lat="17.5447855" lon="78.9151483">
      </trkpt>
      <trkpt lat="17.5458544" lon="78.9158413">
      </trkpt>
      <trkpt lat="17.5463202" lon="78.9161111">
      </trkpt>
      <trkpt lat="17.5467031" lon="78.9163714">
      </trkpt>
      <trkpt lat="17.5469258" lon="78.916515">
      </trkpt>
      <trkpt lat="17.5470772" lon="78.9165968">
      </trkpt>
      <trkpt lat="17.5480202" lon="78.9172094">
      </trkpt>
      <trkpt lat="17.5517166" lon="78.9195921">
      </trkpt>
      <trkpt lat="17.5523309" lon="78.9200573">
      </trkpt>
      <trkpt lat="17.5528954" lon="78.9205988">
      </trkpt>
      <trkpt lat="17.5533257" lon="78.9210989">
      </trkpt>
      <trkpt lat="17.5536155" lon="78.9214969">
      </trkpt>
      <trkpt lat="17.5539086" lon="78.9219725">
      </trkpt>
      <trkpt lat="17.5542325" lon="78.9226492">
      </trkpt>
      <trkpt lat="17.5544702" lon="78.9232439">
      </trkpt>
      <trkpt lat="17.5546931" lon="78.9239951">
      </trkpt>
      <trkpt lat="17.5548329" lon="78.9248226">
      </trkpt>
      <trkpt lat="17.5548795" lon="78.925545">
      </trkpt>
      <trkpt lat="17.5548329" lon="78.9264996">
      </trkpt>
      <trkpt lat="17.5547275" lon="78.9272475">
      </trkpt>
      <trkpt lat="17.5543361" lon="78.929891">
      </trkpt>
      <trkpt lat="17.5539131" lon="78.9324976">
      </trkpt>
      <trkpt lat="17.5537192" lon="78.9333603">
      </trkpt>
      <trkpt lat="17.553255" lon="78.9348269">
      </trkpt>
      <trkpt lat="17.5521623" lon="78.9379942">
      </trkpt>
      <trkpt lat="17.5517655" lon="78.9391082">
      </trkpt>
      <trkpt lat="17.5516246" lon="78.9396228">
      </trkpt>
      <trkpt lat="17.5514609" lon="78.9402987">
      </trkpt>
      <trkpt lat="17.5507321" lon="78.944241">
      </trkpt>
      <trkpt lat="17.5501207" lon="78.9474221">
      </trkpt>
      <trkpt lat="17.5498902" lon="78.9486409">
      </trkpt>
      <trkpt lat="17.5498031" lon="78.9491475">
      </trkpt>
      <trkpt lat="17.5497527" lon="78.9496087">
      </trkpt>
      <trkpt lat="17.5497202" lon="78.9499276">
      </trkpt>
      <trkpt lat="17.5497107" lon="78.9502106">
      </trkpt>
      <trkpt lat="17.549714" lon="78.9504946">
      </trkpt>
      <trkpt lat="17.549744" lon="78.9508193">
      </trkpt>
      <trkpt lat="17.5498206" lon="78.9512762">
      </trkpt>
      <trkpt lat="17.5499465" lon="78.9518132">
      </trkpt>
      <trkpt lat="17.5501328" lon="78.9523356">
      </trkpt>
      <trkpt lat="17.5503968" lon="78.9529029">
      </trkpt>
      <trkpt lat="17.5507602" lon="78.9534673">
      </trkpt>
      <trkpt lat="17.5511479" lon="78.953964">
      </trkpt>
      <trkpt lat="17.5517003" lon="78.9545369">
      </trkpt>
      <trkpt lat="17.5552552" lon="78.9576767">
      </trkpt>
      <trkpt lat="17.5554099" lon="78.9578119">
      </trkpt>
      <trkpt lat="17.5643207" lon="78.9656883">
      </trkpt>
      <trkpt lat="17.564418" lon="78.9657743">
      </trkpt>
      <trkpt lat="17.5659241" lon="78.9671031">
      </trkpt>
      <trkpt lat="17.5664804" lon="78.9675946">
      </trkpt>
      <trkpt lat="17.5668436" lon="78.9679575">
      </trkpt>
      <trkpt lat="17.5673007" lon="78.968461">
      </trkpt>
      <trkpt lat="17.5685936" lon="78.9699576">
      </trkpt>
      <trkpt lat="17.5687217" lon="78.9701039">
      </trkpt>
      <trkpt lat="17.5723562" lon="78.9743136">
      </trkpt>
      <trkpt lat="17.5724049" lon="78.97437">
      </trkpt>
      <trkpt lat="17.5762575" lon="78.9788324">
      </trkpt>
      <trkpt lat="17.5773748" lon="78.9801226">
      </trkpt>
      <trkpt lat="17.5774666" lon="78.9802287">
      </trkpt>
      <trkpt lat="17.5832066" lon="78.9868806">
      </trkpt>
      <trkpt lat="17.5834471" lon="78.9871502">
      </trkpt>
      <trkpt lat="17.5836615" lon="78.9873817">
      </trkpt>
      <trkpt lat="17.58396" lon="78.9876755">
      </trkpt>
      <trkpt lat="17.5842332" lon="78.9879154">
      </trkpt>
      <trkpt lat="17.5844702" lon="78.9880912">
      </trkpt>
      <trkpt lat="17.5847277" lon="78.9882627">
      </trkpt>
      <trkpt lat="17.5850822" lon="78.988468">
      </trkpt>
      <trkpt lat="17.5854675" lon="78.9886605">
      </trkpt>
      <trkpt lat="17.588768" lon="78.9901294">
      </trkpt>
      <trkpt lat="17.5958112" lon="78.9932566">
      </trkpt>
      <trkpt lat="17.5958843" lon="78.9932909">
      </trkpt>
      <trkpt lat="17.6006332" lon="78.99539">
      </trkpt>
      <trkpt lat="17.6085231" lon="78.9988632">
      </trkpt>
      <trkpt lat="17.6085806" lon="78.9988876">
      </trkpt>
      <trkpt lat="17.6126802" lon="79.0006956">
      </trkpt>
      <trkpt lat="17.6130314" lon="79.0008486">
      </trkpt>
      <trkpt lat="17.615586" lon="79.0020137">
      </trkpt>
      <trkpt lat="17.6215545" lon="79.0046584">
      </trkpt>
      <trkpt lat="17.6216058" lon="79.0046813">
      </trkpt>
      <trkpt lat="17.6256284" lon="79.0064514">
      </trkpt>
      <trkpt lat="17.626197" lon="79.006703">
      </trkpt>
      <trkpt lat="17.6265159" lon="79.0068569">
      </trkpt>
      <trkpt lat="17.6268074" lon="79.0070123">
      </trkpt>
      <trkpt lat="17.6270551" lon="79.0071545">
      </trkpt>
      <trkpt lat="17.6273746" lon="79.0073631">
      </trkpt>
      <trkpt lat="17.6276251" lon="79.0075503">
      </trkpt>
      <trkpt lat="17.6278725" lon="79.0077672">
      </trkpt>
      <trkpt lat="17.6280854" lon="79.0079692">
      </trkpt>
      <trkpt lat="17.6282858" lon="79.0081843">
      </trkpt>
      <trkpt lat="17.6285494" lon="79.0085133">
      </trkpt>
      <trkpt lat="17.6288191" lon="79.0088949">
      </trkpt>
      <trkpt lat="17.629095" lon="79.0093721">
      </trkpt>
      <trkpt lat="17.6293134" lon="79.0098298">
      </trkpt>
      <trkpt lat="17.6338954" lon="79.0205128">
      </trkpt>
      <trkpt lat="17.633924" lon="79.0205809">
      </trkpt>
      <trkpt lat="17.635359" lon="79.0239204">
      </trkpt>
      <trkpt lat="17.6354484" lon="79.0241215">
      </trkpt>
      <trkpt lat="17.6416601" lon="79.0385848">
      </trkpt>
      <trkpt lat="17.6417147" lon="79.0387055">
      </trkpt>
      <trkpt lat="17.6436292" lon="79.0431167">
      </trkpt>
      <trkpt lat="17.6445136" lon="79.0452162">
      </trkpt>
      <trkpt lat="17.6457664" lon="79.0485254">
      </trkpt>
      <trkpt lat="17.6470912" lon="79.0521338">
      </trkpt>
      <trkpt lat="17.6478253" lon="79.053961">
      </trkpt>
      <trkpt lat="17.6486508" lon="79.0561425">
      </trkpt>
      <trkpt lat="17.6491365" lon="79.0574375">
      </trkpt>
      <trkpt lat="17.6495558" lon="79.0587679">
      </trkpt>
      <trkpt lat="17.6498105" lon="79.0597929">
      </trkpt>
      <trkpt lat="17.6501243" lon="79.0606778">
      </trkpt>
      <trkpt lat="17.6504152" lon="79.0615077">
      </trkpt>
      <trkpt lat="17.6506229" lon="79.0620871">
      </trkpt>
      <trkpt lat="17.6508696" lon="79.0626521">
      </trkpt>
      <trkpt lat="17.6512346" lon="79.0632672">
      </trkpt>
      <trkpt lat="17.652075" lon="79.0644201">
      </trkpt>
      <trkpt lat="17.6562928" lon="79.0700446">
      </trkpt>
      <trkpt lat="17.6802332" lon="79.1022089">
      </trkpt>
      <trkpt lat="17.6813105" lon="79.1034986">
      </trkpt>
      <trkpt lat="17.6864924" lon="79.1095545">
      </trkpt>
      <trkpt lat="17.6865242" lon="79.1095918">
      </trkpt>
      <trkpt lat="17.6901278" lon="79.1138165">
      </trkpt>
      <trkpt lat="17.6907418" lon="79.1145164">
      </trkpt>
      <trkpt lat="17.6914705" lon="79.1153735">
      </trkpt>
      <trkpt lat="17.6915653" lon="79.1154847">
      </trkpt>
      <trkpt lat="17.6943893" lon="79.118779">
      </trkpt>
      <trkpt lat="17.6949177" lon="79.1193879">
      </trkpt>
      <trkpt lat="17.695455" lon="79.1200205">
      </trkpt>
      <trkpt lat="17.6963315" lon="79.1210674">
      </trkpt>
      <trkpt lat="17.6963982" lon="79.1211424">
      </trkpt>
      <trkpt lat="17.7220796" lon="79.1511369">
      </trkpt>
      <trkpt lat="17.7222764" lon="79.1513667">
      </trkpt>
      <trkpt lat="17.7225508" lon="79.1516827">
      </trkpt>
      <trkpt lat="17.7229938" lon="79.1522066">
      </trkpt>
      <trkpt lat="17.7243068" lon="79.1537327">
      </trkpt>
      <trkpt lat="17.7263952" lon="79.1561832">
      </trkpt>
      <trkpt lat="17.7266535" lon="79.1564975">
      </trkpt>
      <trkpt lat="17.7268678" lon="79.1567998">
      </trkpt>
      <trkpt lat="17.7271775" lon="79.1573084">
      </trkpt>
      <trkpt lat="17.7274296" lon="79.1578016">
      </trkpt>
      <trkpt lat="17.7275568" lon="79.158137">
      </trkpt>
      <trkpt lat="17.7276782" lon="79.1584867">
      </trkpt>
      <trkpt lat="17.727802" lon="79.158998">
      </trkpt>
      <trkpt lat="17.7279933" lon="79.1599552">
      </trkpt>
      <trkpt lat="17.7305129" lon="79.172517">
      </trkpt>
      <trkpt lat="17.7326871" lon="79.1836726">
      </trkpt>
      <trkpt lat="17.7329804" lon="79.1850473">
      </trkpt>
      <trkpt lat="17.7337425" lon="79.188837">
      </trkpt>
      <trkpt lat="17.7343459" lon="79.1918336">
      </trkpt>
      <trkpt lat="17.7344617" lon="79.1925152">
      </trkpt>
      <trkpt lat="17.7403614" lon="79.2220925">
      </trkpt>
      <trkpt lat="17.7423419" lon="79.2320214">
      </trkpt>
      <trkpt lat="17.7426197" lon="79.2334033">
      </trkpt>
      <trkpt lat="17.7427089" lon="79.2338471">
      </trkpt>
      <trkpt lat="17.7434968" lon="79.2377664">
      </trkpt>
      <trkpt lat="17.743773" lon="79.239037">
      </trkpt>
      <trkpt lat="17.7441901" lon="79.240344">
      </trkpt>
      <trkpt lat="17.7444893" lon="79.2409805">
      </trkpt>
      <trkpt lat="17.7448656" lon="79.2416021">
      </trkpt>
      <trkpt lat="17.7452751" lon="79.2421937">
      </trkpt>
      <trkpt lat="17.7457848" lon="79.2428299">
      </trkpt>
      <trkpt lat="17.7474443" lon="79.2448361">
      </trkpt>
      <trkpt lat="17.7525363" lon="79.2509709">
      </trkpt>
      <trkpt lat="17.7538777" lon="79.2525901">
      </trkpt>
      <trkpt lat="17.7572095" lon="79.2565965">
      </trkpt>
      <trkpt lat="17.7592757" lon="79.2590778">
      </trkpt>
      <trkpt lat="17.7598936" lon="79.2598155">
      </trkpt>
      <trkpt lat="17.761672" lon="79.2619701">
      </trkpt>
      <trkpt lat="17.7689324" lon="79.2707153">
      </trkpt>
      <trkpt lat="17.7693394" lon="79.2712851">
      </trkpt>
      <trkpt lat="17.7695702" lon="79.2716547">
      </trkpt>
      <trkpt lat="17.7846216" lon="79.2987226">
      </trkpt>
      <trkpt lat="17.784782" lon="79.2990116">
      </trkpt>
      <trkpt lat="17.7915985" lon="79.3112655">
      </trkpt>
      <trkpt lat="17.7918768" lon="79.3117665">
      </trkpt>
      <trkpt lat="17.7983209" lon="79.3233522">
      </trkpt>
      <trkpt lat="17.7989375" lon="79.3241984">
      </trkpt>
      <trkpt lat="17.799816" lon="79.3252698">
      </trkpt>
      <trkpt lat="17.8016435" lon="79.3272108">
      </trkpt>
      <trkpt lat="17.8078042" lon="79.3338118">
      </trkpt>
      <trkpt lat="17.8102258" lon="79.3363918">
      </trkpt>
      <trkpt lat="17.8201857" lon="79.3470452">
      </trkpt>
      <trkpt lat="17.8281564" lon="79.3541412">
      </trkpt>
      <trkpt lat="17.8317566" lon="79.3573255">
      </trkpt>
      <trkpt lat="17.8323247" lon="79.3578246">
      </trkpt>
      <trkpt lat="17.8395241" lon="79.3652688">
      </trkpt>
      <trkpt lat="17.845821" lon="79.3718479">
      </trkpt>
      <trkpt lat="17.849932" lon="79.3761431">
      </trkpt>
      <trkpt lat="17.8514694" lon="79.3777423">
      </trkpt>
      <trkpt lat="17.8520108" lon="79.3783054">
      </trkpt>
      <trkpt lat="17.8520845" lon="79.3783804">
      </trkpt>
      <trkpt lat="17.8710759" lon="79.3982893">
      </trkpt>
      <trkpt lat="17.8847554" lon="79.4124574">
      </trkpt>
      <trkpt lat="17.8847711" lon="79.4124736">
      </trkpt>
      <trkpt lat="17.8849359" lon="79.4126443">
      </trkpt>
      <trkpt lat="17.8986381" lon="79.4269599">
      </trkpt>
      <trkpt lat="17.8998249" lon="79.4281711">
      </trkpt>
      <trkpt lat="17.9008259" lon="79.4292307">
      </trkpt>
      <trkpt lat="17.9028018" lon="79.4312939">
      </trkpt>
      <trkpt lat="17.9059318" lon="79.434558">
      </trkpt>
      <trkpt lat="17.9199724" lon="79.4491732">
      </trkpt>
      <trkpt lat="17.9262659" lon="79.4557246">
      </trkpt>
      <trkpt lat="17.9360093" lon="79.465886">
      </trkpt>
      <trkpt lat="17.9442469" lon="79.4744775">
      </trkpt>
      <trkpt lat="17.946292" lon="79.4766256">
      </trkpt>
      <trkpt lat="17.9482917" lon="79.4786158">
      </trkpt>
      <trkpt lat="17.9491159" lon="79.4794822">
      </trkpt>
      <trkpt lat="17.9495522" lon="79.4799355">
      </trkpt>
      <trkpt lat="17.9501902" lon="79.4806167">
      </trkpt>
      <trkpt lat="17.9508204" lon="79.4812819">
      </trkpt>
      <trkpt lat="17.9512414" lon="79.4817057">
      </trkpt>
      <trkpt lat="17.9515655" lon="79.482041">
      </trkpt>
      <trkpt lat="17.9521549" lon="79.4826659">
      </trkpt>
      <trkpt lat="17.9527622" lon="79.4832748">
      </trkpt>
      <trkpt lat="17.9531577" lon="79.4837281">
      </trkpt>
      <trkpt lat="17.9540787" lon="79.4846495">
      </trkpt>
      <trkpt lat="17.9546103" lon="79.4853051">
      </trkpt>
      <trkpt lat="17.9549365" lon="79.4856614">
      </trkpt>
      <trkpt lat="17.9553569" lon="79.4861667">
      </trkpt>
      <trkpt lat="17.9606249" lon="79.4930106">
      </trkpt>
      <trkpt lat="17.9652483" lon="79.4992112">
      </trkpt>
      <trkpt lat="17.9691992" lon="79.5043842">
      </trkpt>
      <trkpt lat="17.9704478" lon="79.506005">
      </trkpt>
      <trkpt lat="17.9708429" lon="79.5065179">
      </trkpt>
      <trkpt lat="17.9712809" lon="79.5071043">
      </trkpt>
      <trkpt lat="17.9745417" lon="79.5113426">
      </trkpt>
      <trkpt lat="17.9744052" lon="79.5114606">
      </trkpt>
      <trkpt lat="17.9752031" lon="79.5124868">
      </trkpt>
      <trkpt lat="17.975576" lon="79.5129756">
      </trkpt>
      <trkpt lat="17.9759893" lon="79.5135302">
      </trkpt>
      <trkpt lat="17.9761766" lon="79.5137686">
      </trkpt>
      <trkpt lat="17.9764956" lon="79.5141703">
      </trkpt>
      <trkpt lat="17.9768065" lon="79.5145661">
      </trkpt>
      <trkpt lat="17.977132" lon="79.5150128">
      </trkpt>
      <trkpt lat="17.977509" lon="79.5156391">
      </trkpt>
      <trkpt lat="17.9778582" lon="79.5162099">
      </trkpt>
      <trkpt lat="17.9779549" lon="79.5163657">
      </trkpt>
      <trkpt lat="17.9785083" lon="79.5172553">
      </trkpt>
      <trkpt lat="17.9786215" lon="79.5174512">
      </trkpt>
      <trkpt lat="17.9788621" lon="79.5178219">
      </trkpt>
      <trkpt lat="17.9790097" lon="79.5181487">
      </trkpt>
      <trkpt lat="17.9791811" lon="79.5185835">
      </trkpt>
      <trkpt lat="17.9793116" lon="79.51896">
      </trkpt>
      <trkpt lat="17.9794038" lon="79.5194471">
      </trkpt>
      <trkpt lat="17.9794499" lon="79.5198467">
      </trkpt>
      <trkpt lat="17.9794679" lon="79.5200938">
      </trkpt>
      <trkpt lat="17.9794618" lon="79.5203826">
      </trkpt>
      <trkpt lat="17.9794454" lon="79.5207606">
      </trkpt>
      <trkpt lat="17.979434" lon="79.5208863">
      </trkpt>
      <trkpt lat="17.9793801" lon="79.5212586">
      </trkpt>
      <trkpt lat="17.9793029" lon="79.5216213">
      </trkpt>
      <trkpt lat="17.9792172" lon="79.5219334">
      </trkpt>
      <trkpt lat="17.979148" lon="79.5221444">
      </trkpt>
      <trkpt lat="17.979067" lon="79.5223479">
      </trkpt>
      <trkpt lat="17.9789231" lon="79.5226949">
      </trkpt>
      <trkpt lat="17.9787159" lon="79.5230725">
      </trkpt>
      <trkpt lat="17.9784291" lon="79.5235667">
      </trkpt>
      <trkpt lat="17.9783077" lon="79.5237913">
      </trkpt>
      <trkpt lat="17.9781352" lon="79.5241649">
      </trkpt>
      <trkpt lat="17.977701" lon="79.5249039">
      </trkpt>
      <trkpt lat="17.9774565" lon="79.5253673">
      </trkpt>
      <trkpt lat="17.9773007" lon="79.5257121">
      </trkpt>
      <trkpt lat="17.9772333" lon="79.5258861">
      </trkpt>
      <trkpt lat="17.9770691" lon="79.526437">
      </trkpt>
      <trkpt lat="17.9769409" lon="79.5270234">
      </trkpt>
      <trkpt lat="17.9768712" lon="79.5279692">
      </trkpt>
      <trkpt lat="17.9768531" lon="79.5286697">
      </trkpt>
      <trkpt lat="17.9766607" lon="79.5346665">
      </trkpt>
      <trkpt lat="17.9766193" lon="79.5359848">
      </trkpt>
      <trkpt lat="17.9765406" lon="79.5382216">
      </trkpt>
      <trkpt lat="17.9764663" lon="79.5405979">
      </trkpt>
      <trkpt lat="17.9763899" lon="79.5428253">
      </trkpt>
      <trkpt lat="17.9762343" lon="79.5480337">
      </trkpt>
      <trkpt lat="17.9761893" lon="79.5491355">
      </trkpt>
      <trkpt lat="17.9761781" lon="79.5495138">
      </trkpt>
      <trkpt lat="17.9761215" lon="79.5511574">
      </trkpt>
      <trkpt lat="17.9759519" lon="79.555933">
      </trkpt>
      <trkpt lat="17.975847" lon="79.5596046">
      </trkpt>
      <trkpt lat="17.9757261" lon="79.5632427">
      </trkpt>
      <trkpt lat="17.9755607" lon="79.568292">
      </trkpt>
      <trkpt lat="17.9754239" lon="79.5722311">
      </trkpt>
      <trkpt lat="17.9752418" lon="79.5775196">
      </trkpt>
      <trkpt lat="17.9751782" lon="79.5795928">
      </trkpt>
      <trkpt lat="17.9751673" lon="79.579926">
      </trkpt>
      <trkpt lat="17.9751543" lon="79.5803209">
      </trkpt>
      <trkpt lat="17.9750637" lon="79.5830771">
      </trkpt>
      <trkpt lat="17.9749397" lon="79.5869059">
      </trkpt>
      <trkpt lat="17.9748369" lon="79.5901511">
      </trkpt>
      <trkpt lat="17.9747717" lon="79.5918247">
      </trkpt>
      <trkpt lat="17.9747305" lon="79.5933535">
      </trkpt>
      <trkpt lat="17.974705" lon="79.5941025">
      </trkpt>
      <trkpt lat="17.9746684" lon="79.5948649">
      </trkpt>
      <trkpt lat="17.9746661" lon="79.5948948">
      </trkpt>
      <trkpt lat="17.9746096" lon="79.5956307">
      </trkpt>
      <trkpt lat="17.9745643" lon="79.5959505">
      </trkpt>
      <trkpt lat="17.9745428" lon="79.5961022">
      </trkpt>
      <trkpt lat="17.9744356" lon="79.5967656">
      </trkpt>
      <trkpt lat="17.9738531" lon="79.6001144">
      </trkpt>
      <trkpt lat="17.9737847" lon="79.6005508">
      </trkpt>
      <trkpt lat="17.9737541" lon="79.6007792">
      </trkpt>
      <trkpt lat="17.9733791" lon="79.6031188">
      </trkpt>
    </trkseg>
  </trk>
</gpx>