<?xml version="1.0" encoding="UTF-8"?>
<gpx xmlns="http://www.topografix.com/GPX/1/1" xmlns:xsi="http://www.w3.org/2001/XMLSchema-instance" xsi:schemaLocation="http://www.topografix.com/GPX/1/1 http://www.topografix.com/GPX/1/1/gpx.xsd" version="1.1" creator="gpx.py -- https://github.com/tkrajina/gpxpy">
  <wpt lat="26.9204689" lon="75.7866071">
    <name>Jaipur Junction</name>
  </wpt>
  <wpt lat="26.8733557" lon="75.2462353">
    <name>Phulera Junction</name>
  </wpt>
  <wpt lat="26.5771098" lon="74.8284514">
    <name>Kishangarh</name>
  </wpt>
  <wpt lat="26.4586717" lon="74.6376237">
    <name>Ajmer Junction</name>
  </wpt>
  <trk>
    <name>Jaipur - Ajmer (Vies regionals)</name>
    <trkseg>
      <trkpt lat="26.9204689" lon="75.7866071">
      </trkpt>
      <trkpt lat="26.9223036" lon="75.7843134">
      </trkpt>
      <trkpt lat="26.9239616" lon="75.7822479">
      </trkpt>
      <trkpt lat="26.9242977" lon="75.7818229">
      </trkpt>
      <trkpt lat="26.9247482" lon="75.7812745">
      </trkpt>
      <trkpt lat="26.9249796" lon="75.7809963">
      </trkpt>
      <trkpt lat="26.9254148" lon="75.7804886">
      </trkpt>
      <trkpt lat="26.9258874" lon="75.7799096">
      </trkpt>
      <trkpt lat="26.9261044" lon="75.7796466">
      </trkpt>
      <trkpt lat="26.9262141" lon="75.7795123">
      </trkpt>
      <trkpt lat="26.9264698" lon="75.7791952">
      </trkpt>
      <trkpt lat="26.9266577" lon="75.7789519">
      </trkpt>
      <trkpt lat="26.9268742" lon="75.7786648">
      </trkpt>
      <trkpt lat="26.9271366" lon="75.7782735">
      </trkpt>
      <trkpt lat="26.9273884" lon="75.777873">
      </trkpt>
      <trkpt lat="26.9278946" lon="75.7770235">
      </trkpt>
      <trkpt lat="26.927986" lon="75.7768744">
      </trkpt>
      <trkpt lat="26.929065" lon="75.7750781">
      </trkpt>
      <trkpt lat="26.9294319" lon="75.7744618">
      </trkpt>
      <trkpt lat="26.9298304" lon="75.7737885">
      </trkpt>
      <trkpt lat="26.9300954" lon="75.7733687">
      </trkpt>
      <trkpt lat="26.930253" lon="75.773112">
      </trkpt>
      <trkpt lat="26.9309586" lon="75.7719372">
      </trkpt>
      <trkpt lat="26.9311853" lon="75.7715474">
      </trkpt>
      <trkpt lat="26.9317707" lon="75.7704714">
      </trkpt>
      <trkpt lat="26.9321003" lon="75.7697635">
      </trkpt>
      <trkpt lat="26.9323336" lon="75.7692189">
      </trkpt>
      <trkpt lat="26.932513" lon="75.7687761">
      </trkpt>
      <trkpt lat="26.9327474" lon="75.7681141">
      </trkpt>
      <trkpt lat="26.9329218" lon="75.7675844">
      </trkpt>
      <trkpt lat="26.9330203" lon="75.7672562">
      </trkpt>
      <trkpt lat="26.9331483" lon="75.7667544">
      </trkpt>
      <trkpt lat="26.933239" lon="75.766392">
      </trkpt>
      <trkpt lat="26.9333311" lon="75.7660498">
      </trkpt>
      <trkpt lat="26.9334829" lon="75.7653136">
      </trkpt>
      <trkpt lat="26.9335939" lon="75.7646433">
      </trkpt>
      <trkpt lat="26.9336854" lon="75.7639437">
      </trkpt>
      <trkpt lat="26.9337621" lon="75.7631141">
      </trkpt>
      <trkpt lat="26.9338339" lon="75.7618121">
      </trkpt>
      <trkpt lat="26.9339156" lon="75.7604422">
      </trkpt>
      <trkpt lat="26.9341099" lon="75.7573436">
      </trkpt>
      <trkpt lat="26.9343319" lon="75.7537249">
      </trkpt>
      <trkpt lat="26.9344217" lon="75.7521573">
      </trkpt>
      <trkpt lat="26.9344974" lon="75.7509598">
      </trkpt>
      <trkpt lat="26.9345355" lon="75.7500948">
      </trkpt>
      <trkpt lat="26.9345413" lon="75.7493062">
      </trkpt>
      <trkpt lat="26.9345205" lon="75.7486173">
      </trkpt>
      <trkpt lat="26.9344801" lon="75.7480177">
      </trkpt>
      <trkpt lat="26.9344259" lon="75.7474674">
      </trkpt>
      <trkpt lat="26.9339652" lon="75.7433818">
      </trkpt>
      <trkpt lat="26.9335115" lon="75.7394296">
      </trkpt>
      <trkpt lat="26.9328315" lon="75.7334379">
      </trkpt>
      <trkpt lat="26.9324782" lon="75.7303624">
      </trkpt>
      <trkpt lat="26.9322496" lon="75.7283643">
      </trkpt>
      <trkpt lat="26.9321146" lon="75.7271988">
      </trkpt>
      <trkpt lat="26.9318444" lon="75.7248122">
      </trkpt>
      <trkpt lat="26.9312028" lon="75.7194046">
      </trkpt>
      <trkpt lat="26.9310842" lon="75.7183694">
      </trkpt>
      <trkpt lat="26.9310743" lon="75.7182833">
      </trkpt>
      <trkpt lat="26.9306267" lon="75.7143765">
      </trkpt>
      <trkpt lat="26.9304115" lon="75.7125982">
      </trkpt>
      <trkpt lat="26.9302441" lon="75.7110585">
      </trkpt>
      <trkpt lat="26.9297825" lon="75.7069815">
      </trkpt>
      <trkpt lat="26.9297531" lon="75.7067219">
      </trkpt>
      <trkpt lat="26.9297412" lon="75.7065651">
      </trkpt>
      <trkpt lat="26.9296901" lon="75.705972">
      </trkpt>
      <trkpt lat="26.9291013" lon="75.7008133">
      </trkpt>
      <trkpt lat="26.9288046" lon="75.6982856">
      </trkpt>
      <trkpt lat="26.9285171" lon="75.6957371">
      </trkpt>
      <trkpt lat="26.9284913" lon="75.6955116">
      </trkpt>
      <trkpt lat="26.9283751" lon="75.6944927">
      </trkpt>
      <trkpt lat="26.928225" lon="75.6931874">
      </trkpt>
      <trkpt lat="26.9280084" lon="75.6913792">
      </trkpt>
      <trkpt lat="26.9279375" lon="75.6906803">
      </trkpt>
      <trkpt lat="26.9273107" lon="75.6852029">
      </trkpt>
      <trkpt lat="26.9266942" lon="75.6798449">
      </trkpt>
      <trkpt lat="26.9263223" lon="75.6765734">
      </trkpt>
      <trkpt lat="26.9261366" lon="75.6749403">
      </trkpt>
      <trkpt lat="26.9255841" lon="75.6701283">
      </trkpt>
      <trkpt lat="26.9249743" lon="75.6648307">
      </trkpt>
      <trkpt lat="26.9243713" lon="75.6595823">
      </trkpt>
      <trkpt lat="26.9242008" lon="75.6580986">
      </trkpt>
      <trkpt lat="26.923903" lon="75.6555071">
      </trkpt>
      <trkpt lat="26.9234532" lon="75.6515584">
      </trkpt>
      <trkpt lat="26.9230287" lon="75.6478366">
      </trkpt>
      <trkpt lat="26.9226009" lon="75.6441694">
      </trkpt>
      <trkpt lat="26.9219708" lon="75.638683">
      </trkpt>
      <trkpt lat="26.9213461" lon="75.6332084">
      </trkpt>
      <trkpt lat="26.9210427" lon="75.6306195">
      </trkpt>
      <trkpt lat="26.9207642" lon="75.628119">
      </trkpt>
      <trkpt lat="26.920329" lon="75.6243804">
      </trkpt>
      <trkpt lat="26.9199764" lon="75.6212843">
      </trkpt>
      <trkpt lat="26.9199686" lon="75.6212154">
      </trkpt>
      <trkpt lat="26.9198994" lon="75.6206075">
      </trkpt>
      <trkpt lat="26.9194732" lon="75.6169404">
      </trkpt>
      <trkpt lat="26.9190571" lon="75.6132865">
      </trkpt>
      <trkpt lat="26.9186882" lon="75.6101046">
      </trkpt>
      <trkpt lat="26.9186124" lon="75.6094512">
      </trkpt>
      <trkpt lat="26.9181592" lon="75.6055234">
      </trkpt>
      <trkpt lat="26.9176185" lon="75.6010061">
      </trkpt>
      <trkpt lat="26.9173721" lon="75.5988038">
      </trkpt>
      <trkpt lat="26.9171148" lon="75.5965498">
      </trkpt>
      <trkpt lat="26.9166026" lon="75.5920611">
      </trkpt>
      <trkpt lat="26.9160931" lon="75.5876914">
      </trkpt>
      <trkpt lat="26.915337" lon="75.581104">
      </trkpt>
      <trkpt lat="26.9145779" lon="75.57453">
      </trkpt>
      <trkpt lat="26.9138185" lon="75.5679973">
      </trkpt>
      <trkpt lat="26.9131244" lon="75.5619599">
      </trkpt>
      <trkpt lat="26.9130585" lon="75.5613871">
      </trkpt>
      <trkpt lat="26.912308" lon="75.5548277">
      </trkpt>
      <trkpt lat="26.9119149" lon="75.5514237">
      </trkpt>
      <trkpt lat="26.9119009" lon="75.5513029">
      </trkpt>
      <trkpt lat="26.9116052" lon="75.5487492">
      </trkpt>
      <trkpt lat="26.9112859" lon="75.5460025">
      </trkpt>
      <trkpt lat="26.9109786" lon="75.5433173">
      </trkpt>
      <trkpt lat="26.9099517" lon="75.5344601">
      </trkpt>
      <trkpt lat="26.9089493" lon="75.5256535">
      </trkpt>
      <trkpt lat="26.9084625" lon="75.5215716">
      </trkpt>
      <trkpt lat="26.9065943" lon="75.5054335">
      </trkpt>
      <trkpt lat="26.9065469" lon="75.5050246">
      </trkpt>
      <trkpt lat="26.9063289" lon="75.5031432">
      </trkpt>
      <trkpt lat="26.9062178" lon="75.5021846">
      </trkpt>
      <trkpt lat="26.9058533" lon="75.4989677">
      </trkpt>
      <trkpt lat="26.9053177" lon="75.4944163">
      </trkpt>
      <trkpt lat="26.905067" lon="75.4922853">
      </trkpt>
      <trkpt lat="26.9030611" lon="75.4750669">
      </trkpt>
      <trkpt lat="26.9020448" lon="75.4664513">
      </trkpt>
      <trkpt lat="26.9015635" lon="75.4621812">
      </trkpt>
      <trkpt lat="26.9010775" lon="75.4579553">
      </trkpt>
      <trkpt lat="26.9008888" lon="75.4564151">
      </trkpt>
      <trkpt lat="26.9005785" lon="75.4536829">
      </trkpt>
      <trkpt lat="26.9001753" lon="75.450265">
      </trkpt>
      <trkpt lat="26.9000401" lon="75.4494959">
      </trkpt>
      <trkpt lat="26.8999123" lon="75.4488812">
      </trkpt>
      <trkpt lat="26.8997378" lon="75.4481094">
      </trkpt>
      <trkpt lat="26.899551" lon="75.4473707">
      </trkpt>
      <trkpt lat="26.8993371" lon="75.4465355">
      </trkpt>
      <trkpt lat="26.8992486" lon="75.4461469">
      </trkpt>
      <trkpt lat="26.8991675" lon="75.4456728">
      </trkpt>
      <trkpt lat="26.8990864" lon="75.4449092">
      </trkpt>
      <trkpt lat="26.8990544" lon="75.4444351">
      </trkpt>
      <trkpt lat="26.899047" lon="75.4439225">
      </trkpt>
      <trkpt lat="26.899079" lon="75.4432775">
      </trkpt>
      <trkpt lat="26.8991601" lon="75.4425222">
      </trkpt>
      <trkpt lat="26.8993396" lon="75.4416319">
      </trkpt>
      <trkpt lat="26.8995731" lon="75.4408187">
      </trkpt>
      <trkpt lat="26.8998681" lon="75.4398816">
      </trkpt>
      <trkpt lat="26.9001385" lon="75.4390381">
      </trkpt>
      <trkpt lat="26.9006153" lon="75.4375055">
      </trkpt>
      <trkpt lat="26.9008513" lon="75.4366951">
      </trkpt>
      <trkpt lat="26.9010209" lon="75.4359702">
      </trkpt>
      <trkpt lat="26.9011635" lon="75.4351019">
      </trkpt>
      <trkpt lat="26.9012495" lon="75.4344652">
      </trkpt>
      <trkpt lat="26.901311" lon="75.4336162">
      </trkpt>
      <trkpt lat="26.901338" lon="75.432872">
      </trkpt>
      <trkpt lat="26.9013282" lon="75.4320285">
      </trkpt>
      <trkpt lat="26.9012643" lon="75.4313009">
      </trkpt>
      <trkpt lat="26.9010799" lon="75.4299668">
      </trkpt>
      <trkpt lat="26.9009937" lon="75.4293948">
      </trkpt>
      <trkpt lat="26.9009529" lon="75.4291244">
      </trkpt>
      <trkpt lat="26.9009054" lon="75.4288091">
      </trkpt>
      <trkpt lat="26.9006817" lon="75.4274336">
      </trkpt>
      <trkpt lat="26.9003671" lon="75.425358">
      </trkpt>
      <trkpt lat="26.9000967" lon="75.423525">
      </trkpt>
      <trkpt lat="26.8998214" lon="75.4217499">
      </trkpt>
      <trkpt lat="26.8997043" lon="75.4209471">
      </trkpt>
      <trkpt lat="26.8995927" lon="75.4201815">
      </trkpt>
      <trkpt lat="26.899374" lon="75.418773">
      </trkpt>
      <trkpt lat="26.899314" lon="75.4183601">
      </trkpt>
      <trkpt lat="26.8991085" lon="75.4169455">
      </trkpt>
      <trkpt lat="26.8990052" lon="75.4160028">
      </trkpt>
      <trkpt lat="26.8989217" lon="75.4150739">
      </trkpt>
      <trkpt lat="26.8988135" lon="75.4141119">
      </trkpt>
      <trkpt lat="26.89872" lon="75.4132166">
      </trkpt>
      <trkpt lat="26.8981497" lon="75.4093521">
      </trkpt>
      <trkpt lat="26.8978596" lon="75.4074392">
      </trkpt>
      <trkpt lat="26.8975745" lon="75.4055814">
      </trkpt>
      <trkpt lat="26.8974421" lon="75.4047013">
      </trkpt>
      <trkpt lat="26.89535" lon="75.3907926">
      </trkpt>
      <trkpt lat="26.8935819" lon="75.3790847">
      </trkpt>
      <trkpt lat="26.8918291" lon="75.3674947">
      </trkpt>
      <trkpt lat="26.891015" lon="75.3622815">
      </trkpt>
      <trkpt lat="26.886632" lon="75.3333518">
      </trkpt>
      <trkpt lat="26.8865847" lon="75.3330442">
      </trkpt>
      <trkpt lat="26.8865029" lon="75.3325034">
      </trkpt>
      <trkpt lat="26.8851516" lon="75.3235658">
      </trkpt>
      <trkpt lat="26.8848781" lon="75.3218321">
      </trkpt>
      <trkpt lat="26.8848471" lon="75.3216098">
      </trkpt>
      <trkpt lat="26.8760814" lon="75.2641211">
      </trkpt>
      <trkpt lat="26.8759209" lon="75.2630542">
      </trkpt>
      <trkpt lat="26.8752387" lon="75.2585015">
      </trkpt>
      <trkpt lat="26.8748011" lon="75.2556734">
      </trkpt>
      <trkpt lat="26.8746247" lon="75.2545229">
      </trkpt>
      <trkpt lat="26.8742997" lon="75.2524027">
      </trkpt>
      <trkpt lat="26.8742077" lon="75.2518279">
      </trkpt>
      <trkpt lat="26.8733557" lon="75.2462353">
      </trkpt>
      <trkpt lat="26.8727016" lon="75.2419413">
      </trkpt>
      <trkpt lat="26.8724692" lon="75.240464">
      </trkpt>
      <trkpt lat="26.8723676" lon="75.2399763">
      </trkpt>
      <trkpt lat="26.8722681" lon="75.2396737">
      </trkpt>
      <trkpt lat="26.8721574" lon="75.2393693">
      </trkpt>
      <trkpt lat="26.872017" lon="75.2390663">
      </trkpt>
      <trkpt lat="26.8718928" lon="75.2388384">
      </trkpt>
      <trkpt lat="26.8717531" lon="75.2386022">
      </trkpt>
      <trkpt lat="26.8715682" lon="75.2383413">
      </trkpt>
      <trkpt lat="26.8713279" lon="75.2380623">
      </trkpt>
      <trkpt lat="26.8709971" lon="75.2377317">
      </trkpt>
      <trkpt lat="26.870702" lon="75.2374913">
      </trkpt>
      <trkpt lat="26.8701792" lon="75.2371694">
      </trkpt>
      <trkpt lat="26.8686434" lon="75.2363368">
      </trkpt>
      <trkpt lat="26.8676027" lon="75.2357654">
      </trkpt>
      <trkpt lat="26.8614312" lon="75.2323949">
      </trkpt>
      <trkpt lat="26.8457024" lon="75.223826">
      </trkpt>
      <trkpt lat="26.8373693" lon="75.2193456">
      </trkpt>
      <trkpt lat="26.8370015" lon="75.2191479">
      </trkpt>
      <trkpt lat="26.8290711" lon="75.2148105">
      </trkpt>
      <trkpt lat="26.828938" lon="75.2147383">
      </trkpt>
      <trkpt lat="26.827589" lon="75.2140071">
      </trkpt>
      <trkpt lat="26.8264986" lon="75.2133622">
      </trkpt>
      <trkpt lat="26.8056327" lon="75.201965">
      </trkpt>
      <trkpt lat="26.8008005" lon="75.1993359">
      </trkpt>
      <trkpt lat="26.8003763" lon="75.199071">
      </trkpt>
      <trkpt lat="26.8001773" lon="75.1989292">
      </trkpt>
      <trkpt lat="26.7998234" lon="75.1986483">
      </trkpt>
      <trkpt lat="26.7994072" lon="75.198267">
      </trkpt>
      <trkpt lat="26.7990206" lon="75.1978154">
      </trkpt>
      <trkpt lat="26.7986647" lon="75.1972854">
      </trkpt>
      <trkpt lat="26.7984433" lon="75.1969108">
      </trkpt>
      <trkpt lat="26.7977645" lon="75.1957085">
      </trkpt>
      <trkpt lat="26.7934869" lon="75.1880833">
      </trkpt>
      <trkpt lat="26.7930778" lon="75.1873398">
      </trkpt>
      <trkpt lat="26.7912634" lon="75.1838982">
      </trkpt>
      <trkpt lat="26.7893674" lon="75.1804932">
      </trkpt>
      <trkpt lat="26.7816018" lon="75.1666193">
      </trkpt>
      <trkpt lat="26.7815258" lon="75.166478">
      </trkpt>
      <trkpt lat="26.7720121" lon="75.1495007">
      </trkpt>
      <trkpt lat="26.7712601" lon="75.1482865">
      </trkpt>
      <trkpt lat="26.7703898" lon="75.1470072">
      </trkpt>
      <trkpt lat="26.7698053" lon="75.1461776">
      </trkpt>
      <trkpt lat="26.7691364" lon="75.1453264">
      </trkpt>
      <trkpt lat="26.7682964" lon="75.1443084">
      </trkpt>
      <trkpt lat="26.7674889" lon="75.1434103">
      </trkpt>
      <trkpt lat="26.766238" lon="75.1420983">
      </trkpt>
      <trkpt lat="26.7658071" lon="75.1416312">
      </trkpt>
      <trkpt lat="26.7634382" lon="75.1391056">
      </trkpt>
      <trkpt lat="26.7627722" lon="75.138334">
      </trkpt>
      <trkpt lat="26.762213" lon="75.1376016">
      </trkpt>
      <trkpt lat="26.7617438" lon="75.1369144">
      </trkpt>
      <trkpt lat="26.7613591" lon="75.136296">
      </trkpt>
      <trkpt lat="26.7607393" lon="75.1351742">
      </trkpt>
      <trkpt lat="26.7602053" lon="75.1341416">
      </trkpt>
      <trkpt lat="26.7532411" lon="75.1209483">
      </trkpt>
      <trkpt lat="26.748902" lon="75.1127018">
      </trkpt>
      <trkpt lat="26.74439" lon="75.1041589">
      </trkpt>
      <trkpt lat="26.7389593" lon="75.093816">
      </trkpt>
      <trkpt lat="26.7348194" lon="75.0859876">
      </trkpt>
      <trkpt lat="26.7322253" lon="75.0811433">
      </trkpt>
      <trkpt lat="26.7269566" lon="75.0711843">
      </trkpt>
      <trkpt lat="26.7062821" lon="75.0320999">
      </trkpt>
      <trkpt lat="26.6919153" lon="75.0049379">
      </trkpt>
      <trkpt lat="26.67296" lon="74.9691964">
      </trkpt>
      <trkpt lat="26.6579107" lon="74.9408278">
      </trkpt>
      <trkpt lat="26.6572865" lon="74.9398808">
      </trkpt>
      <trkpt lat="26.6554657" lon="74.9373935">
      </trkpt>
      <trkpt lat="26.6507106" lon="74.9308732">
      </trkpt>
      <trkpt lat="26.6459084" lon="74.9245367">
      </trkpt>
      <trkpt lat="26.6421528" lon="74.9194012">
      </trkpt>
      <trkpt lat="26.6420013" lon="74.919194">
      </trkpt>
      <trkpt lat="26.6250274" lon="74.8959854">
      </trkpt>
      <trkpt lat="26.6192854" lon="74.8881463">
      </trkpt>
      <trkpt lat="26.6106936" lon="74.8764368">
      </trkpt>
      <trkpt lat="26.6101314" lon="74.875695">
      </trkpt>
      <trkpt lat="26.6098387" lon="74.8753573">
      </trkpt>
      <trkpt lat="26.609564" lon="74.8750888">
      </trkpt>
      <trkpt lat="26.6092775" lon="74.8748142">
      </trkpt>
      <trkpt lat="26.6089478" lon="74.8745351">
      </trkpt>
      <trkpt lat="26.6087044" lon="74.8743381">
      </trkpt>
      <trkpt lat="26.608439" lon="74.8741551">
      </trkpt>
      <trkpt lat="26.60799" lon="74.8738647">
      </trkpt>
      <trkpt lat="26.6031898" lon="74.8708085">
      </trkpt>
      <trkpt lat="26.597533" lon="74.8672881">
      </trkpt>
      <trkpt lat="26.5974307" lon="74.8672242">
      </trkpt>
      <trkpt lat="26.595349" lon="74.8659158">
      </trkpt>
      <trkpt lat="26.5952999" lon="74.8658821">
      </trkpt>
      <trkpt lat="26.5948562" lon="74.8655775">
      </trkpt>
      <trkpt lat="26.5941394" lon="74.8649823">
      </trkpt>
      <trkpt lat="26.5939153" lon="74.8647741">
      </trkpt>
      <trkpt lat="26.5936178" lon="74.8644533">
      </trkpt>
      <trkpt lat="26.5933551" lon="74.8641377">
      </trkpt>
      <trkpt lat="26.5930866" lon="74.8637744">
      </trkpt>
      <trkpt lat="26.5918046" lon="74.8619545">
      </trkpt>
      <trkpt lat="26.591509" lon="74.8615287">
      </trkpt>
      <trkpt lat="26.5912002" lon="74.8610649">
      </trkpt>
      <trkpt lat="26.5907981" lon="74.8603336">
      </trkpt>
      <trkpt lat="26.590633" lon="74.8600107">
      </trkpt>
      <trkpt lat="26.5904737" lon="74.8596481">
      </trkpt>
      <trkpt lat="26.5902717" lon="74.8591163">
      </trkpt>
      <trkpt lat="26.5901094" lon="74.8586015">
      </trkpt>
      <trkpt lat="26.5899901" lon="74.8581117">
      </trkpt>
      <trkpt lat="26.5898775" lon="74.8575877">
      </trkpt>
      <trkpt lat="26.5897736" lon="74.8570095">
      </trkpt>
      <trkpt lat="26.5892395" lon="74.8536928">
      </trkpt>
      <trkpt lat="26.5890806" lon="74.852931">
      </trkpt>
      <trkpt lat="26.5889095" lon="74.8522891">
      </trkpt>
      <trkpt lat="26.588739" lon="74.8517799">
      </trkpt>
      <trkpt lat="26.5885692" lon="74.8513453">
      </trkpt>
      <trkpt lat="26.5883497" lon="74.8508526">
      </trkpt>
      <trkpt lat="26.5881297" lon="74.8504021">
      </trkpt>
      <trkpt lat="26.5871436" lon="74.8484535">
      </trkpt>
      <trkpt lat="26.5801066" lon="74.8347064">
      </trkpt>
      <trkpt lat="26.5797529" lon="74.8339614">
      </trkpt>
      <trkpt lat="26.5785188" lon="74.8312309">
      </trkpt>
      <trkpt lat="26.5781733" lon="74.8305202">
      </trkpt>
      <trkpt lat="26.5772202" lon="74.8286662">
      </trkpt>
      <trkpt lat="26.5771098" lon="74.8284514">
      </trkpt>
      <trkpt lat="26.5729547" lon="74.8203108">
      </trkpt>
      <trkpt lat="26.57285" lon="74.8201057">
      </trkpt>
      <trkpt lat="26.5712356" lon="74.816944">
      </trkpt>
      <trkpt lat="26.5708941" lon="74.816287">
      </trkpt>
      <trkpt lat="26.5705944" lon="74.8157834">
      </trkpt>
      <trkpt lat="26.5702523" lon="74.8152463">
      </trkpt>
      <trkpt lat="26.5698784" lon="74.8146971">
      </trkpt>
      <trkpt lat="26.5695443" lon="74.8142462">
      </trkpt>
      <trkpt lat="26.5691755" lon="74.8137641">
      </trkpt>
      <trkpt lat="26.5606571" lon="74.8025026">
      </trkpt>
      <trkpt lat="26.5595635" lon="74.8010569">
      </trkpt>
      <trkpt lat="26.5538079" lon="74.7934171">
      </trkpt>
      <trkpt lat="26.5463465" lon="74.7835796">
      </trkpt>
      <trkpt lat="26.5456939" lon="74.7827193">
      </trkpt>
      <trkpt lat="26.5403696" lon="74.7756768">
      </trkpt>
      <trkpt lat="26.5397477" lon="74.7748566">
      </trkpt>
      <trkpt lat="26.5331848" lon="74.7662013">
      </trkpt>
      <trkpt lat="26.5329925" lon="74.7659478">
      </trkpt>
      <trkpt lat="26.5269804" lon="74.7580194">
      </trkpt>
      <trkpt lat="26.5224772" lon="74.7520672">
      </trkpt>
      <trkpt lat="26.522386" lon="74.7519461">
      </trkpt>
      <trkpt lat="26.5207541" lon="74.7497515">
      </trkpt>
      <trkpt lat="26.5158872" lon="74.7433431">
      </trkpt>
      <trkpt lat="26.5135476" lon="74.7402757">
      </trkpt>
      <trkpt lat="26.5126926" lon="74.7391208">
      </trkpt>
      <trkpt lat="26.5119447" lon="74.7380625">
      </trkpt>
      <trkpt lat="26.5115649" lon="74.7375251">
      </trkpt>
      <trkpt lat="26.5083248" lon="74.733228">
      </trkpt>
      <trkpt lat="26.507862" lon="74.7326343">
      </trkpt>
      <trkpt lat="26.5073397" lon="74.731989">
      </trkpt>
      <trkpt lat="26.5065573" lon="74.7311364">
      </trkpt>
      <trkpt lat="26.5059751" lon="74.7304995">
      </trkpt>
      <trkpt lat="26.5058138" lon="74.7303346">
      </trkpt>
      <trkpt lat="26.5052113" lon="74.729664">
      </trkpt>
      <trkpt lat="26.5028285" lon="74.7269306">
      </trkpt>
      <trkpt lat="26.5005735" lon="74.7242953">
      </trkpt>
      <trkpt lat="26.4994001" lon="74.7228933">
      </trkpt>
      <trkpt lat="26.4992648" lon="74.7227317">
      </trkpt>
      <trkpt lat="26.4973153" lon="74.7204101">
      </trkpt>
      <trkpt lat="26.4942974" lon="74.7169206">
      </trkpt>
      <trkpt lat="26.4935556" lon="74.7160462">
      </trkpt>
      <trkpt lat="26.4928192" lon="74.715251">
      </trkpt>
      <trkpt lat="26.4916427" lon="74.7140843">
      </trkpt>
      <trkpt lat="26.4731236" lon="74.6956314">
      </trkpt>
      <trkpt lat="26.4711371" lon="74.6936444">
      </trkpt>
      <trkpt lat="26.4709655" lon="74.6934749">
      </trkpt>
      <trkpt lat="26.4703816" lon="74.692894">
      </trkpt>
      <trkpt lat="26.4671418" lon="74.6896976">
      </trkpt>
      <trkpt lat="26.4652823" lon="74.6878615">
      </trkpt>
      <trkpt lat="26.4629243" lon="74.6854877">
      </trkpt>
      <trkpt lat="26.4596795" lon="74.6821552">
      </trkpt>
      <trkpt lat="26.459065" lon="74.6815241">
      </trkpt>
      <trkpt lat="26.4583608" lon="74.6808355">
      </trkpt>
      <trkpt lat="26.4572634" lon="74.6797277">
      </trkpt>
      <trkpt lat="26.4571827" lon="74.6796486">
      </trkpt>
      <trkpt lat="26.4563666" lon="74.6788485">
      </trkpt>
      <trkpt lat="26.4551571" lon="74.6776166">
      </trkpt>
      <trkpt lat="26.4544101" lon="74.6769393">
      </trkpt>
      <trkpt lat="26.4540548" lon="74.6765621">
      </trkpt>
      <trkpt lat="26.453825" lon="74.6762845">
      </trkpt>
      <trkpt lat="26.4535726" lon="74.6759581">
      </trkpt>
      <trkpt lat="26.4533012" lon="74.6755677">
      </trkpt>
      <trkpt lat="26.4530572" lon="74.6751752">
      </trkpt>
      <trkpt lat="26.4528737" lon="74.6748431">
      </trkpt>
      <trkpt lat="26.452438" lon="74.6739227">
      </trkpt>
      <trkpt lat="26.4514643" lon="74.671547">
      </trkpt>
      <trkpt lat="26.4504039" lon="74.6690262">
      </trkpt>
      <trkpt lat="26.4498002" lon="74.6675343">
      </trkpt>
      <trkpt lat="26.4494729" lon="74.6667502">
      </trkpt>
      <trkpt lat="26.4492089" lon="74.666125">
      </trkpt>
      <trkpt lat="26.4489752" lon="74.6655718">
      </trkpt>
      <trkpt lat="26.4487849" lon="74.665004">
      </trkpt>
      <trkpt lat="26.448635" lon="74.6643603">
      </trkpt>
      <trkpt lat="26.4485583" lon="74.6638992">
      </trkpt>
      <trkpt lat="26.448494" lon="74.6633765">
      </trkpt>
      <trkpt lat="26.4484824" lon="74.6628414">
      </trkpt>
      <trkpt lat="26.4484886" lon="74.6623775">
      </trkpt>
      <trkpt lat="26.4486495" lon="74.6605853">
      </trkpt>
      <trkpt lat="26.4486766" lon="74.6603141">
      </trkpt>
      <trkpt lat="26.448839" lon="74.6587511">
      </trkpt>
      <trkpt lat="26.4489308" lon="74.657844">
      </trkpt>
      <trkpt lat="26.4490263" lon="74.6573176">
      </trkpt>
      <trkpt lat="26.4491572" lon="74.6567842">
      </trkpt>
      <trkpt lat="26.449319" lon="74.6563313">
      </trkpt>
      <trkpt lat="26.4496538" lon="74.6556243">
      </trkpt>
      <trkpt lat="26.4498913" lon="74.6552295">
      </trkpt>
      <trkpt lat="26.4500977" lon="74.6549584">
      </trkpt>
      <trkpt lat="26.450354" lon="74.6546385">
      </trkpt>
      <trkpt lat="26.4505844" lon="74.6544003">
      </trkpt>
      <trkpt lat="26.4510713" lon="74.6539566">
      </trkpt>
      <trkpt lat="26.4516878" lon="74.6535381">
      </trkpt>
      <trkpt lat="26.4542801" lon="74.6521634">
      </trkpt>
      <trkpt lat="26.4559492" lon="74.65125">
      </trkpt>
      <trkpt lat="26.4561797" lon="74.6511306">
      </trkpt>
      <trkpt lat="26.457967" lon="74.6501923">
      </trkpt>
      <trkpt lat="26.4587584" lon="74.6497792">
      </trkpt>
      <trkpt lat="26.459104" lon="74.649548">
      </trkpt>
      <trkpt lat="26.459318" lon="74.6493753">
      </trkpt>
      <trkpt lat="26.459487" lon="74.6492285">
      </trkpt>
      <trkpt lat="26.4599916" lon="74.648646">
      </trkpt>
      <trkpt lat="26.4602622" lon="74.648242">
      </trkpt>
      <trkpt lat="26.460524" lon="74.647767">
      </trkpt>
      <trkpt lat="26.4612602" lon="74.6462699">
      </trkpt>
      <trkpt lat="26.4618938" lon="74.6448315">
      </trkpt>
      <trkpt lat="26.4619642" lon="74.6446285">
      </trkpt>
      <trkpt lat="26.4620575" lon="74.6441951">
      </trkpt>
      <trkpt lat="26.4621055" lon="74.6438907">
      </trkpt>
      <trkpt lat="26.4621524" lon="74.6435943">
      </trkpt>
      <trkpt lat="26.4621883" lon="74.6432038">
      </trkpt>
      <trkpt lat="26.462234" lon="74.6429305">
      </trkpt>
      <trkpt lat="26.4623249" lon="74.6424275">
      </trkpt>
      <trkpt lat="26.4623408" lon="74.642339">
      </trkpt>
      <trkpt lat="26.4623853" lon="74.6416551">
      </trkpt>
      <trkpt lat="26.4623985" lon="74.6412984">
      </trkpt>
      <trkpt lat="26.4623961" lon="74.640947">
      </trkpt>
      <trkpt lat="26.4623781" lon="74.6406198">
      </trkpt>
      <trkpt lat="26.462336" lon="74.6403556">
      </trkpt>
      <trkpt lat="26.46227" lon="74.640082">
      </trkpt>
      <trkpt lat="26.4621764" lon="74.6397842">
      </trkpt>
      <trkpt lat="26.4621307" lon="74.6396501">
      </trkpt>
      <trkpt lat="26.4620023" lon="74.639343">
      </trkpt>
      <trkpt lat="26.4619086" lon="74.6391459">
      </trkpt>
      <trkpt lat="26.4617568" lon="74.6388763">
      </trkpt>
      <trkpt lat="26.4616205" lon="74.6386805">
      </trkpt>
      <trkpt lat="26.4615004" lon="74.6385343">
      </trkpt>
      <trkpt lat="26.4613263" lon="74.6383412">
      </trkpt>
      <trkpt lat="26.4611583" lon="74.6381696">
      </trkpt>
      <trkpt lat="26.4609842" lon="74.6380167">
      </trkpt>
      <trkpt lat="26.4608125" lon="74.6378785">
      </trkpt>
      <trkpt lat="26.46066" lon="74.6377847">
      </trkpt>
      <trkpt lat="26.4602986" lon="74.6375862">
      </trkpt>
      <trkpt lat="26.4601053" lon="74.6374983">
      </trkpt>
      <trkpt lat="26.4599408" lon="74.637444">
      </trkpt>
      <trkpt lat="26.4598148" lon="74.6374118">
      </trkpt>
      <trkpt lat="26.4596972" lon="74.6374024">
      </trkpt>
      <trkpt lat="26.4595351" lon="74.6373997">
      </trkpt>
      <trkpt lat="26.4593741" lon="74.6374105">
      </trkpt>
      <trkpt lat="26.4592468" lon="74.6374333">
      </trkpt>
      <trkpt lat="26.4586717" lon="74.6376237">
      </trkpt>
    </trkseg>
  </trk>
</gpx>