<?xml version="1.0" encoding="UTF-8"?>
<gpx xmlns="http://www.topografix.com/GPX/1/1" xmlns:xsi="http://www.w3.org/2001/XMLSchema-instance" xsi:schemaLocation="http://www.topografix.com/GPX/1/1 http://www.topografix.com/GPX/1/1/gpx.xsd" version="1.1" creator="gpx.py -- https://github.com/tkrajina/gpxpy">
  <wpt lat="26.9139058" lon="70.9245803">
    <name>Jaisalmer</name>
  </wpt>
  <wpt lat="27.0069873" lon="71.9304651">
    <name>Ramdevra</name>
  </wpt>
  <wpt lat="27.1265578" lon="72.3641922">
    <name>Phalodi Junction</name>
  </wpt>
  <wpt lat="26.2855744" lon="73.0244158">
    <name>Jodhpur</name>
  </wpt>
  <trk>
    <name>Jaisalmer - Jodhpur (Vies regionals)</name>
    <trkseg>
      <trkpt lat="26.9139058" lon="70.9245803">
      </trkpt>
      <trkpt lat="26.9177516" lon="70.9303369">
      </trkpt>
      <trkpt lat="26.9180086" lon="70.9306983">
      </trkpt>
      <trkpt lat="26.9181028" lon="70.9308331">
      </trkpt>
      <trkpt lat="26.9185708" lon="70.9315602">
      </trkpt>
      <trkpt lat="26.919004" lon="70.9320903">
      </trkpt>
      <trkpt lat="26.9194151" lon="70.9325284">
      </trkpt>
      <trkpt lat="26.9198078" lon="70.9329123">
      </trkpt>
      <trkpt lat="26.9201208" lon="70.9331685">
      </trkpt>
      <trkpt lat="26.9210062" lon="70.9337934">
      </trkpt>
      <trkpt lat="26.9217155" lon="70.9342749">
      </trkpt>
      <trkpt lat="26.9234582" lon="70.9354657">
      </trkpt>
      <trkpt lat="26.92456" lon="70.9361655">
      </trkpt>
      <trkpt lat="26.9248619" lon="70.9363807">
      </trkpt>
      <trkpt lat="26.9270279" lon="70.9378686">
      </trkpt>
      <trkpt lat="26.9311279" lon="70.9406843">
      </trkpt>
      <trkpt lat="26.934813" lon="70.9432448">
      </trkpt>
      <trkpt lat="26.9377111" lon="70.9452586">
      </trkpt>
      <trkpt lat="26.9424996" lon="70.948448">
      </trkpt>
      <trkpt lat="26.9463372" lon="70.9511016">
      </trkpt>
      <trkpt lat="26.9506157" lon="70.9540057">
      </trkpt>
      <trkpt lat="26.9545852" lon="70.956746">
      </trkpt>
      <trkpt lat="26.95818" lon="70.9591867">
      </trkpt>
      <trkpt lat="26.959043" lon="70.9599005">
      </trkpt>
      <trkpt lat="26.9597405" lon="70.9606225">
      </trkpt>
      <trkpt lat="26.9603124" lon="70.9613417">
      </trkpt>
      <trkpt lat="26.9632891" lon="70.9657319">
      </trkpt>
      <trkpt lat="26.9662234" lon="70.9701164">
      </trkpt>
      <trkpt lat="26.9696491" lon="70.9751042">
      </trkpt>
      <trkpt lat="26.9733165" lon="70.9805093">
      </trkpt>
      <trkpt lat="26.9769909" lon="70.9858011">
      </trkpt>
      <trkpt lat="26.9817687" lon="70.9929429">
      </trkpt>
      <trkpt lat="26.9830445" lon="70.9947919">
      </trkpt>
      <trkpt lat="26.9839778" lon="70.996242">
      </trkpt>
      <trkpt lat="26.9843782" lon="70.9972019">
      </trkpt>
      <trkpt lat="26.9847318" lon="70.9982683">
      </trkpt>
      <trkpt lat="26.9849421" lon="70.9994518">
      </trkpt>
      <trkpt lat="26.9858542" lon="71.0046322">
      </trkpt>
      <trkpt lat="26.9875307" lon="71.0137557">
      </trkpt>
      <trkpt lat="26.9887996" lon="71.020648">
      </trkpt>
      <trkpt lat="26.9900685" lon="71.0276817">
      </trkpt>
      <trkpt lat="26.9917394" lon="71.0370754">
      </trkpt>
      <trkpt lat="26.9928648" lon="71.0429695">
      </trkpt>
      <trkpt lat="26.9931077" lon="71.0444029">
      </trkpt>
      <trkpt lat="26.99322" lon="71.0453644">
      </trkpt>
      <trkpt lat="26.9932957" lon="71.0465604">
      </trkpt>
      <trkpt lat="26.9932615" lon="71.05164">
      </trkpt>
      <trkpt lat="26.9932606" lon="71.0517405">
      </trkpt>
      <trkpt lat="26.9932289" lon="71.0550261">
      </trkpt>
      <trkpt lat="26.9932168" lon="71.0564924">
      </trkpt>
      <trkpt lat="26.9931227" lon="71.0679123">
      </trkpt>
      <trkpt lat="26.9931209" lon="71.0680481">
      </trkpt>
      <trkpt lat="26.9930749" lon="71.0728068">
      </trkpt>
      <trkpt lat="26.9930743" lon="71.0734615">
      </trkpt>
      <trkpt lat="26.993074" lon="71.0738164">
      </trkpt>
      <trkpt lat="26.992981" lon="71.0825192">
      </trkpt>
      <trkpt lat="26.9929782" lon="71.0835492">
      </trkpt>
      <trkpt lat="26.9929757" lon="71.0844417">
      </trkpt>
      <trkpt lat="26.9929561" lon="71.0873603">
      </trkpt>
      <trkpt lat="26.9927753" lon="71.1072539">
      </trkpt>
      <trkpt lat="26.9927753" lon="71.1103869">
      </trkpt>
      <trkpt lat="26.9928588" lon="71.1112546">
      </trkpt>
      <trkpt lat="26.9931618" lon="71.112685">
      </trkpt>
      <trkpt lat="26.9944574" lon="71.1186014">
      </trkpt>
      <trkpt lat="26.9956711" lon="71.1240829">
      </trkpt>
      <trkpt lat="26.9958166" lon="71.1249888">
      </trkpt>
      <trkpt lat="26.9958891" lon="71.1257497">
      </trkpt>
      <trkpt lat="26.9958661" lon="71.1265105">
      </trkpt>
      <trkpt lat="26.9957748" lon="71.1274573">
      </trkpt>
      <trkpt lat="26.9952824" lon="71.1315456">
      </trkpt>
      <trkpt lat="26.995213" lon="71.1322862">
      </trkpt>
      <trkpt lat="26.9951819" lon="71.133177">
      </trkpt>
      <trkpt lat="26.9952974" lon="71.134015">
      </trkpt>
      <trkpt lat="26.9955084" lon="71.1349924">
      </trkpt>
      <trkpt lat="26.9962556" lon="71.138535">
      </trkpt>
      <trkpt lat="26.9963559" lon="71.1393347">
      </trkpt>
      <trkpt lat="26.9963129" lon="71.1401774">
      </trkpt>
      <trkpt lat="26.9961929" lon="71.1409344">
      </trkpt>
      <trkpt lat="26.9958722" lon="71.1424103">
      </trkpt>
      <trkpt lat="26.9953227" lon="71.1450178">
      </trkpt>
      <trkpt lat="26.9952964" lon="71.1451468">
      </trkpt>
      <trkpt lat="26.9939108" lon="71.1517548">
      </trkpt>
      <trkpt lat="26.9936822" lon="71.1530428">
      </trkpt>
      <trkpt lat="26.9935205" lon="71.1541162">
      </trkpt>
      <trkpt lat="26.9934457" lon="71.1554477">
      </trkpt>
      <trkpt lat="26.9935254" lon="71.1674314">
      </trkpt>
      <trkpt lat="26.9935785" lon="71.1758696">
      </trkpt>
      <trkpt lat="26.9935753" lon="71.1770303">
      </trkpt>
      <trkpt lat="26.9937059" lon="71.1781909">
      </trkpt>
      <trkpt lat="26.9941775" lon="71.1795441">
      </trkpt>
      <trkpt lat="26.9947637" lon="71.1805326">
      </trkpt>
      <trkpt lat="26.9969747" lon="71.1838784">
      </trkpt>
      <trkpt lat="26.9980385" lon="71.1857008">
      </trkpt>
      <trkpt lat="26.9984546" lon="71.1867643">
      </trkpt>
      <trkpt lat="26.9987368" lon="71.187699">
      </trkpt>
      <trkpt lat="26.9988807" lon="71.1887531">
      </trkpt>
      <trkpt lat="26.9989301" lon="71.1897408">
      </trkpt>
      <trkpt lat="26.9988934" lon="71.1907285">
      </trkpt>
      <trkpt lat="26.9987245" lon="71.1918027">
      </trkpt>
      <trkpt lat="26.9984946" lon="71.1926169">
      </trkpt>
      <trkpt lat="26.99815" lon="71.1936456">
      </trkpt>
      <trkpt lat="26.9975181" lon="71.1948663">
      </trkpt>
      <trkpt lat="26.9968471" lon="71.1960631">
      </trkpt>
      <trkpt lat="26.9947466" lon="71.1998721">
      </trkpt>
      <trkpt lat="26.9943634" lon="71.2007681">
      </trkpt>
      <trkpt lat="26.994095" lon="71.2015997">
      </trkpt>
      <trkpt lat="26.9939022" lon="71.2024583">
      </trkpt>
      <trkpt lat="26.9938035" lon="71.2031884">
      </trkpt>
      <trkpt lat="26.993759" lon="71.2040907">
      </trkpt>
      <trkpt lat="26.9938503" lon="71.21621">
      </trkpt>
      <trkpt lat="26.9938907" lon="71.2286099">
      </trkpt>
      <trkpt lat="26.9939575" lon="71.2399606">
      </trkpt>
      <trkpt lat="26.9940616" lon="71.2542767">
      </trkpt>
      <trkpt lat="26.9941168" lon="71.2674827">
      </trkpt>
      <trkpt lat="26.994172" lon="71.2711232">
      </trkpt>
      <trkpt lat="26.9942712" lon="71.2727236">
      </trkpt>
      <trkpt lat="26.9944452" lon="71.274028">
      </trkpt>
      <trkpt lat="26.9947529" lon="71.2756757">
      </trkpt>
      <trkpt lat="26.9963108" lon="71.2843801">
      </trkpt>
      <trkpt lat="26.9985801" lon="71.2969058">
      </trkpt>
      <trkpt lat="27.0002818" lon="71.306412">
      </trkpt>
      <trkpt lat="27.0011854" lon="71.3112972">
      </trkpt>
      <trkpt lat="27.0034637" lon="71.3238926">
      </trkpt>
      <trkpt lat="27.0050922" lon="71.3330553">
      </trkpt>
      <trkpt lat="27.0066901" lon="71.3418691">
      </trkpt>
      <trkpt lat="27.0082711" lon="71.3506738">
      </trkpt>
      <trkpt lat="27.0093025" lon="71.356495">
      </trkpt>
      <trkpt lat="27.0103505" lon="71.3624012">
      </trkpt>
      <trkpt lat="27.0112484" lon="71.3674255">
      </trkpt>
      <trkpt lat="27.0121197" lon="71.3725829">
      </trkpt>
      <trkpt lat="27.0141252" lon="71.3834477">
      </trkpt>
      <trkpt lat="27.0143799" lon="71.3848677">
      </trkpt>
      <trkpt lat="27.0163034" lon="71.3955917">
      </trkpt>
      <trkpt lat="27.0180657" lon="71.405302">
      </trkpt>
      <trkpt lat="27.0187418" lon="71.4090677">
      </trkpt>
      <trkpt lat="27.0192322" lon="71.4119215">
      </trkpt>
      <trkpt lat="27.0192511" lon="71.412025">
      </trkpt>
      <trkpt lat="27.019444" lon="71.4129731">
      </trkpt>
      <trkpt lat="27.0208137" lon="71.4207275">
      </trkpt>
      <trkpt lat="27.0217401" lon="71.4259246">
      </trkpt>
      <trkpt lat="27.0226715" lon="71.4311446">
      </trkpt>
      <trkpt lat="27.0231607" lon="71.4337993">
      </trkpt>
      <trkpt lat="27.0233924" lon="71.4350917">
      </trkpt>
      <trkpt lat="27.0243399" lon="71.4403744">
      </trkpt>
      <trkpt lat="27.0252993" lon="71.4457738">
      </trkpt>
      <trkpt lat="27.0264335" lon="71.4520266">
      </trkpt>
      <trkpt lat="27.0275484" lon="71.4583432">
      </trkpt>
      <trkpt lat="27.0284639" lon="71.4634231">
      </trkpt>
      <trkpt lat="27.0293733" lon="71.4684793">
      </trkpt>
      <trkpt lat="27.029925" lon="71.4714895">
      </trkpt>
      <trkpt lat="27.0303551" lon="71.4741309">
      </trkpt>
      <trkpt lat="27.0308256" lon="71.4792261">
      </trkpt>
      <trkpt lat="27.0320766" lon="71.4923555">
      </trkpt>
      <trkpt lat="27.0331568" lon="71.5036113">
      </trkpt>
      <trkpt lat="27.0333784" lon="71.5057855">
      </trkpt>
      <trkpt lat="27.033429" lon="71.506737">
      </trkpt>
      <trkpt lat="27.0333719" lon="71.5079357">
      </trkpt>
      <trkpt lat="27.0331191" lon="71.5091797">
      </trkpt>
      <trkpt lat="27.0326953" lon="71.5106424">
      </trkpt>
      <trkpt lat="27.0325302" lon="71.5112051">
      </trkpt>
      <trkpt lat="27.0318414" lon="71.5135531">
      </trkpt>
      <trkpt lat="27.0314072" lon="71.5149523">
      </trkpt>
      <trkpt lat="27.0309913" lon="71.5164535">
      </trkpt>
      <trkpt lat="27.0301501" lon="71.5194969">
      </trkpt>
      <trkpt lat="27.0285451" lon="71.5249474">
      </trkpt>
      <trkpt lat="27.0265106" lon="71.5320003">
      </trkpt>
      <trkpt lat="27.024666" lon="71.5384564">
      </trkpt>
      <trkpt lat="27.0240741" lon="71.5403918">
      </trkpt>
      <trkpt lat="27.0234703" lon="71.5424779">
      </trkpt>
      <trkpt lat="27.0223234" lon="71.546487">
      </trkpt>
      <trkpt lat="27.0214844" lon="71.5494118">
      </trkpt>
      <trkpt lat="27.0206365" lon="71.5523844">
      </trkpt>
      <trkpt lat="27.0197713" lon="71.5553516">
      </trkpt>
      <trkpt lat="27.0188564" lon="71.5585211">
      </trkpt>
      <trkpt lat="27.017801" lon="71.5621719">
      </trkpt>
      <trkpt lat="27.0177665" lon="71.5622913">
      </trkpt>
      <trkpt lat="27.0171466" lon="71.5644358">
      </trkpt>
      <trkpt lat="27.0150543" lon="71.5716424">
      </trkpt>
      <trkpt lat="27.0132732" lon="71.5777771">
      </trkpt>
      <trkpt lat="27.010723" lon="71.5866333">
      </trkpt>
      <trkpt lat="27.0090356" lon="71.5923732">
      </trkpt>
      <trkpt lat="27.0065997" lon="71.6008748">
      </trkpt>
      <trkpt lat="27.0042397" lon="71.6089042">
      </trkpt>
      <trkpt lat="27.0024493" lon="71.6151383">
      </trkpt>
      <trkpt lat="27.0003533" lon="71.6223836">
      </trkpt>
      <trkpt lat="26.9986018" lon="71.6284407">
      </trkpt>
      <trkpt lat="26.9963732" lon="71.6361648">
      </trkpt>
      <trkpt lat="26.9943742" lon="71.6432286">
      </trkpt>
      <trkpt lat="26.9922911" lon="71.6503328">
      </trkpt>
      <trkpt lat="26.9868096" lon="71.6691775">
      </trkpt>
      <trkpt lat="26.9826078" lon="71.6836643">
      </trkpt>
      <trkpt lat="26.9812128" lon="71.6884213">
      </trkpt>
      <trkpt lat="26.9795816" lon="71.6938647">
      </trkpt>
      <trkpt lat="26.9762403" lon="71.7055557">
      </trkpt>
      <trkpt lat="26.9737238" lon="71.714154">
      </trkpt>
      <trkpt lat="26.9734923" lon="71.7149336">
      </trkpt>
      <trkpt lat="26.9709637" lon="71.7237121">
      </trkpt>
      <trkpt lat="26.970632" lon="71.7247945">
      </trkpt>
      <trkpt lat="26.969936" lon="71.7273139">
      </trkpt>
      <trkpt lat="26.9681807" lon="71.7333866">
      </trkpt>
      <trkpt lat="26.9674342" lon="71.735974">
      </trkpt>
      <trkpt lat="26.9651459" lon="71.743905">
      </trkpt>
      <trkpt lat="26.9625388" lon="71.7527085">
      </trkpt>
      <trkpt lat="26.9620573" lon="71.7547058">
      </trkpt>
      <trkpt lat="26.961982" lon="71.7551947">
      </trkpt>
      <trkpt lat="26.9598405" lon="71.7689431">
      </trkpt>
      <trkpt lat="26.9580931" lon="71.7799233">
      </trkpt>
      <trkpt lat="26.9573242" lon="71.7848118">
      </trkpt>
      <trkpt lat="26.9565056" lon="71.7901217">
      </trkpt>
      <trkpt lat="26.9548825" lon="71.8002468">
      </trkpt>
      <trkpt lat="26.953513" lon="71.8089901">
      </trkpt>
      <trkpt lat="26.9518146" lon="71.819648">
      </trkpt>
      <trkpt lat="26.9510551" lon="71.8243331">
      </trkpt>
      <trkpt lat="26.9506765" lon="71.8268227">
      </trkpt>
      <trkpt lat="26.9497868" lon="71.8327173">
      </trkpt>
      <trkpt lat="26.9488458" lon="71.838567">
      </trkpt>
      <trkpt lat="26.9472822" lon="71.8481524">
      </trkpt>
      <trkpt lat="26.945736" lon="71.8584876">
      </trkpt>
      <trkpt lat="26.9435891" lon="71.8715307">
      </trkpt>
      <trkpt lat="26.9430233" lon="71.8750537">
      </trkpt>
      <trkpt lat="26.9429252" lon="71.8759478">
      </trkpt>
      <trkpt lat="26.942942" lon="71.8769066">
      </trkpt>
      <trkpt lat="26.9430614" lon="71.8777086">
      </trkpt>
      <trkpt lat="26.9432418" lon="71.8783889">
      </trkpt>
      <trkpt lat="26.9436231" lon="71.8792301">
      </trkpt>
      <trkpt lat="26.9481992" lon="71.8880656">
      </trkpt>
      <trkpt lat="26.9486937" lon="71.8890433">
      </trkpt>
      <trkpt lat="26.9522684" lon="71.8961111">
      </trkpt>
      <trkpt lat="26.9524668" lon="71.8965027">
      </trkpt>
      <trkpt lat="26.9525948" lon="71.8967577">
      </trkpt>
      <trkpt lat="26.9528648" lon="71.8972489">
      </trkpt>
      <trkpt lat="26.9530857" lon="71.8976199">
      </trkpt>
      <trkpt lat="26.9533945" lon="71.8980136">
      </trkpt>
      <trkpt lat="26.9538202" lon="71.8984232">
      </trkpt>
      <trkpt lat="26.9542007" lon="71.8986933">
      </trkpt>
      <trkpt lat="26.954584" lon="71.8989232">
      </trkpt>
      <trkpt lat="26.9549796" lon="71.8990964">
      </trkpt>
      <trkpt lat="26.9560614" lon="71.8995168">
      </trkpt>
      <trkpt lat="26.9574988" lon="71.9001227">
      </trkpt>
      <trkpt lat="26.9681685" lon="71.9043296">
      </trkpt>
      <trkpt lat="26.982506" lon="71.9101281">
      </trkpt>
      <trkpt lat="26.993854" lon="71.9146946">
      </trkpt>
      <trkpt lat="26.9943472" lon="71.9149053">
      </trkpt>
      <trkpt lat="26.9950466" lon="71.9152599">
      </trkpt>
      <trkpt lat="26.9957142" lon="71.9156617">
      </trkpt>
      <trkpt lat="26.9962465" lon="71.9161031">
      </trkpt>
      <trkpt lat="26.9968724" lon="71.9167121">
      </trkpt>
      <trkpt lat="26.9976378" lon="71.917555">
      </trkpt>
      <trkpt lat="27.0033966" lon="71.9254585">
      </trkpt>
      <trkpt lat="27.0069873" lon="71.9304651">
      </trkpt>
      <trkpt lat="27.0114842" lon="71.9365262">
      </trkpt>
      <trkpt lat="27.0120266" lon="71.9372804">
      </trkpt>
      <trkpt lat="27.0125378" lon="71.9380611">
      </trkpt>
      <trkpt lat="27.0128288" lon="71.9385896">
      </trkpt>
      <trkpt lat="27.0130629" lon="71.9391201">
      </trkpt>
      <trkpt lat="27.0133708" lon="71.9399086">
      </trkpt>
      <trkpt lat="27.0136007" lon="71.9408546">
      </trkpt>
      <trkpt lat="27.0163086" lon="71.9517194">
      </trkpt>
      <trkpt lat="27.019265" lon="71.9635823">
      </trkpt>
      <trkpt lat="27.0210723" lon="71.9709959">
      </trkpt>
      <trkpt lat="27.021589" lon="71.9729641">
      </trkpt>
      <trkpt lat="27.0246044" lon="71.9851829">
      </trkpt>
      <trkpt lat="27.0274217" lon="71.9966271">
      </trkpt>
      <trkpt lat="27.0299186" lon="72.0064412">
      </trkpt>
      <trkpt lat="27.0308164" lon="72.0102175">
      </trkpt>
      <trkpt lat="27.0338923" lon="72.0226557">
      </trkpt>
      <trkpt lat="27.0376064" lon="72.0377087">
      </trkpt>
      <trkpt lat="27.0406327" lon="72.0499177">
      </trkpt>
      <trkpt lat="27.0443801" lon="72.0650629">
      </trkpt>
      <trkpt lat="27.0471937" lon="72.0764754">
      </trkpt>
      <trkpt lat="27.0497076" lon="72.0866133">
      </trkpt>
      <trkpt lat="27.0512922" lon="72.0929757">
      </trkpt>
      <trkpt lat="27.0537828" lon="72.1028373">
      </trkpt>
      <trkpt lat="27.0543044" lon="72.1053073">
      </trkpt>
      <trkpt lat="27.0568256" lon="72.1154528">
      </trkpt>
      <trkpt lat="27.0592489" lon="72.1253179">
      </trkpt>
      <trkpt lat="27.0630287" lon="72.1406644">
      </trkpt>
      <trkpt lat="27.064784" lon="72.1478675">
      </trkpt>
      <trkpt lat="27.0656752" lon="72.1516532">
      </trkpt>
      <trkpt lat="27.0666018" lon="72.155413">
      </trkpt>
      <trkpt lat="27.0700898" lon="72.1693291">
      </trkpt>
      <trkpt lat="27.0713223" lon="72.1744552">
      </trkpt>
      <trkpt lat="27.0726673" lon="72.1798457">
      </trkpt>
      <trkpt lat="27.0762351" lon="72.1942091">
      </trkpt>
      <trkpt lat="27.0776873" lon="72.2001417">
      </trkpt>
      <trkpt lat="27.0792759" lon="72.2064924">
      </trkpt>
      <trkpt lat="27.0812072" lon="72.2144172">
      </trkpt>
      <trkpt lat="27.0829051" lon="72.2213637">
      </trkpt>
      <trkpt lat="27.0842777" lon="72.2269558">
      </trkpt>
      <trkpt lat="27.0849665" lon="72.2297628">
      </trkpt>
      <trkpt lat="27.0856115" lon="72.2323944">
      </trkpt>
      <trkpt lat="27.0884014" lon="72.2437035">
      </trkpt>
      <trkpt lat="27.0918884" lon="72.2579584">
      </trkpt>
      <trkpt lat="27.0941628" lon="72.2672253">
      </trkpt>
      <trkpt lat="27.0947969" lon="72.2697589">
      </trkpt>
      <trkpt lat="27.0955334" lon="72.2726945">
      </trkpt>
      <trkpt lat="27.0968738" lon="72.2784899">
      </trkpt>
      <trkpt lat="27.097407" lon="72.2806106">
      </trkpt>
      <trkpt lat="27.0977206" lon="72.2818498">
      </trkpt>
      <trkpt lat="27.1012262" lon="72.2960936">
      </trkpt>
      <trkpt lat="27.1050186" lon="72.3111083">
      </trkpt>
      <trkpt lat="27.1058146" lon="72.3147649">
      </trkpt>
      <trkpt lat="27.1063631" lon="72.3169702">
      </trkpt>
      <trkpt lat="27.1065969" lon="72.3180348">
      </trkpt>
      <trkpt lat="27.1066256" lon="72.3184408">
      </trkpt>
      <trkpt lat="27.1066373" lon="72.318948">
      </trkpt>
      <trkpt lat="27.1065969" lon="72.3194011">
      </trkpt>
      <trkpt lat="27.1064823" lon="72.3199362">
      </trkpt>
      <trkpt lat="27.1062947" lon="72.3205055">
      </trkpt>
      <trkpt lat="27.1061104" lon="72.3209241">
      </trkpt>
      <trkpt lat="27.105769" lon="72.3214764">
      </trkpt>
      <trkpt lat="27.105103" lon="72.3222304">
      </trkpt>
      <trkpt lat="27.104218" lon="72.3231507">
      </trkpt>
      <trkpt lat="27.1038183" lon="72.3237564">
      </trkpt>
      <trkpt lat="27.1035089" lon="72.3244919">
      </trkpt>
      <trkpt lat="27.1032936" lon="72.3252361">
      </trkpt>
      <trkpt lat="27.1032311" lon="72.3258516">
      </trkpt>
      <trkpt lat="27.1032133" lon="72.326651">
      </trkpt>
      <trkpt lat="27.1036068" lon="72.3291531">
      </trkpt>
      <trkpt lat="27.1037283" lon="72.3301784">
      </trkpt>
      <trkpt lat="27.1037602" lon="72.3341434">
      </trkpt>
      <trkpt lat="27.103796" lon="72.3346688">
      </trkpt>
      <trkpt lat="27.1038816" lon="72.3353755">
      </trkpt>
      <trkpt lat="27.1040234" lon="72.3360333">
      </trkpt>
      <trkpt lat="27.1042332" lon="72.3367517">
      </trkpt>
      <trkpt lat="27.1048566" lon="72.3386298">
      </trkpt>
      <trkpt lat="27.1050923" lon="72.3391697">
      </trkpt>
      <trkpt lat="27.1053281" lon="72.3396227">
      </trkpt>
      <trkpt lat="27.1056554" lon="72.3401732">
      </trkpt>
      <trkpt lat="27.1067305" lon="72.3416857">
      </trkpt>
      <trkpt lat="27.1071762" lon="72.3425123">
      </trkpt>
      <trkpt lat="27.1076736" lon="72.3439676">
      </trkpt>
      <trkpt lat="27.1080571" lon="72.3451784">
      </trkpt>
      <trkpt lat="27.1084298" lon="72.3461327">
      </trkpt>
      <trkpt lat="27.1086766" lon="72.3465419">
      </trkpt>
      <trkpt lat="27.1089079" lon="72.3469207">
      </trkpt>
      <trkpt lat="27.109441" lon="72.3476777">
      </trkpt>
      <trkpt lat="27.1099645" lon="72.3482426">
      </trkpt>
      <trkpt lat="27.1106313" lon="72.348872">
      </trkpt>
      <trkpt lat="27.1117886" lon="72.3495991">
      </trkpt>
      <trkpt lat="27.1123738" lon="72.3499045">
      </trkpt>
      <trkpt lat="27.1129174" lon="72.3501148">
      </trkpt>
      <trkpt lat="27.1136523" lon="72.3503324">
      </trkpt>
      <trkpt lat="27.1146248" lon="72.3504847">
      </trkpt>
      <trkpt lat="27.1172976" lon="72.35068">
      </trkpt>
      <trkpt lat="27.1186584" lon="72.3507969">
      </trkpt>
      <trkpt lat="27.1194972" lon="72.3508746">
      </trkpt>
      <trkpt lat="27.120376" lon="72.3511034">
      </trkpt>
      <trkpt lat="27.1211625" lon="72.3514303">
      </trkpt>
      <trkpt lat="27.1218939" lon="72.3517709">
      </trkpt>
      <trkpt lat="27.1226949" lon="72.3523319">
      </trkpt>
      <trkpt lat="27.123484" lon="72.3530968">
      </trkpt>
      <trkpt lat="27.125123" lon="72.3548748">
      </trkpt>
      <trkpt lat="27.1259068" lon="72.355684">
      </trkpt>
      <trkpt lat="27.1269294" lon="72.3568323">
      </trkpt>
      <trkpt lat="27.1274046" lon="72.3573817">
      </trkpt>
      <trkpt lat="27.1276282" lon="72.3578006">
      </trkpt>
      <trkpt lat="27.1277727" lon="72.3581834">
      </trkpt>
      <trkpt lat="27.1278504" lon="72.3584108">
      </trkpt>
      <trkpt lat="27.1279608" lon="72.3589057">
      </trkpt>
      <trkpt lat="27.1280171" lon="72.3595801">
      </trkpt>
      <trkpt lat="27.1280012" lon="72.3601584">
      </trkpt>
      <trkpt lat="27.1279387" lon="72.3606941">
      </trkpt>
      <trkpt lat="27.1278437" lon="72.3610804">
      </trkpt>
      <trkpt lat="27.1277198" lon="72.3614817">
      </trkpt>
      <trkpt lat="27.1276197" lon="72.3617586">
      </trkpt>
      <trkpt lat="27.1270161" lon="72.363159">
      </trkpt>
      <trkpt lat="27.1267782" lon="72.3637109">
      </trkpt>
      <trkpt lat="27.1265578" lon="72.3641922">
      </trkpt>
      <trkpt lat="27.1241072" lon="72.3699007">
      </trkpt>
      <trkpt lat="27.1231625" lon="72.3720696">
      </trkpt>
      <trkpt lat="27.1229195" lon="72.3726259">
      </trkpt>
      <trkpt lat="27.1220397" lon="72.3746575">
      </trkpt>
      <trkpt lat="27.1219017" lon="72.3749936">
      </trkpt>
      <trkpt lat="27.1169891" lon="72.3863999">
      </trkpt>
      <trkpt lat="27.1130893" lon="72.3954305">
      </trkpt>
      <trkpt lat="27.1120864" lon="72.3977891">
      </trkpt>
      <trkpt lat="27.1115337" lon="72.399086">
      </trkpt>
      <trkpt lat="27.111274" lon="72.3998568">
      </trkpt>
      <trkpt lat="27.111069" lon="72.4007673">
      </trkpt>
      <trkpt lat="27.1107199" lon="72.4030053">
      </trkpt>
      <trkpt lat="27.1103153" lon="72.4053717">
      </trkpt>
      <trkpt lat="27.1091544" lon="72.4124142">
      </trkpt>
      <trkpt lat="27.1086426" lon="72.4156069">
      </trkpt>
      <trkpt lat="27.1081302" lon="72.4185664">
      </trkpt>
      <trkpt lat="27.1076193" lon="72.4215824">
      </trkpt>
      <trkpt lat="27.1074579" lon="72.4223974">
      </trkpt>
      <trkpt lat="27.1071374" lon="72.4232114">
      </trkpt>
      <trkpt lat="27.1067368" lon="72.4239471">
      </trkpt>
      <trkpt lat="27.1064616" lon="72.4243267">
      </trkpt>
      <trkpt lat="27.1060925" lon="72.4247507">
      </trkpt>
      <trkpt lat="27.1026859" lon="72.4285004">
      </trkpt>
      <trkpt lat="27.1002714" lon="72.4311525">
      </trkpt>
      <trkpt lat="27.0978512" lon="72.4337826">
      </trkpt>
      <trkpt lat="27.0951817" lon="72.4367289">
      </trkpt>
      <trkpt lat="27.09245" lon="72.4396981">
      </trkpt>
      <trkpt lat="27.0899655" lon="72.4424194">
      </trkpt>
      <trkpt lat="27.0892314" lon="72.4431997">
      </trkpt>
      <trkpt lat="27.088246" lon="72.4440464">
      </trkpt>
      <trkpt lat="27.0861457" lon="72.4457066">
      </trkpt>
      <trkpt lat="27.0793169" lon="72.4511562">
      </trkpt>
      <trkpt lat="27.0783416" lon="72.4519898">
      </trkpt>
      <trkpt lat="27.076298" lon="72.4540794">
      </trkpt>
      <trkpt lat="27.0746611" lon="72.4557751">
      </trkpt>
      <trkpt lat="27.0741302" lon="72.4562053">
      </trkpt>
      <trkpt lat="27.0735122" lon="72.4566144">
      </trkpt>
      <trkpt lat="27.0728717" lon="72.456877">
      </trkpt>
      <trkpt lat="27.0721805" lon="72.4570612">
      </trkpt>
      <trkpt lat="27.0695926" lon="72.4572196">
      </trkpt>
      <trkpt lat="27.0682454" lon="72.4572767">
      </trkpt>
      <trkpt lat="27.0674218" lon="72.4574023">
      </trkpt>
      <trkpt lat="27.0666007" lon="72.4576855">
      </trkpt>
      <trkpt lat="27.0619957" lon="72.4595066">
      </trkpt>
      <trkpt lat="27.0615954" lon="72.459686">
      </trkpt>
      <trkpt lat="27.0608734" lon="72.4601427">
      </trkpt>
      <trkpt lat="27.0600497" lon="72.4608678">
      </trkpt>
      <trkpt lat="27.0584297" lon="72.4623093">
      </trkpt>
      <trkpt lat="27.0556619" lon="72.4648701">
      </trkpt>
      <trkpt lat="27.0526698" lon="72.4675197">
      </trkpt>
      <trkpt lat="27.0517702" lon="72.4683532">
      </trkpt>
      <trkpt lat="27.0494816" lon="72.4704736">
      </trkpt>
      <trkpt lat="27.0481268" lon="72.4715804">
      </trkpt>
      <trkpt lat="27.0457399" lon="72.4734135">
      </trkpt>
      <trkpt lat="27.0429179" lon="72.4755531">
      </trkpt>
      <trkpt lat="27.0401187" lon="72.4776814">
      </trkpt>
      <trkpt lat="27.0368054" lon="72.4802176">
      </trkpt>
      <trkpt lat="27.035084" lon="72.4815394">
      </trkpt>
      <trkpt lat="27.0334568" lon="72.4827749">
      </trkpt>
      <trkpt lat="27.0325082" lon="72.4834948">
      </trkpt>
      <trkpt lat="27.0317901" lon="72.4840377">
      </trkpt>
      <trkpt lat="27.0312927" lon="72.4844311">
      </trkpt>
      <trkpt lat="27.0308975" lon="72.4848346">
      </trkpt>
      <trkpt lat="27.0305731" lon="72.4852047">
      </trkpt>
      <trkpt lat="27.0302835" lon="72.4856254">
      </trkpt>
      <trkpt lat="27.0300239" lon="72.4860982">
      </trkpt>
      <trkpt lat="27.0297924" lon="72.4865721">
      </trkpt>
      <trkpt lat="27.028517" lon="72.4894191">
      </trkpt>
      <trkpt lat="27.0261798" lon="72.4946435">
      </trkpt>
      <trkpt lat="27.0245948" lon="72.4981592">
      </trkpt>
      <trkpt lat="27.0238039" lon="72.4999176">
      </trkpt>
      <trkpt lat="27.0229894" lon="72.5017435">
      </trkpt>
      <trkpt lat="27.0210397" lon="72.506058">
      </trkpt>
      <trkpt lat="27.0200621" lon="72.5081966">
      </trkpt>
      <trkpt lat="27.0190905" lon="72.5103896">
      </trkpt>
      <trkpt lat="27.0179103" lon="72.5132599">
      </trkpt>
      <trkpt lat="27.0178089" lon="72.5135234">
      </trkpt>
      <trkpt lat="27.0164021" lon="72.5168481">
      </trkpt>
      <trkpt lat="27.0154438" lon="72.5192042">
      </trkpt>
      <trkpt lat="27.0144314" lon="72.5216639">
      </trkpt>
      <trkpt lat="27.0141186" lon="72.5224004">
      </trkpt>
      <trkpt lat="27.0138682" lon="72.5229835">
      </trkpt>
      <trkpt lat="27.0135807" lon="72.5238519">
      </trkpt>
      <trkpt lat="27.013356" lon="72.5249432">
      </trkpt>
      <trkpt lat="27.0132122" lon="72.525945">
      </trkpt>
      <trkpt lat="27.013044" lon="72.5270248">
      </trkpt>
      <trkpt lat="27.0122449" lon="72.5322683">
      </trkpt>
      <trkpt lat="27.0120985" lon="72.5332291">
      </trkpt>
      <trkpt lat="27.0119416" lon="72.5343001">
      </trkpt>
      <trkpt lat="27.0118305" lon="72.5348371">
      </trkpt>
      <trkpt lat="27.0116573" lon="72.5355224">
      </trkpt>
      <trkpt lat="27.0108404" lon="72.5376373">
      </trkpt>
      <trkpt lat="27.0079895" lon="72.5447859">
      </trkpt>
      <trkpt lat="27.0072841" lon="72.5465969">
      </trkpt>
      <trkpt lat="27.0068705" lon="72.547586">
      </trkpt>
      <trkpt lat="27.0065349" lon="72.5482524">
      </trkpt>
      <trkpt lat="27.0056375" lon="72.5497632">
      </trkpt>
      <trkpt lat="27.0042232" lon="72.5521439">
      </trkpt>
      <trkpt lat="27.0030469" lon="72.5541019">
      </trkpt>
      <trkpt lat="27.0018363" lon="72.5561688">
      </trkpt>
      <trkpt lat="26.9989895" lon="72.560977">
      </trkpt>
      <trkpt lat="26.9961202" lon="72.5658215">
      </trkpt>
      <trkpt lat="26.9931988" lon="72.5707817">
      </trkpt>
      <trkpt lat="26.9911272" lon="72.5742989">
      </trkpt>
      <trkpt lat="26.9906556" lon="72.5750996">
      </trkpt>
      <trkpt lat="26.9897606" lon="72.5766325">
      </trkpt>
      <trkpt lat="26.9892606" lon="72.5774803">
      </trkpt>
      <trkpt lat="26.9887853" lon="72.5782031">
      </trkpt>
      <trkpt lat="26.9880626" lon="72.5790911">
      </trkpt>
      <trkpt lat="26.9848059" lon="72.5828848">
      </trkpt>
      <trkpt lat="26.9831524" lon="72.5847868">
      </trkpt>
      <trkpt lat="26.9830883" lon="72.5848606">
      </trkpt>
      <trkpt lat="26.9828735" lon="72.5851077">
      </trkpt>
      <trkpt lat="26.982402" lon="72.5857472">
      </trkpt>
      <trkpt lat="26.9822987" lon="72.5860597">
      </trkpt>
      <trkpt lat="26.9819537" lon="72.5869624">
      </trkpt>
      <trkpt lat="26.9818593" lon="72.5875923">
      </trkpt>
      <trkpt lat="26.9818203" lon="72.5899099">
      </trkpt>
      <trkpt lat="26.9818238" lon="72.5909909">
      </trkpt>
      <trkpt lat="26.9818608" lon="72.5938906">
      </trkpt>
      <trkpt lat="26.9818766" lon="72.5951255">
      </trkpt>
      <trkpt lat="26.9818802" lon="72.595789">
      </trkpt>
      <trkpt lat="26.9819041" lon="72.6001291">
      </trkpt>
      <trkpt lat="26.9819326" lon="72.6029631">
      </trkpt>
      <trkpt lat="26.9819014" lon="72.6035769">
      </trkpt>
      <trkpt lat="26.9818113" lon="72.6041294">
      </trkpt>
      <trkpt lat="26.9815662" lon="72.6048335">
      </trkpt>
      <trkpt lat="26.9812709" lon="72.6054026">
      </trkpt>
      <trkpt lat="26.980966" lon="72.605918">
      </trkpt>
      <trkpt lat="26.9803761" lon="72.6064304">
      </trkpt>
      <trkpt lat="26.9799359" lon="72.6067085">
      </trkpt>
      <trkpt lat="26.9795311" lon="72.6068939">
      </trkpt>
      <trkpt lat="26.9791069" lon="72.6070691">
      </trkpt>
      <trkpt lat="26.9781472" lon="72.6073193">
      </trkpt>
      <trkpt lat="26.9771363" lon="72.607583">
      </trkpt>
      <trkpt lat="26.9729628" lon="72.6087027">
      </trkpt>
      <trkpt lat="26.9720872" lon="72.6089349">
      </trkpt>
      <trkpt lat="26.9716496" lon="72.6090776">
      </trkpt>
      <trkpt lat="26.9711669" lon="72.6093152">
      </trkpt>
      <trkpt lat="26.9706905" lon="72.6095829">
      </trkpt>
      <trkpt lat="26.9699721" lon="72.6101772">
      </trkpt>
      <trkpt lat="26.9690317" lon="72.6112341">
      </trkpt>
      <trkpt lat="26.9662229" lon="72.6146219">
      </trkpt>
      <trkpt lat="26.9639591" lon="72.6172015">
      </trkpt>
      <trkpt lat="26.9617771" lon="72.6197562">
      </trkpt>
      <trkpt lat="26.9602197" lon="72.621554">
      </trkpt>
      <trkpt lat="26.959181" lon="72.6227322">
      </trkpt>
      <trkpt lat="26.9590316" lon="72.6229035">
      </trkpt>
      <trkpt lat="26.958321" lon="72.623641">
      </trkpt>
      <trkpt lat="26.9578977" lon="72.6242387">
      </trkpt>
      <trkpt lat="26.9575924" lon="72.6248524">
      </trkpt>
      <trkpt lat="26.957399" lon="72.625312">
      </trkpt>
      <trkpt lat="26.9572777" lon="72.6257293">
      </trkpt>
      <trkpt lat="26.9571471" lon="72.6262769">
      </trkpt>
      <trkpt lat="26.9570682" lon="72.6270277">
      </trkpt>
      <trkpt lat="26.9570351" lon="72.6276528">
      </trkpt>
      <trkpt lat="26.957045" lon="72.628259">
      </trkpt>
      <trkpt lat="26.9570351" lon="72.630616">
      </trkpt>
      <trkpt lat="26.9570275" lon="72.6324886">
      </trkpt>
      <trkpt lat="26.956994" lon="72.6330088">
      </trkpt>
      <trkpt lat="26.9569359" lon="72.6335163">
      </trkpt>
      <trkpt lat="26.956857" lon="72.6338703">
      </trkpt>
      <trkpt lat="26.956741" lon="72.6343334">
      </trkpt>
      <trkpt lat="26.9565848" lon="72.6347552">
      </trkpt>
      <trkpt lat="26.9555012" lon="72.6373034">
      </trkpt>
      <trkpt lat="26.9546586" lon="72.6392713">
      </trkpt>
      <trkpt lat="26.9537919" lon="72.6413004">
      </trkpt>
      <trkpt lat="26.9515834" lon="72.6465027">
      </trkpt>
      <trkpt lat="26.951413" lon="72.6468368">
      </trkpt>
      <trkpt lat="26.9511733" lon="72.6472232">
      </trkpt>
      <trkpt lat="26.9508688" lon="72.647634">
      </trkpt>
      <trkpt lat="26.9507015" lon="72.6478371">
      </trkpt>
      <trkpt lat="26.9480346" lon="72.6509657">
      </trkpt>
      <trkpt lat="26.9429428" lon="72.6569596">
      </trkpt>
      <trkpt lat="26.9392176" lon="72.6613316">
      </trkpt>
      <trkpt lat="26.9358417" lon="72.6653032">
      </trkpt>
      <trkpt lat="26.9349278" lon="72.6663293">
      </trkpt>
      <trkpt lat="26.9343561" lon="72.6669496">
      </trkpt>
      <trkpt lat="26.9333253" lon="72.6677631">
      </trkpt>
      <trkpt lat="26.9308375" lon="72.6696322">
      </trkpt>
      <trkpt lat="26.9266975" lon="72.6728429">
      </trkpt>
      <trkpt lat="26.9221847" lon="72.6762541">
      </trkpt>
      <trkpt lat="26.9199419" lon="72.6779699">
      </trkpt>
      <trkpt lat="26.9174885" lon="72.6798725">
      </trkpt>
      <trkpt lat="26.9131639" lon="72.6830563">
      </trkpt>
      <trkpt lat="26.9078419" lon="72.6872662">
      </trkpt>
      <trkpt lat="26.9036577" lon="72.6904197">
      </trkpt>
      <trkpt lat="26.8976411" lon="72.6949829">
      </trkpt>
      <trkpt lat="26.8923167" lon="72.6990322">
      </trkpt>
      <trkpt lat="26.8863541" lon="72.7035707">
      </trkpt>
      <trkpt lat="26.8811924" lon="72.7074816">
      </trkpt>
      <trkpt lat="26.8793471" lon="72.7089283">
      </trkpt>
      <trkpt lat="26.877701" lon="72.7106006">
      </trkpt>
      <trkpt lat="26.8723765" lon="72.7160603">
      </trkpt>
      <trkpt lat="26.8710175" lon="72.7174904">
      </trkpt>
      <trkpt lat="26.8695958" lon="72.7189356">
      </trkpt>
      <trkpt lat="26.8667931" lon="72.7218235">
      </trkpt>
      <trkpt lat="26.8637576" lon="72.7248019">
      </trkpt>
      <trkpt lat="26.8630159" lon="72.7256449">
      </trkpt>
      <trkpt lat="26.8591934" lon="72.7295015">
      </trkpt>
      <trkpt lat="26.8480103" lon="72.7408756">
      </trkpt>
      <trkpt lat="26.8472003" lon="72.7417014">
      </trkpt>
      <trkpt lat="26.8464317" lon="72.7425793">
      </trkpt>
      <trkpt lat="26.8460859" lon="72.7431107">
      </trkpt>
      <trkpt lat="26.8457485" lon="72.7437632">
      </trkpt>
      <trkpt lat="26.8454986" lon="72.7444763">
      </trkpt>
      <trkpt lat="26.8453421" lon="72.7451025">
      </trkpt>
      <trkpt lat="26.8448242" lon="72.747374">
      </trkpt>
      <trkpt lat="26.8446782" lon="72.7479644">
      </trkpt>
      <trkpt lat="26.8444961" lon="72.7486055">
      </trkpt>
      <trkpt lat="26.8442228" lon="72.7492506">
      </trkpt>
      <trkpt lat="26.8439059" lon="72.7498059">
      </trkpt>
      <trkpt lat="26.8434687" lon="72.7503561">
      </trkpt>
      <trkpt lat="26.8374651" lon="72.7572061">
      </trkpt>
      <trkpt lat="26.8350008" lon="72.7599442">
      </trkpt>
      <trkpt lat="26.8325162" lon="72.762718">
      </trkpt>
      <trkpt lat="26.8307612" lon="72.7647119">
      </trkpt>
      <trkpt lat="26.8289486" lon="72.7667703">
      </trkpt>
      <trkpt lat="26.8249717" lon="72.7712615">
      </trkpt>
      <trkpt lat="26.8240674" lon="72.7722717">
      </trkpt>
      <trkpt lat="26.8235843" lon="72.7728131">
      </trkpt>
      <trkpt lat="26.8229784" lon="72.773367">
      </trkpt>
      <trkpt lat="26.8206918" lon="72.7754946">
      </trkpt>
      <trkpt lat="26.8179794" lon="72.7780161">
      </trkpt>
      <trkpt lat="26.816448" lon="72.779453">
      </trkpt>
      <trkpt lat="26.8149713" lon="72.7808161">
      </trkpt>
      <trkpt lat="26.813414" lon="72.7821533">
      </trkpt>
      <trkpt lat="26.8121946" lon="72.7834173">
      </trkpt>
      <trkpt lat="26.8108101" lon="72.7847083">
      </trkpt>
      <trkpt lat="26.8094492" lon="72.7859632">
      </trkpt>
      <trkpt lat="26.8088939" lon="72.7864596">
      </trkpt>
      <trkpt lat="26.8085296" lon="72.7867282">
      </trkpt>
      <trkpt lat="26.8081414" lon="72.7870036">
      </trkpt>
      <trkpt lat="26.8057081" lon="72.7881268">
      </trkpt>
      <trkpt lat="26.8022033" lon="72.7897178">
      </trkpt>
      <trkpt lat="26.8014196" lon="72.7900588">
      </trkpt>
      <trkpt lat="26.8009847" lon="72.7902149">
      </trkpt>
      <trkpt lat="26.800454" lon="72.7903493">
      </trkpt>
      <trkpt lat="26.7994893" lon="72.7903555">
      </trkpt>
      <trkpt lat="26.7988945" lon="72.7903493">
      </trkpt>
      <trkpt lat="26.7984664" lon="72.7903776">
      </trkpt>
      <trkpt lat="26.798138" lon="72.7904409">
      </trkpt>
      <trkpt lat="26.7977105" lon="72.7905784">
      </trkpt>
      <trkpt lat="26.7972811" lon="72.790797">
      </trkpt>
      <trkpt lat="26.7969502" lon="72.7910261">
      </trkpt>
      <trkpt lat="26.7966398" lon="72.7913155">
      </trkpt>
      <trkpt lat="26.7963217" lon="72.7917383">
      </trkpt>
      <trkpt lat="26.7961119" lon="72.7920694">
      </trkpt>
      <trkpt lat="26.7958498" lon="72.7925462">
      </trkpt>
      <trkpt lat="26.7952469" lon="72.7934272">
      </trkpt>
      <trkpt lat="26.7933928" lon="72.7951718">
      </trkpt>
      <trkpt lat="26.791995" lon="72.7965421">
      </trkpt>
      <trkpt lat="26.7914178" lon="72.7969847">
      </trkpt>
      <trkpt lat="26.7904224" lon="72.7975874">
      </trkpt>
      <trkpt lat="26.7893962" lon="72.7981205">
      </trkpt>
      <trkpt lat="26.7890728" lon="72.7982538">
      </trkpt>
      <trkpt lat="26.7858342" lon="72.7995037">
      </trkpt>
      <trkpt lat="26.7840988" lon="72.8001613">
      </trkpt>
      <trkpt lat="26.7829834" lon="72.800582">
      </trkpt>
      <trkpt lat="26.7825261" lon="72.8008069">
      </trkpt>
      <trkpt lat="26.7821988" lon="72.8010088">
      </trkpt>
      <trkpt lat="26.781842" lon="72.8013191">
      </trkpt>
      <trkpt lat="26.7813847" lon="72.8018314">
      </trkpt>
      <trkpt lat="26.7809687" lon="72.8024991">
      </trkpt>
      <trkpt lat="26.7800201" lon="72.8044178">
      </trkpt>
      <trkpt lat="26.7789866" lon="72.8065739">
      </trkpt>
      <trkpt lat="26.7775327" lon="72.8094697">
      </trkpt>
      <trkpt lat="26.7764246" lon="72.8117104">
      </trkpt>
      <trkpt lat="26.7761497" lon="72.8122827">
      </trkpt>
      <trkpt lat="26.7759189" lon="72.8129182">
      </trkpt>
      <trkpt lat="26.775733" lon="72.8136263">
      </trkpt>
      <trkpt lat="26.775467" lon="72.8153002">
      </trkpt>
      <trkpt lat="26.7735596" lon="72.8294776">
      </trkpt>
      <trkpt lat="26.7734031" lon="72.8306411">
      </trkpt>
      <trkpt lat="26.7731032" lon="72.8327649">
      </trkpt>
      <trkpt lat="26.7729183" lon="72.8337085">
      </trkpt>
      <trkpt lat="26.7725768" lon="72.8345933">
      </trkpt>
      <trkpt lat="26.7722544" lon="72.8351778">
      </trkpt>
      <trkpt lat="26.7718013" lon="72.8357888">
      </trkpt>
      <trkpt lat="26.7669165" lon="72.8417466">
      </trkpt>
      <trkpt lat="26.764636" lon="72.8445364">
      </trkpt>
      <trkpt lat="26.7631109" lon="72.8464094">
      </trkpt>
      <trkpt lat="26.7623462" lon="72.8474996">
      </trkpt>
      <trkpt lat="26.7619855" lon="72.8483885">
      </trkpt>
      <trkpt lat="26.7616489" lon="72.8497019">
      </trkpt>
      <trkpt lat="26.7610756" lon="72.8525291">
      </trkpt>
      <trkpt lat="26.7599477" lon="72.8577608">
      </trkpt>
      <trkpt lat="26.7597135" lon="72.8589198">
      </trkpt>
      <trkpt lat="26.7594453" lon="72.860086">
      </trkpt>
      <trkpt lat="26.7592139" lon="72.8606483">
      </trkpt>
      <trkpt lat="26.7589825" lon="72.8611462">
      </trkpt>
      <trkpt lat="26.7580329" lon="72.8625728">
      </trkpt>
      <trkpt lat="26.7500897" lon="72.8750834">
      </trkpt>
      <trkpt lat="26.7428661" lon="72.8864993">
      </trkpt>
      <trkpt lat="26.7423819" lon="72.8873064">
      </trkpt>
      <trkpt lat="26.7419958" lon="72.8878421">
      </trkpt>
      <trkpt lat="26.7395148" lon="72.8916848">
      </trkpt>
      <trkpt lat="26.7393002" lon="72.8922092">
      </trkpt>
      <trkpt lat="26.7390586" lon="72.8929822">
      </trkpt>
      <trkpt lat="26.7386669" lon="72.8950681">
      </trkpt>
      <trkpt lat="26.7384945" lon="72.8955906">
      </trkpt>
      <trkpt lat="26.7382647" lon="72.8960487">
      </trkpt>
      <trkpt lat="26.7379866" lon="72.896462">
      </trkpt>
      <trkpt lat="26.7376893" lon="72.8968539">
      </trkpt>
      <trkpt lat="26.7371076" lon="72.8973747">
      </trkpt>
      <trkpt lat="26.7368378" lon="72.8975497">
      </trkpt>
      <trkpt lat="26.7364115" lon="72.8977843">
      </trkpt>
      <trkpt lat="26.7359483" lon="72.8979688">
      </trkpt>
      <trkpt lat="26.7352497" lon="72.8981356">
      </trkpt>
      <trkpt lat="26.7332893" lon="72.89862">
      </trkpt>
      <trkpt lat="26.7314061" lon="72.8990231">
      </trkpt>
      <trkpt lat="26.7306003" lon="72.8992441">
      </trkpt>
      <trkpt lat="26.7301351" lon="72.899358">
      </trkpt>
      <trkpt lat="26.7295645" lon="72.8994894">
      </trkpt>
      <trkpt lat="26.7286296" lon="72.8997153">
      </trkpt>
      <trkpt lat="26.7277409" lon="72.899959">
      </trkpt>
      <trkpt lat="26.7269394" lon="72.9002793">
      </trkpt>
      <trkpt lat="26.7264805" lon="72.9005238">
      </trkpt>
      <trkpt lat="26.7253234" lon="72.901174">
      </trkpt>
      <trkpt lat="26.723379" lon="72.9023292">
      </trkpt>
      <trkpt lat="26.7223537" lon="72.902956">
      </trkpt>
      <trkpt lat="26.7217564" lon="72.9032769">
      </trkpt>
      <trkpt lat="26.7214331" lon="72.903392">
      </trkpt>
      <trkpt lat="26.7211029" lon="72.9034605">
      </trkpt>
      <trkpt lat="26.7207099" lon="72.903508">
      </trkpt>
      <trkpt lat="26.7203771" lon="72.9035021">
      </trkpt>
      <trkpt lat="26.7200512" lon="72.903454">
      </trkpt>
      <trkpt lat="26.7197295" lon="72.9033623">
      </trkpt>
      <trkpt lat="26.7194209" lon="72.9032374">
      </trkpt>
      <trkpt lat="26.719129" lon="72.9030763">
      </trkpt>
      <trkpt lat="26.7188793" lon="72.9029038">
      </trkpt>
      <trkpt lat="26.718583" lon="72.9026509">
      </trkpt>
      <trkpt lat="26.7182512" lon="72.9023">
      </trkpt>
      <trkpt lat="26.7174902" lon="72.9014531">
      </trkpt>
      <trkpt lat="26.7167355" lon="72.9006236">
      </trkpt>
      <trkpt lat="26.7148651" lon="72.898528">
      </trkpt>
      <trkpt lat="26.7141351" lon="72.8977641">
      </trkpt>
      <trkpt lat="26.7137091" lon="72.8972952">
      </trkpt>
      <trkpt lat="26.7134458" lon="72.8970294">
      </trkpt>
      <trkpt lat="26.713055" lon="72.8966783">
      </trkpt>
      <trkpt lat="26.7126217" lon="72.8963336">
      </trkpt>
      <trkpt lat="26.7123655" lon="72.8961694">
      </trkpt>
      <trkpt lat="26.7120225" lon="72.8959854">
      </trkpt>
      <trkpt lat="26.7115028" lon="72.8957336">
      </trkpt>
      <trkpt lat="26.7110256" lon="72.8955564">
      </trkpt>
      <trkpt lat="26.710465" lon="72.8954082">
      </trkpt>
      <trkpt lat="26.7099382" lon="72.8953232">
      </trkpt>
      <trkpt lat="26.7096036" lon="72.8952945">
      </trkpt>
      <trkpt lat="26.7090234" lon="72.8952965">
      </trkpt>
      <trkpt lat="26.7086154" lon="72.8953259">
      </trkpt>
      <trkpt lat="26.7081616" lon="72.895401">
      </trkpt>
      <trkpt lat="26.6965287" lon="72.8984093">
      </trkpt>
      <trkpt lat="26.6953261" lon="72.8987295">
      </trkpt>
      <trkpt lat="26.6944175" lon="72.8989734">
      </trkpt>
      <trkpt lat="26.6939636" lon="72.89914">
      </trkpt>
      <trkpt lat="26.693585" lon="72.8993285">
      </trkpt>
      <trkpt lat="26.6932956" lon="72.8994982">
      </trkpt>
      <trkpt lat="26.6929552" lon="72.8997314">
      </trkpt>
      <trkpt lat="26.6924226" lon="72.9001822">
      </trkpt>
      <trkpt lat="26.6919542" lon="72.9007123">
      </trkpt>
      <trkpt lat="26.6915338" lon="72.9012168">
      </trkpt>
      <trkpt lat="26.6897839" lon="72.9033075">
      </trkpt>
      <trkpt lat="26.6884812" lon="72.9049024">
      </trkpt>
      <trkpt lat="26.6880936" lon="72.9052978">
      </trkpt>
      <trkpt lat="26.6878238" lon="72.905531">
      </trkpt>
      <trkpt lat="26.6874957" lon="72.9057816">
      </trkpt>
      <trkpt lat="26.6871261" lon="72.9060141">
      </trkpt>
      <trkpt lat="26.6867052" lon="72.9062421">
      </trkpt>
      <trkpt lat="26.6860135" lon="72.9064889">
      </trkpt>
      <trkpt lat="26.6851373" lon="72.9067442">
      </trkpt>
      <trkpt lat="26.6768522" lon="72.9090812">
      </trkpt>
      <trkpt lat="26.6705861" lon="72.9108537">
      </trkpt>
      <trkpt lat="26.6650658" lon="72.9124175">
      </trkpt>
      <trkpt lat="26.66433" lon="72.9126443">
      </trkpt>
      <trkpt lat="26.660624" lon="72.9136842">
      </trkpt>
      <trkpt lat="26.6591236" lon="72.9141135">
      </trkpt>
      <trkpt lat="26.6575162" lon="72.9145207">
      </trkpt>
      <trkpt lat="26.6565731" lon="72.9146113">
      </trkpt>
      <trkpt lat="26.6528997" lon="72.9148842">
      </trkpt>
      <trkpt lat="26.6491665" lon="72.9151316">
      </trkpt>
      <trkpt lat="26.6410502" lon="72.9157379">
      </trkpt>
      <trkpt lat="26.6345153" lon="72.9161655">
      </trkpt>
      <trkpt lat="26.6311559" lon="72.9164028">
      </trkpt>
      <trkpt lat="26.6293708" lon="72.9165335">
      </trkpt>
      <trkpt lat="26.627769" lon="72.9166493">
      </trkpt>
      <trkpt lat="26.6122981" lon="72.9177455">
      </trkpt>
      <trkpt lat="26.6085855" lon="72.9179607">
      </trkpt>
      <trkpt lat="26.6079623" lon="72.91787">
      </trkpt>
      <trkpt lat="26.607459" lon="72.9177303">
      </trkpt>
      <trkpt lat="26.6069122" lon="72.9175371">
      </trkpt>
      <trkpt lat="26.6062073" lon="72.9171519">
      </trkpt>
      <trkpt lat="26.6037441" lon="72.9153822">
      </trkpt>
      <trkpt lat="26.6012994" lon="72.9135926">
      </trkpt>
      <trkpt lat="26.5992684" lon="72.9121017">
      </trkpt>
      <trkpt lat="26.5974589" lon="72.910827">
      </trkpt>
      <trkpt lat="26.5945322" lon="72.9087096">
      </trkpt>
      <trkpt lat="26.5938635" lon="72.908212">
      </trkpt>
      <trkpt lat="26.5932329" lon="72.9077695">
      </trkpt>
      <trkpt lat="26.5882728" lon="72.9041632">
      </trkpt>
      <trkpt lat="26.5856752" lon="72.9022827">
      </trkpt>
      <trkpt lat="26.5831081" lon="72.9004249">
      </trkpt>
      <trkpt lat="26.5702797" lon="72.8911072">
      </trkpt>
      <trkpt lat="26.5635459" lon="72.8862314">
      </trkpt>
      <trkpt lat="26.562934" lon="72.8858198">
      </trkpt>
      <trkpt lat="26.5622001" lon="72.8854568">
      </trkpt>
      <trkpt lat="26.5616405" lon="72.8852699">
      </trkpt>
      <trkpt lat="26.5610871" lon="72.8851682">
      </trkpt>
      <trkpt lat="26.5605127" lon="72.8851362">
      </trkpt>
      <trkpt lat="26.5600514" lon="72.8851626">
      </trkpt>
      <trkpt lat="26.5593958" lon="72.8852638">
      </trkpt>
      <trkpt lat="26.5589908" lon="72.8853701">
      </trkpt>
      <trkpt lat="26.5586419" lon="72.8854784">
      </trkpt>
      <trkpt lat="26.5580234" lon="72.8858046">
      </trkpt>
      <trkpt lat="26.5575455" lon="72.8861203">
      </trkpt>
      <trkpt lat="26.5560169" lon="72.8872897">
      </trkpt>
      <trkpt lat="26.5554588" lon="72.8877427">
      </trkpt>
      <trkpt lat="26.5519759" lon="72.8906051">
      </trkpt>
      <trkpt lat="26.5493687" lon="72.892702">
      </trkpt>
      <trkpt lat="26.5481255" lon="72.8938114">
      </trkpt>
      <trkpt lat="26.5475076" lon="72.894472">
      </trkpt>
      <trkpt lat="26.5462663" lon="72.8961668">
      </trkpt>
      <trkpt lat="26.5439692" lon="72.8998142">
      </trkpt>
      <trkpt lat="26.5400943" lon="72.9058307">
      </trkpt>
      <trkpt lat="26.5362828" lon="72.9116754">
      </trkpt>
      <trkpt lat="26.5359528" lon="72.9123496">
      </trkpt>
      <trkpt lat="26.5356761" lon="72.9129555">
      </trkpt>
      <trkpt lat="26.5354531" lon="72.9136429">
      </trkpt>
      <trkpt lat="26.5352993" lon="72.9146226">
      </trkpt>
      <trkpt lat="26.5352494" lon="72.9155206">
      </trkpt>
      <trkpt lat="26.5352963" lon="72.9167757">
      </trkpt>
      <trkpt lat="26.5353566" lon="72.9186087">
      </trkpt>
      <trkpt lat="26.5354685" lon="72.9237873">
      </trkpt>
      <trkpt lat="26.5355846" lon="72.9288414">
      </trkpt>
      <trkpt lat="26.5357875" lon="72.9377557">
      </trkpt>
      <trkpt lat="26.5358759" lon="72.9421469">
      </trkpt>
      <trkpt lat="26.5360489" lon="72.9445315">
      </trkpt>
      <trkpt lat="26.5362021" lon="72.9466986">
      </trkpt>
      <trkpt lat="26.5374581" lon="72.960845">
      </trkpt>
      <trkpt lat="26.5382127" lon="72.9697113">
      </trkpt>
      <trkpt lat="26.5383112" lon="72.9712691">
      </trkpt>
      <trkpt lat="26.538189" lon="72.9724299">
      </trkpt>
      <trkpt lat="26.5379456" lon="72.973278">
      </trkpt>
      <trkpt lat="26.5376254" lon="72.9740402">
      </trkpt>
      <trkpt lat="26.5372709" lon="72.9747431">
      </trkpt>
      <trkpt lat="26.5365805" lon="72.9755855">
      </trkpt>
      <trkpt lat="26.5344277" lon="72.9776635">
      </trkpt>
      <trkpt lat="26.532945" lon="72.9790347">
      </trkpt>
      <trkpt lat="26.5319619" lon="72.9798905">
      </trkpt>
      <trkpt lat="26.5309654" lon="72.9808727">
      </trkpt>
      <trkpt lat="26.5305876" lon="72.981204">
      </trkpt>
      <trkpt lat="26.5304915" lon="72.9812742">
      </trkpt>
      <trkpt lat="26.5302216" lon="72.9815138">
      </trkpt>
      <trkpt lat="26.5298482" lon="72.9818241">
      </trkpt>
      <trkpt lat="26.5293161" lon="72.9821524">
      </trkpt>
      <trkpt lat="26.528825" lon="72.9823921">
      </trkpt>
      <trkpt lat="26.5281141" lon="72.9826655">
      </trkpt>
      <trkpt lat="26.5274725" lon="72.9829604">
      </trkpt>
      <trkpt lat="26.5271426" lon="72.9831448">
      </trkpt>
      <trkpt lat="26.526882" lon="72.9833342">
      </trkpt>
      <trkpt lat="26.5265891" lon="72.9835946">
      </trkpt>
      <trkpt lat="26.5262593" lon="72.9839558">
      </trkpt>
      <trkpt lat="26.5256406" lon="72.9846604">
      </trkpt>
      <trkpt lat="26.5251226" lon="72.9852065">
      </trkpt>
      <trkpt lat="26.5247131" lon="72.9855334">
      </trkpt>
      <trkpt lat="26.5242782" lon="72.9858441">
      </trkpt>
      <trkpt lat="26.5188259" lon="72.9882325">
      </trkpt>
      <trkpt lat="26.5147926" lon="72.9900022">
      </trkpt>
      <trkpt lat="26.5106579" lon="72.9918083">
      </trkpt>
      <trkpt lat="26.5049595" lon="72.9946577">
      </trkpt>
      <trkpt lat="26.4992681" lon="72.9975416">
      </trkpt>
      <trkpt lat="26.4931985" lon="73.000402">
      </trkpt>
      <trkpt lat="26.4873208" lon="73.0030669">
      </trkpt>
      <trkpt lat="26.4839697" lon="73.004643">
      </trkpt>
      <trkpt lat="26.4809123" lon="73.0060144">
      </trkpt>
      <trkpt lat="26.4750383" lon="73.0087678">
      </trkpt>
      <trkpt lat="26.4690969" lon="73.0114977">
      </trkpt>
      <trkpt lat="26.4660514" lon="73.0128902">
      </trkpt>
      <trkpt lat="26.4646089" lon="73.0135564">
      </trkpt>
      <trkpt lat="26.4638782" lon="73.0139812">
      </trkpt>
      <trkpt lat="26.4631678" lon="73.0145324">
      </trkpt>
      <trkpt lat="26.462021" lon="73.0155313">
      </trkpt>
      <trkpt lat="26.4589725" lon="73.0181868">
      </trkpt>
      <trkpt lat="26.4546827" lon="73.0219008">
      </trkpt>
      <trkpt lat="26.4530153" lon="73.0233501">
      </trkpt>
      <trkpt lat="26.4521727" lon="73.0240455">
      </trkpt>
      <trkpt lat="26.4517552" lon="73.0243162">
      </trkpt>
      <trkpt lat="26.4512579" lon="73.0245616">
      </trkpt>
      <trkpt lat="26.4505995" lon="73.0247909">
      </trkpt>
      <trkpt lat="26.4499434" lon="73.024895">
      </trkpt>
      <trkpt lat="26.4493821" lon="73.0249307">
      </trkpt>
      <trkpt lat="26.4469645" lon="73.0248159">
      </trkpt>
      <trkpt lat="26.4456969" lon="73.0248533">
      </trkpt>
      <trkpt lat="26.4450296" lon="73.0249741">
      </trkpt>
      <trkpt lat="26.4445316" lon="73.0251296">
      </trkpt>
      <trkpt lat="26.4436986" lon="73.0254155">
      </trkpt>
      <trkpt lat="26.4429082" lon="73.0258194">
      </trkpt>
      <trkpt lat="26.4422492" lon="73.026235">
      </trkpt>
      <trkpt lat="26.4417008" lon="73.0266769">
      </trkpt>
      <trkpt lat="26.4408538" lon="73.0275391">
      </trkpt>
      <trkpt lat="26.4387536" lon="73.0301192">
      </trkpt>
      <trkpt lat="26.4343811" lon="73.035509">
      </trkpt>
      <trkpt lat="26.4299937" lon="73.0408984">
      </trkpt>
      <trkpt lat="26.4289036" lon="73.0422297">
      </trkpt>
      <trkpt lat="26.4283219" lon="73.0428293">
      </trkpt>
      <trkpt lat="26.427726" lon="73.0433555">
      </trkpt>
      <trkpt lat="26.4263272" lon="73.0443283">
      </trkpt>
      <trkpt lat="26.4243645" lon="73.0457496">
      </trkpt>
      <trkpt lat="26.4235079" lon="73.0463937">
      </trkpt>
      <trkpt lat="26.4221111" lon="73.047348">
      </trkpt>
      <trkpt lat="26.4187084" lon="73.0498107">
      </trkpt>
      <trkpt lat="26.4153172" lon="73.0522639">
      </trkpt>
      <trkpt lat="26.4134079" lon="73.0536028">
      </trkpt>
      <trkpt lat="26.4108825" lon="73.0554208">
      </trkpt>
      <trkpt lat="26.4083646" lon="73.0572373">
      </trkpt>
      <trkpt lat="26.4057996" lon="73.0590844">
      </trkpt>
      <trkpt lat="26.4054064" lon="73.059382">
      </trkpt>
      <trkpt lat="26.4032783" lon="73.0609195">
      </trkpt>
      <trkpt lat="26.402124" lon="73.0617422">
      </trkpt>
      <trkpt lat="26.4017539" lon="73.0619928">
      </trkpt>
      <trkpt lat="26.4014042" lon="73.0621752">
      </trkpt>
      <trkpt lat="26.4008484" lon="73.0624001">
      </trkpt>
      <trkpt lat="26.400449" lon="73.0625215">
      </trkpt>
      <trkpt lat="26.40001" lon="73.0626144">
      </trkpt>
      <trkpt lat="26.3995678" lon="73.0626575">
      </trkpt>
      <trkpt lat="26.3989375" lon="73.0626497">
      </trkpt>
      <trkpt lat="26.3974144" lon="73.0625189">
      </trkpt>
      <trkpt lat="26.3959308" lon="73.0623885">
      </trkpt>
      <trkpt lat="26.3933634" lon="73.0621285">
      </trkpt>
      <trkpt lat="26.3925343" lon="73.062026">
      </trkpt>
      <trkpt lat="26.3891884" lon="73.0617333">
      </trkpt>
      <trkpt lat="26.3862061" lon="73.0614537">
      </trkpt>
      <trkpt lat="26.3854251" lon="73.0614117">
      </trkpt>
      <trkpt lat="26.3847595" lon="73.0614086">
      </trkpt>
      <trkpt lat="26.3761699" lon="73.0625647">
      </trkpt>
      <trkpt lat="26.3749336" lon="73.0627092">
      </trkpt>
      <trkpt lat="26.3739282" lon="73.0628818">
      </trkpt>
      <trkpt lat="26.3726659" lon="73.0630536">
      </trkpt>
      <trkpt lat="26.3721617" lon="73.0630708">
      </trkpt>
      <trkpt lat="26.3715655" lon="73.0630387">
      </trkpt>
      <trkpt lat="26.3707146" lon="73.0628474">
      </trkpt>
      <trkpt lat="26.3699795" lon="73.0625424">
      </trkpt>
      <trkpt lat="26.3695566" lon="73.0623209">
      </trkpt>
      <trkpt lat="26.3691674" lon="73.0620355">
      </trkpt>
      <trkpt lat="26.3685491" lon="73.0614692">
      </trkpt>
      <trkpt lat="26.365093" lon="73.057101">
      </trkpt>
      <trkpt lat="26.3612054" lon="73.0521877">
      </trkpt>
      <trkpt lat="26.3597482" lon="73.050578">
      </trkpt>
      <trkpt lat="26.3583961" lon="73.0492169">
      </trkpt>
      <trkpt lat="26.3552219" lon="73.0461146">
      </trkpt>
      <trkpt lat="26.3528604" lon="73.0438191">
      </trkpt>
      <trkpt lat="26.3516691" lon="73.042853">
      </trkpt>
      <trkpt lat="26.3509701" lon="73.0423744">
      </trkpt>
      <trkpt lat="26.3502931" lon="73.0419382">
      </trkpt>
      <trkpt lat="26.3492036" lon="73.041223">
      </trkpt>
      <trkpt lat="26.348842" lon="73.0409856">
      </trkpt>
      <trkpt lat="26.3484979" lon="73.0408121">
      </trkpt>
      <trkpt lat="26.3481399" lon="73.0406525">
      </trkpt>
      <trkpt lat="26.3477274" lon="73.0405426">
      </trkpt>
      <trkpt lat="26.3470947" lon="73.0404191">
      </trkpt>
      <trkpt lat="26.3468418" lon="73.0403697">
      </trkpt>
      <trkpt lat="26.345984" lon="73.0402767">
      </trkpt>
      <trkpt lat="26.345289" lon="73.0403298">
      </trkpt>
      <trkpt lat="26.3443673" lon="73.0405214">
      </trkpt>
      <trkpt lat="26.3432715" lon="73.0407331">
      </trkpt>
      <trkpt lat="26.3423983" lon="73.0410321">
      </trkpt>
      <trkpt lat="26.3416948" lon="73.0414112">
      </trkpt>
      <trkpt lat="26.3408766" lon="73.041974">
      </trkpt>
      <trkpt lat="26.3405018" lon="73.042233">
      </trkpt>
      <trkpt lat="26.3392284" lon="73.043113">
      </trkpt>
      <trkpt lat="26.3361856" lon="73.0453149">
      </trkpt>
      <trkpt lat="26.3349747" lon="73.0460202">
      </trkpt>
      <trkpt lat="26.3341804" lon="73.0463614">
      </trkpt>
      <trkpt lat="26.333676" lon="73.0465032">
      </trkpt>
      <trkpt lat="26.3330201" lon="73.0466184">
      </trkpt>
      <trkpt lat="26.3323188" lon="73.0466096">
      </trkpt>
      <trkpt lat="26.3317541" lon="73.0465455">
      </trkpt>
      <trkpt lat="26.3311916" lon="73.0464088">
      </trkpt>
      <trkpt lat="26.3287492" lon="73.0455663">
      </trkpt>
      <trkpt lat="26.326068" lon="73.0446611">
      </trkpt>
      <trkpt lat="26.3255786" lon="73.0445485">
      </trkpt>
      <trkpt lat="26.3251214" lon="73.0445273">
      </trkpt>
      <trkpt lat="26.3248342" lon="73.0445406">
      </trkpt>
      <trkpt lat="26.3245333" lon="73.0445799">
      </trkpt>
      <trkpt lat="26.3242129" lon="73.0446299">
      </trkpt>
      <trkpt lat="26.3238794" lon="73.0447343">
      </trkpt>
      <trkpt lat="26.3227126" lon="73.0453652">
      </trkpt>
      <trkpt lat="26.3221754" lon="73.0456307">
      </trkpt>
      <trkpt lat="26.3215209" lon="73.0458416">
      </trkpt>
      <trkpt lat="26.3211211" lon="73.0459082">
      </trkpt>
      <trkpt lat="26.3207369" lon="73.0459199">
      </trkpt>
      <trkpt lat="26.3203132" lon="73.0458771">
      </trkpt>
      <trkpt lat="26.3186977" lon="73.0455396">
      </trkpt>
      <trkpt lat="26.3178899" lon="73.045333">
      </trkpt>
      <trkpt lat="26.3171409" lon="73.0450234">
      </trkpt>
      <trkpt lat="26.3165315" lon="73.0446303">
      </trkpt>
      <trkpt lat="26.3159256" lon="73.0441663">
      </trkpt>
      <trkpt lat="26.3147331" lon="73.043198">
      </trkpt>
      <trkpt lat="26.313531" lon="73.042219">
      </trkpt>
      <trkpt lat="26.3129244" lon="73.041785">
      </trkpt>
      <trkpt lat="26.3124814" lon="73.0414231">
      </trkpt>
      <trkpt lat="26.311329" lon="73.0404913">
      </trkpt>
      <trkpt lat="26.3102546" lon="73.0395917">
      </trkpt>
      <trkpt lat="26.3096345" lon="73.0390817">
      </trkpt>
      <trkpt lat="26.3091259" lon="73.0386508">
      </trkpt>
      <trkpt lat="26.3087823" lon="73.0384429">
      </trkpt>
      <trkpt lat="26.3084642" lon="73.0383072">
      </trkpt>
      <trkpt lat="26.3080444" lon="73.0381907">
      </trkpt>
      <trkpt lat="26.3077064" lon="73.0381534">
      </trkpt>
      <trkpt lat="26.3073931" lon="73.0381464">
      </trkpt>
      <trkpt lat="26.3063494" lon="73.0382196">
      </trkpt>
      <trkpt lat="26.3055517" lon="73.0382787">
      </trkpt>
      <trkpt lat="26.3046973" lon="73.0384894">
      </trkpt>
      <trkpt lat="26.3043533" lon="73.0386282">
      </trkpt>
      <trkpt lat="26.3038136" lon="73.0389185">
      </trkpt>
      <trkpt lat="26.3036465" lon="73.0389976">
      </trkpt>
      <trkpt lat="26.3025171" lon="73.0396148">
      </trkpt>
      <trkpt lat="26.3017487" lon="73.0400141">
      </trkpt>
      <trkpt lat="26.2979261" lon="73.0420752">
      </trkpt>
      <trkpt lat="26.2978016" lon="73.0421465">
      </trkpt>
      <trkpt lat="26.2976597" lon="73.0421975">
      </trkpt>
      <trkpt lat="26.2974144" lon="73.042345">
      </trkpt>
      <trkpt lat="26.2971908" lon="73.0424603">
      </trkpt>
      <trkpt lat="26.2970187" lon="73.0425569">
      </trkpt>
      <trkpt lat="26.2960701" lon="73.0430337">
      </trkpt>
      <trkpt lat="26.2958286" lon="73.0431208">
      </trkpt>
      <trkpt lat="26.2955242" lon="73.0431943">
      </trkpt>
      <trkpt lat="26.2948743" lon="73.0432281">
      </trkpt>
      <trkpt lat="26.2946346" lon="73.0432113">
      </trkpt>
      <trkpt lat="26.2943965" lon="73.043174">
      </trkpt>
      <trkpt lat="26.2941874" lon="73.0431201">
      </trkpt>
      <trkpt lat="26.294007" lon="73.0430531">
      </trkpt>
      <trkpt lat="26.2936223" lon="73.0428801">
      </trkpt>
      <trkpt lat="26.2933098" lon="73.0426779">
      </trkpt>
      <trkpt lat="26.2930913" lon="73.0425069">
      </trkpt>
      <trkpt lat="26.2929119" lon="73.0423191">
      </trkpt>
      <trkpt lat="26.29267" lon="73.0420026">
      </trkpt>
      <trkpt lat="26.2923563" lon="73.0415539">
      </trkpt>
      <trkpt lat="26.2904287" lon="73.0387378">
      </trkpt>
      <trkpt lat="26.2902602" lon="73.0384392">
      </trkpt>
      <trkpt lat="26.2901081" lon="73.0381052">
      </trkpt>
      <trkpt lat="26.289921" lon="73.0375946">
      </trkpt>
      <trkpt lat="26.2897872" lon="73.0371366">
      </trkpt>
      <trkpt lat="26.2896961" lon="73.0366449">
      </trkpt>
      <trkpt lat="26.2896168" lon="73.0360527">
      </trkpt>
      <trkpt lat="26.2894209" lon="73.0342686">
      </trkpt>
      <trkpt lat="26.2891745" lon="73.0320954">
      </trkpt>
      <trkpt lat="26.2891475" lon="73.0318575">
      </trkpt>
      <trkpt lat="26.2889535" lon="73.0301174">
      </trkpt>
      <trkpt lat="26.2889076" lon="73.0298233">
      </trkpt>
      <trkpt lat="26.2888397" lon="73.0294453">
      </trkpt>
      <trkpt lat="26.288767" lon="73.0291141">
      </trkpt>
      <trkpt lat="26.2886397" lon="73.0286702">
      </trkpt>
      <trkpt lat="26.2885533" lon="73.0283909">
      </trkpt>
      <trkpt lat="26.2884263" lon="73.0280609">
      </trkpt>
      <trkpt lat="26.2882974" lon="73.0277634">
      </trkpt>
      <trkpt lat="26.2881602" lon="73.0274808">
      </trkpt>
      <trkpt lat="26.2880143" lon="73.0272276">
      </trkpt>
      <trkpt lat="26.2878564" lon="73.0269788">
      </trkpt>
      <trkpt lat="26.2876183" lon="73.0266626">
      </trkpt>
      <trkpt lat="26.2873742" lon="73.0263486">
      </trkpt>
      <trkpt lat="26.2869368" lon="73.0258018">
      </trkpt>
      <trkpt lat="26.2868545" lon="73.025693">
      </trkpt>
      <trkpt lat="26.286486" lon="73.0252205">
      </trkpt>
      <trkpt lat="26.2863092" lon="73.0250301">
      </trkpt>
      <trkpt lat="26.2861003" lon="73.0248304">
      </trkpt>
      <trkpt lat="26.2858293" lon="73.024605">
      </trkpt>
      <trkpt lat="26.2855744" lon="73.0244158">
      </trkpt>
    </trkseg>
  </trk>
</gpx>