<?xml version="1.0" encoding="UTF-8"?>
<gpx xmlns="http://www.topografix.com/GPX/1/1" xmlns:xsi="http://www.w3.org/2001/XMLSchema-instance" xsi:schemaLocation="http://www.topografix.com/GPX/1/1 http://www.topografix.com/GPX/1/1/gpx.xsd" version="1.1" creator="gpx.py -- https://github.com/tkrajina/gpxpy">
  <wpt lat="26.2855201" lon="73.0245017">
    <name>Jodhpur</name>
  </wpt>
  <wpt lat="26.7276417" lon="73.9167772">
    <name>Merta Road Junction</name>
  </wpt>
  <wpt lat="26.8963218" lon="74.3147711">
    <name>Degana Junction</name>
  </wpt>
  <wpt lat="27.0364113" lon="74.7261332">
    <name>Makrana Junction</name>
  </wpt>
  <wpt lat="26.8726433" lon="75.2407451">
    <name>Phulera Junction</name>
  </wpt>
  <wpt lat="26.9204954" lon="75.7866329">
    <name>Jaipur Junction</name>
  </wpt>
  <trk>
    <name>Jodhpur - Jaipur (Vies regionals)</name>
    <trkseg>
      <trkpt lat="26.2855201" lon="73.0245017">
      </trkpt>
      <trkpt lat="26.2857017" lon="73.0246156">
      </trkpt>
      <trkpt lat="26.2858363" lon="73.0247216">
      </trkpt>
      <trkpt lat="26.2860624" lon="73.0249067">
      </trkpt>
      <trkpt lat="26.2862512" lon="73.0250958">
      </trkpt>
      <trkpt lat="26.2864496" lon="73.025305">
      </trkpt>
      <trkpt lat="26.2865692" lon="73.0254317">
      </trkpt>
      <trkpt lat="26.2867008" lon="73.025586">
      </trkpt>
      <trkpt lat="26.2868468" lon="73.0257752">
      </trkpt>
      <trkpt lat="26.2870922" lon="73.0260799">
      </trkpt>
      <trkpt lat="26.2874817" lon="73.0265675">
      </trkpt>
      <trkpt lat="26.2876718" lon="73.0268228">
      </trkpt>
      <trkpt lat="26.2878732" lon="73.0271088">
      </trkpt>
      <trkpt lat="26.28805" lon="73.0273958">
      </trkpt>
      <trkpt lat="26.2882532" lon="73.0277807">
      </trkpt>
      <trkpt lat="26.2883891" lon="73.0280837">
      </trkpt>
      <trkpt lat="26.2885045" lon="73.0283855">
      </trkpt>
      <trkpt lat="26.2886019" lon="73.0286805">
      </trkpt>
      <trkpt lat="26.288715" lon="73.0291137">
      </trkpt>
      <trkpt lat="26.2887883" lon="73.0294999">
      </trkpt>
      <trkpt lat="26.2888652" lon="73.0300391">
      </trkpt>
      <trkpt lat="26.2890342" lon="73.0316162">
      </trkpt>
      <trkpt lat="26.2891273" lon="73.0324047">
      </trkpt>
      <trkpt lat="26.2895506" lon="73.0362269">
      </trkpt>
      <trkpt lat="26.2896083" lon="73.0366588">
      </trkpt>
      <trkpt lat="26.2897021" lon="73.0371657">
      </trkpt>
      <trkpt lat="26.2898344" lon="73.0376244">
      </trkpt>
      <trkpt lat="26.2900243" lon="73.0381286">
      </trkpt>
      <trkpt lat="26.2901854" lon="73.038488">
      </trkpt>
      <trkpt lat="26.2903394" lon="73.0387804">
      </trkpt>
      <trkpt lat="26.2905606" lon="73.0391157">
      </trkpt>
      <trkpt lat="26.2936026" lon="73.0435306">
      </trkpt>
      <trkpt lat="26.2938791" lon="73.0439517">
      </trkpt>
      <trkpt lat="26.2941714" lon="73.0444555">
      </trkpt>
      <trkpt lat="26.2944383" lon="73.0450339">
      </trkpt>
      <trkpt lat="26.2946252" lon="73.0455146">
      </trkpt>
      <trkpt lat="26.2948189" lon="73.0461252">
      </trkpt>
      <trkpt lat="26.2969522" lon="73.0528587">
      </trkpt>
      <trkpt lat="26.2973569" lon="73.0541389">
      </trkpt>
      <trkpt lat="26.2987775" lon="73.0585953">
      </trkpt>
      <trkpt lat="26.2991114" lon="73.0596428">
      </trkpt>
      <trkpt lat="26.299623" lon="73.0612215">
      </trkpt>
      <trkpt lat="26.3001557" lon="73.0628525">
      </trkpt>
      <trkpt lat="26.3005214" lon="73.0640356">
      </trkpt>
      <trkpt lat="26.3009668" lon="73.0654552">
      </trkpt>
      <trkpt lat="26.3018838" lon="73.0683319">
      </trkpt>
      <trkpt lat="26.3018948" lon="73.0683666">
      </trkpt>
      <trkpt lat="26.3027896" lon="73.0711961">
      </trkpt>
      <trkpt lat="26.3036758" lon="73.0739182">
      </trkpt>
      <trkpt lat="26.3039724" lon="73.0746657">
      </trkpt>
      <trkpt lat="26.3042934" lon="73.0753874">
      </trkpt>
      <trkpt lat="26.3047303" lon="73.0762815">
      </trkpt>
      <trkpt lat="26.3051949" lon="73.0771749">
      </trkpt>
      <trkpt lat="26.3058976" lon="73.0786187">
      </trkpt>
      <trkpt lat="26.3067541" lon="73.0803785">
      </trkpt>
      <trkpt lat="26.3083703" lon="73.0836359">
      </trkpt>
      <trkpt lat="26.3091957" lon="73.0852954">
      </trkpt>
      <trkpt lat="26.3100237" lon="73.086946">
      </trkpt>
      <trkpt lat="26.3163604" lon="73.0997352">
      </trkpt>
      <trkpt lat="26.3248099" lon="73.1167997">
      </trkpt>
      <trkpt lat="26.3327921" lon="73.1329353">
      </trkpt>
      <trkpt lat="26.3378992" lon="73.1432595">
      </trkpt>
      <trkpt lat="26.338142" lon="73.1437501">
      </trkpt>
      <trkpt lat="26.3382784" lon="73.1440256">
      </trkpt>
      <trkpt lat="26.3397426" lon="73.146984">
      </trkpt>
      <trkpt lat="26.3413695" lon="73.1501984">
      </trkpt>
      <trkpt lat="26.3418654" lon="73.1514188">
      </trkpt>
      <trkpt lat="26.3423782" lon="73.1528125">
      </trkpt>
      <trkpt lat="26.3426976" lon="73.1536841">
      </trkpt>
      <trkpt lat="26.3427957" lon="73.1539519">
      </trkpt>
      <trkpt lat="26.342931" lon="73.1543264">
      </trkpt>
      <trkpt lat="26.3455047" lon="73.1614522">
      </trkpt>
      <trkpt lat="26.3479798" lon="73.1682641">
      </trkpt>
      <trkpt lat="26.3568639" lon="73.1927853">
      </trkpt>
      <trkpt lat="26.3676307" lon="73.2225057">
      </trkpt>
      <trkpt lat="26.369582" lon="73.2280978">
      </trkpt>
      <trkpt lat="26.3778029" lon="73.2508401">
      </trkpt>
      <trkpt lat="26.3816532" lon="73.2615159">
      </trkpt>
      <trkpt lat="26.3829186" lon="73.2650247">
      </trkpt>
      <trkpt lat="26.3856459" lon="73.2726093">
      </trkpt>
      <trkpt lat="26.3869222" lon="73.276159">
      </trkpt>
      <trkpt lat="26.3879919" lon="73.2791338">
      </trkpt>
      <trkpt lat="26.3899116" lon="73.284519">
      </trkpt>
      <trkpt lat="26.3921171" lon="73.29062">
      </trkpt>
      <trkpt lat="26.3957203" lon="73.3005873">
      </trkpt>
      <trkpt lat="26.3960401" lon="73.3014807">
      </trkpt>
      <trkpt lat="26.3962507" lon="73.3020691">
      </trkpt>
      <trkpt lat="26.3975264" lon="73.3056329">
      </trkpt>
      <trkpt lat="26.3988912" lon="73.3094156">
      </trkpt>
      <trkpt lat="26.3991901" lon="73.3102442">
      </trkpt>
      <trkpt lat="26.4015508" lon="73.316786">
      </trkpt>
      <trkpt lat="26.4045394" lon="73.3250501">
      </trkpt>
      <trkpt lat="26.405249" lon="73.3270119">
      </trkpt>
      <trkpt lat="26.4061246" lon="73.3294479">
      </trkpt>
      <trkpt lat="26.408398" lon="73.3357487">
      </trkpt>
      <trkpt lat="26.4084539" lon="73.3359044">
      </trkpt>
      <trkpt lat="26.4095236" lon="73.3388836">
      </trkpt>
      <trkpt lat="26.4106655" lon="73.3420318">
      </trkpt>
      <trkpt lat="26.4111505" lon="73.3433767">
      </trkpt>
      <trkpt lat="26.4130865" lon="73.3487457">
      </trkpt>
      <trkpt lat="26.4158603" lon="73.3564381">
      </trkpt>
      <trkpt lat="26.4183528" lon="73.3633206">
      </trkpt>
      <trkpt lat="26.4210835" lon="73.3708607">
      </trkpt>
      <trkpt lat="26.4214116" lon="73.3717904">
      </trkpt>
      <trkpt lat="26.4238147" lon="73.378505">
      </trkpt>
      <trkpt lat="26.4262426" lon="73.3851972">
      </trkpt>
      <trkpt lat="26.4266983" lon="73.3864555">
      </trkpt>
      <trkpt lat="26.4280346" lon="73.3901453">
      </trkpt>
      <trkpt lat="26.4288264" lon="73.3923595">
      </trkpt>
      <trkpt lat="26.4294778" lon="73.3941474">
      </trkpt>
      <trkpt lat="26.4296466" lon="73.3946108">
      </trkpt>
      <trkpt lat="26.43127" lon="73.39907">
      </trkpt>
      <trkpt lat="26.4367343" lon="73.4141459">
      </trkpt>
      <trkpt lat="26.4422308" lon="73.4293141">
      </trkpt>
      <trkpt lat="26.4432157" lon="73.4320353">
      </trkpt>
      <trkpt lat="26.4433687" lon="73.4324421">
      </trkpt>
      <trkpt lat="26.4440023" lon="73.4341154">
      </trkpt>
      <trkpt lat="26.4444326" lon="73.4350312">
      </trkpt>
      <trkpt lat="26.4449424" lon="73.435966">
      </trkpt>
      <trkpt lat="26.4455853" lon="73.4370455">
      </trkpt>
      <trkpt lat="26.4461911" lon="73.4380123">
      </trkpt>
      <trkpt lat="26.4481008" lon="73.4411855">
      </trkpt>
      <trkpt lat="26.4485862" lon="73.4419587">
      </trkpt>
      <trkpt lat="26.449309" lon="73.4431101">
      </trkpt>
      <trkpt lat="26.4499471" lon="73.4442204">
      </trkpt>
      <trkpt lat="26.4500781" lon="73.4444451">
      </trkpt>
      <trkpt lat="26.4510479" lon="73.4461085">
      </trkpt>
      <trkpt lat="26.4516498" lon="73.4471111">
      </trkpt>
      <trkpt lat="26.4525998" lon="73.4486498">
      </trkpt>
      <trkpt lat="26.4544073" lon="73.4515703">
      </trkpt>
      <trkpt lat="26.4547147" lon="73.452067">
      </trkpt>
      <trkpt lat="26.4547485" lon="73.452118">
      </trkpt>
      <trkpt lat="26.4551177" lon="73.452697">
      </trkpt>
      <trkpt lat="26.4568538" lon="73.4554525">
      </trkpt>
      <trkpt lat="26.4588556" lon="73.458719">
      </trkpt>
      <trkpt lat="26.4663754" lon="73.4710593">
      </trkpt>
      <trkpt lat="26.4741544" lon="73.4836983">
      </trkpt>
      <trkpt lat="26.4743391" lon="73.4840033">
      </trkpt>
      <trkpt lat="26.4799247" lon="73.4932308">
      </trkpt>
      <trkpt lat="26.4830638" lon="73.4982817">
      </trkpt>
      <trkpt lat="26.4860047" lon="73.5030919">
      </trkpt>
      <trkpt lat="26.4874311" lon="73.5054691">
      </trkpt>
      <trkpt lat="26.491944" lon="73.5128112">
      </trkpt>
      <trkpt lat="26.4977423" lon="73.5223235">
      </trkpt>
      <trkpt lat="26.5023767" lon="73.5297241">
      </trkpt>
      <trkpt lat="26.5071614" lon="73.5374832">
      </trkpt>
      <trkpt lat="26.5257999" lon="73.5681873">
      </trkpt>
      <trkpt lat="26.5273809" lon="73.5708015">
      </trkpt>
      <trkpt lat="26.5470683" lon="73.6029336">
      </trkpt>
      <trkpt lat="26.547962" lon="73.6043606">
      </trkpt>
      <trkpt lat="26.5655381" lon="73.6334316">
      </trkpt>
      <trkpt lat="26.5676116" lon="73.6367061">
      </trkpt>
      <trkpt lat="26.5688606" lon="73.6384232">
      </trkpt>
      <trkpt lat="26.5732518" lon="73.6433387">
      </trkpt>
      <trkpt lat="26.5790049" lon="73.6501392">
      </trkpt>
      <trkpt lat="26.5833885" lon="73.6553266">
      </trkpt>
      <trkpt lat="26.5851791" lon="73.6574456">
      </trkpt>
      <trkpt lat="26.6046335" lon="73.6803364">
      </trkpt>
      <trkpt lat="26.6070847" lon="73.6832721">
      </trkpt>
      <trkpt lat="26.6093893" lon="73.6859739">
      </trkpt>
      <trkpt lat="26.6094631" lon="73.6860604">
      </trkpt>
      <trkpt lat="26.6097116" lon="73.6863579">
      </trkpt>
      <trkpt lat="26.614608" lon="73.6921453">
      </trkpt>
      <trkpt lat="26.6159416" lon="73.6937452">
      </trkpt>
      <trkpt lat="26.6237772" lon="73.7031462">
      </trkpt>
      <trkpt lat="26.6254933" lon="73.7049216">
      </trkpt>
      <trkpt lat="26.6261108" lon="73.7054514">
      </trkpt>
      <trkpt lat="26.6384938" lon="73.7158659">
      </trkpt>
      <trkpt lat="26.6391853" lon="73.7165097">
      </trkpt>
      <trkpt lat="26.639717" lon="73.7170195">
      </trkpt>
      <trkpt lat="26.6449759" lon="73.7231488">
      </trkpt>
      <trkpt lat="26.6453029" lon="73.7235744">
      </trkpt>
      <trkpt lat="26.6455413" lon="73.7239484">
      </trkpt>
      <trkpt lat="26.6458468" lon="73.7245161">
      </trkpt>
      <trkpt lat="26.6498208" lon="73.7325601">
      </trkpt>
      <trkpt lat="26.6499711" lon="73.7328563">
      </trkpt>
      <trkpt lat="26.6501928" lon="73.7333102">
      </trkpt>
      <trkpt lat="26.6509935" lon="73.7349665">
      </trkpt>
      <trkpt lat="26.6539812" lon="73.7410178">
      </trkpt>
      <trkpt lat="26.6541702" lon="73.7414007">
      </trkpt>
      <trkpt lat="26.6546785" lon="73.74244">
      </trkpt>
      <trkpt lat="26.6566286" lon="73.7463951">
      </trkpt>
      <trkpt lat="26.6592857" lon="73.7518097">
      </trkpt>
      <trkpt lat="26.6642971" lon="73.7619352">
      </trkpt>
      <trkpt lat="26.6705937" lon="73.7749512">
      </trkpt>
      <trkpt lat="26.6716213" lon="73.7768786">
      </trkpt>
      <trkpt lat="26.672991" lon="73.7792025">
      </trkpt>
      <trkpt lat="26.6768142" lon="73.7843268">
      </trkpt>
      <trkpt lat="26.6788122" lon="73.7870034">
      </trkpt>
      <trkpt lat="26.6806703" lon="73.7894463">
      </trkpt>
      <trkpt lat="26.6830217" lon="73.7934195">
      </trkpt>
      <trkpt lat="26.6916705" lon="73.8076747">
      </trkpt>
      <trkpt lat="26.6960619" lon="73.8150366">
      </trkpt>
      <trkpt lat="26.6984752" lon="73.8190299">
      </trkpt>
      <trkpt lat="26.7003298" lon="73.822223">
      </trkpt>
      <trkpt lat="26.7014541" lon="73.8238988">
      </trkpt>
      <trkpt lat="26.701812" lon="73.8245684">
      </trkpt>
      <trkpt lat="26.7022406" lon="73.8255041">
      </trkpt>
      <trkpt lat="26.7025932" lon="73.826344">
      </trkpt>
      <trkpt lat="26.7029046" lon="73.8272686">
      </trkpt>
      <trkpt lat="26.703196" lon="73.8282355">
      </trkpt>
      <trkpt lat="26.7254888" lon="73.9087252">
      </trkpt>
      <trkpt lat="26.7255269" lon="73.9088547">
      </trkpt>
      <trkpt lat="26.7257353" lon="73.9096427">
      </trkpt>
      <trkpt lat="26.7260849" lon="73.9109205">
      </trkpt>
      <trkpt lat="26.7258838" lon="73.910379">
      </trkpt>
      <trkpt lat="26.726272" lon="73.911772">
      </trkpt>
      <trkpt lat="26.7264631" lon="73.9124953">
      </trkpt>
      <trkpt lat="26.7276417" lon="73.9167772">
      </trkpt>
      <trkpt lat="26.7283771" lon="73.9194328">
      </trkpt>
      <trkpt lat="26.728883" lon="73.9213515">
      </trkpt>
      <trkpt lat="26.7290618" lon="73.9219811">
      </trkpt>
      <trkpt lat="26.7292592" lon="73.922676">
      </trkpt>
      <trkpt lat="26.7297622" lon="73.9245208">
      </trkpt>
      <trkpt lat="26.7299858" lon="73.9252939">
      </trkpt>
      <trkpt lat="26.7313483" lon="73.9302946">
      </trkpt>
      <trkpt lat="26.7337784" lon="73.9390826">
      </trkpt>
      <trkpt lat="26.73778" lon="73.9536189">
      </trkpt>
      <trkpt lat="26.7425756" lon="73.9710572">
      </trkpt>
      <trkpt lat="26.7452667" lon="73.9808433">
      </trkpt>
      <trkpt lat="26.7455397" lon="73.9818276">
      </trkpt>
      <trkpt lat="26.7457673" lon="73.9824741">
      </trkpt>
      <trkpt lat="26.7480195" lon="73.9878512">
      </trkpt>
      <trkpt lat="26.749908" lon="73.9923596">
      </trkpt>
      <trkpt lat="26.752862" lon="73.999446">
      </trkpt>
      <trkpt lat="26.7549813" lon="74.0045269">
      </trkpt>
      <trkpt lat="26.7554646" lon="74.0056856">
      </trkpt>
      <trkpt lat="26.7569394" lon="74.0092188">
      </trkpt>
      <trkpt lat="26.7573874" lon="74.0102919">
      </trkpt>
      <trkpt lat="26.7593308" lon="74.0148842">
      </trkpt>
      <trkpt lat="26.7602003" lon="74.0169761">
      </trkpt>
      <trkpt lat="26.7604229" lon="74.0175116">
      </trkpt>
      <trkpt lat="26.7609018" lon="74.0186638">
      </trkpt>
      <trkpt lat="26.7610766" lon="74.019113">
      </trkpt>
      <trkpt lat="26.7612311" lon="74.0196079">
      </trkpt>
      <trkpt lat="26.7613815" lon="74.0201977">
      </trkpt>
      <trkpt lat="26.7615975" lon="74.0213996">
      </trkpt>
      <trkpt lat="26.7629962" lon="74.0288213">
      </trkpt>
      <trkpt lat="26.7643553" lon="74.0361343">
      </trkpt>
      <trkpt lat="26.7645732" lon="74.0371697">
      </trkpt>
      <trkpt lat="26.7647444" lon="74.0377423">
      </trkpt>
      <trkpt lat="26.7649001" lon="74.0381594">
      </trkpt>
      <trkpt lat="26.7651255" lon="74.0386803">
      </trkpt>
      <trkpt lat="26.7655884" lon="74.0395744">
      </trkpt>
      <trkpt lat="26.7661657" lon="74.0404634">
      </trkpt>
      <trkpt lat="26.7668878" lon="74.0414451">
      </trkpt>
      <trkpt lat="26.7678277" lon="74.0427554">
      </trkpt>
      <trkpt lat="26.7685737" lon="74.0437545">
      </trkpt>
      <trkpt lat="26.7694463" lon="74.0449589">
      </trkpt>
      <trkpt lat="26.771202" lon="74.0473917">
      </trkpt>
      <trkpt lat="26.7724675" lon="74.0491337">
      </trkpt>
      <trkpt lat="26.7744862" lon="74.0519124">
      </trkpt>
      <trkpt lat="26.7751783" lon="74.0528914">
      </trkpt>
      <trkpt lat="26.7757865" lon="74.053798">
      </trkpt>
      <trkpt lat="26.7772783" lon="74.0561879">
      </trkpt>
      <trkpt lat="26.7800959" lon="74.0606953">
      </trkpt>
      <trkpt lat="26.7818925" lon="74.0635976">
      </trkpt>
      <trkpt lat="26.782177" lon="74.0640463">
      </trkpt>
      <trkpt lat="26.7823511" lon="74.064321">
      </trkpt>
      <trkpt lat="26.7861114" lon="74.0702527">
      </trkpt>
      <trkpt lat="26.7863433" lon="74.0706288">
      </trkpt>
      <trkpt lat="26.7893251" lon="74.0754386">
      </trkpt>
      <trkpt lat="26.7908261" lon="74.0778172">
      </trkpt>
      <trkpt lat="26.7911852" lon="74.0784153">
      </trkpt>
      <trkpt lat="26.7916143" lon="74.0793485">
      </trkpt>
      <trkpt lat="26.7917983" lon="74.0797487">
      </trkpt>
      <trkpt lat="26.7921546" lon="74.0805271">
      </trkpt>
      <trkpt lat="26.7925619" lon="74.0814167">
      </trkpt>
      <trkpt lat="26.7992082" lon="74.0958309">
      </trkpt>
      <trkpt lat="26.808417" lon="74.1158733">
      </trkpt>
      <trkpt lat="26.8095479" lon="74.1183346">
      </trkpt>
      <trkpt lat="26.8121596" lon="74.1240504">
      </trkpt>
      <trkpt lat="26.8126885" lon="74.1252055">
      </trkpt>
      <trkpt lat="26.8132189" lon="74.1263638">
      </trkpt>
      <trkpt lat="26.8142901" lon="74.1287">
      </trkpt>
      <trkpt lat="26.818654" lon="74.1382393">
      </trkpt>
      <trkpt lat="26.8223402" lon="74.1462806">
      </trkpt>
      <trkpt lat="26.8274768" lon="74.1574614">
      </trkpt>
      <trkpt lat="26.839299" lon="74.1832843">
      </trkpt>
      <trkpt lat="26.8417436" lon="74.1886485">
      </trkpt>
      <trkpt lat="26.8437988" lon="74.193088">
      </trkpt>
      <trkpt lat="26.8439017" lon="74.1933107">
      </trkpt>
      <trkpt lat="26.8446239" lon="74.1948742">
      </trkpt>
      <trkpt lat="26.8446643" lon="74.1949607">
      </trkpt>
      <trkpt lat="26.8451" lon="74.1958924">
      </trkpt>
      <trkpt lat="26.8467331" lon="74.1993668">
      </trkpt>
      <trkpt lat="26.8482244" lon="74.2025265">
      </trkpt>
      <trkpt lat="26.848606" lon="74.2033373">
      </trkpt>
      <trkpt lat="26.8497603" lon="74.2057896">
      </trkpt>
      <trkpt lat="26.8501505" lon="74.206619">
      </trkpt>
      <trkpt lat="26.8550389" lon="74.2170119">
      </trkpt>
      <trkpt lat="26.8559214" lon="74.2188182">
      </trkpt>
      <trkpt lat="26.8577996" lon="74.2225756">
      </trkpt>
      <trkpt lat="26.8586457" lon="74.2241438">
      </trkpt>
      <trkpt lat="26.8604547" lon="74.2275904">
      </trkpt>
      <trkpt lat="26.8610769" lon="74.228835">
      </trkpt>
      <trkpt lat="26.8614406" lon="74.2297027">
      </trkpt>
      <trkpt lat="26.8617181" lon="74.2305325">
      </trkpt>
      <trkpt lat="26.8617792" lon="74.2307152">
      </trkpt>
      <trkpt lat="26.8671509" lon="74.2466247">
      </trkpt>
      <trkpt lat="26.869199" lon="74.2527214">
      </trkpt>
      <trkpt lat="26.8695926" lon="74.2537969">
      </trkpt>
      <trkpt lat="26.8698462" lon="74.254387">
      </trkpt>
      <trkpt lat="26.8706274" lon="74.2560527">
      </trkpt>
      <trkpt lat="26.873581" lon="74.2623411">
      </trkpt>
      <trkpt lat="26.8771458" lon="74.2699063">
      </trkpt>
      <trkpt lat="26.8808338" lon="74.2776176">
      </trkpt>
      <trkpt lat="26.8815156" lon="74.2790312">
      </trkpt>
      <trkpt lat="26.8821939" lon="74.2804688">
      </trkpt>
      <trkpt lat="26.8825838" lon="74.2813727">
      </trkpt>
      <trkpt lat="26.885624" lon="74.2888955">
      </trkpt>
      <trkpt lat="26.8872261" lon="74.2928982">
      </trkpt>
      <trkpt lat="26.8902317" lon="74.3001382">
      </trkpt>
      <trkpt lat="26.8934202" lon="74.3078707">
      </trkpt>
      <trkpt lat="26.8939773" lon="74.3092337">
      </trkpt>
      <trkpt lat="26.8947469" lon="74.3110184">
      </trkpt>
      <trkpt lat="26.8954852" lon="74.3127803">
      </trkpt>
      <trkpt lat="26.8959612" lon="74.3139125">
      </trkpt>
      <trkpt lat="26.8963218" lon="74.3147711">
      </trkpt>
      <trkpt lat="26.8990177" lon="74.3212733">
      </trkpt>
      <trkpt lat="26.8992508" lon="74.321822">
      </trkpt>
      <trkpt lat="26.8997513" lon="74.3230036">
      </trkpt>
      <trkpt lat="26.9003965" lon="74.3245526">
      </trkpt>
      <trkpt lat="26.9012055" lon="74.3264638">
      </trkpt>
      <trkpt lat="26.908878" lon="74.344745">
      </trkpt>
      <trkpt lat="26.9171735" lon="74.3655675">
      </trkpt>
      <trkpt lat="26.9175212" lon="74.3664739">
      </trkpt>
      <trkpt lat="26.9178942" lon="74.3677345">
      </trkpt>
      <trkpt lat="26.918143" lon="74.3687376">
      </trkpt>
      <trkpt lat="26.9197812" lon="74.3748745">
      </trkpt>
      <trkpt lat="26.9201423" lon="74.3760413">
      </trkpt>
      <trkpt lat="26.9205465" lon="74.3770418">
      </trkpt>
      <trkpt lat="26.9262646" lon="74.3883044">
      </trkpt>
      <trkpt lat="26.9291879" lon="74.3941517">
      </trkpt>
      <trkpt lat="26.9329891" lon="74.4036546">
      </trkpt>
      <trkpt lat="26.9358131" lon="74.4107679">
      </trkpt>
      <trkpt lat="26.9441379" lon="74.4312197">
      </trkpt>
      <trkpt lat="26.9501962" lon="74.4462224">
      </trkpt>
      <trkpt lat="26.9517157" lon="74.4499854">
      </trkpt>
      <trkpt lat="26.9518354" lon="74.4502761">
      </trkpt>
      <trkpt lat="26.9535488" lon="74.4544389">
      </trkpt>
      <trkpt lat="26.9541457" lon="74.4560438">
      </trkpt>
      <trkpt lat="26.9550424" lon="74.4585275">
      </trkpt>
      <trkpt lat="26.955374" lon="74.4594649">
      </trkpt>
      <trkpt lat="26.9554827" lon="74.4597732">
      </trkpt>
      <trkpt lat="26.9773603" lon="74.5219477">
      </trkpt>
      <trkpt lat="26.9831778" lon="74.5386454">
      </trkpt>
      <trkpt lat="26.9860965" lon="74.5467747">
      </trkpt>
      <trkpt lat="26.9872449" lon="74.5499732">
      </trkpt>
      <trkpt lat="26.9891809" lon="74.5555624">
      </trkpt>
      <trkpt lat="26.9896607" lon="74.5569607">
      </trkpt>
      <trkpt lat="26.99043" lon="74.5592083">
      </trkpt>
      <trkpt lat="26.9927672" lon="74.5658021">
      </trkpt>
      <trkpt lat="26.9931219" lon="74.566787">
      </trkpt>
      <trkpt lat="26.9947449" lon="74.5712934">
      </trkpt>
      <trkpt lat="27.0025052" lon="74.5932433">
      </trkpt>
      <trkpt lat="27.0138358" lon="74.625121">
      </trkpt>
      <trkpt lat="27.0161772" lon="74.6316174">
      </trkpt>
      <trkpt lat="27.0173265" lon="74.6349389">
      </trkpt>
      <trkpt lat="27.018533" lon="74.638172">
      </trkpt>
      <trkpt lat="27.0210287" lon="74.6451358">
      </trkpt>
      <trkpt lat="27.0216115" lon="74.6467729">
      </trkpt>
      <trkpt lat="27.0222367" lon="74.6484887">
      </trkpt>
      <trkpt lat="27.0227864" lon="74.6502223">
      </trkpt>
      <trkpt lat="27.0232729" lon="74.6519335">
      </trkpt>
      <trkpt lat="27.0254503" lon="74.6593412">
      </trkpt>
      <trkpt lat="27.0263424" lon="74.6623169">
      </trkpt>
      <trkpt lat="27.0268603" lon="74.6640441">
      </trkpt>
      <trkpt lat="27.0269697" lon="74.6644091">
      </trkpt>
      <trkpt lat="27.0272077" lon="74.6652431">
      </trkpt>
      <trkpt lat="27.027367" lon="74.6658013">
      </trkpt>
      <trkpt lat="27.0277244" lon="74.6671122">
      </trkpt>
      <trkpt lat="27.0287222" lon="74.6704666">
      </trkpt>
      <trkpt lat="27.0296312" lon="74.6735165">
      </trkpt>
      <trkpt lat="27.0297375" lon="74.6738732">
      </trkpt>
      <trkpt lat="27.0298393" lon="74.6742232">
      </trkpt>
      <trkpt lat="27.030281" lon="74.6757419">
      </trkpt>
      <trkpt lat="27.0304188" lon="74.6762155">
      </trkpt>
      <trkpt lat="27.0308408" lon="74.6776719">
      </trkpt>
      <trkpt lat="27.0319719" lon="74.6814817">
      </trkpt>
      <trkpt lat="27.0332922" lon="74.6859965">
      </trkpt>
      <trkpt lat="27.0340739" lon="74.6886695">
      </trkpt>
      <trkpt lat="27.0361698" lon="74.6958432">
      </trkpt>
      <trkpt lat="27.0374556" lon="74.7002335">
      </trkpt>
      <trkpt lat="27.0387331" lon="74.7046081">
      </trkpt>
      <trkpt lat="27.0389474" lon="74.7054622">
      </trkpt>
      <trkpt lat="27.0390454" lon="74.7060147">
      </trkpt>
      <trkpt lat="27.0391099" lon="74.7064894">
      </trkpt>
      <trkpt lat="27.0391744" lon="74.7075006">
      </trkpt>
      <trkpt lat="27.0395228" lon="74.7158007">
      </trkpt>
      <trkpt lat="27.0395696" lon="74.7166709">
      </trkpt>
      <trkpt lat="27.0395703" lon="74.7172203">
      </trkpt>
      <trkpt lat="27.0395846" lon="74.7179212">
      </trkpt>
      <trkpt lat="27.0395449" lon="74.7183844">
      </trkpt>
      <trkpt lat="27.0395014" lon="74.7189175">
      </trkpt>
      <trkpt lat="27.0394666" lon="74.7191611">
      </trkpt>
      <trkpt lat="27.0393758" lon="74.7196335">
      </trkpt>
      <trkpt lat="27.0392137" lon="74.7202089">
      </trkpt>
      <trkpt lat="27.0390281" lon="74.720777">
      </trkpt>
      <trkpt lat="27.038842" lon="74.7212323">
      </trkpt>
      <trkpt lat="27.0386995" lon="74.7215571">
      </trkpt>
      <trkpt lat="27.0385575" lon="74.7218355">
      </trkpt>
      <trkpt lat="27.0364113" lon="74.7261332">
      </trkpt>
      <trkpt lat="27.0362155" lon="74.7264977">
      </trkpt>
      <trkpt lat="27.0360945" lon="74.7266999">
      </trkpt>
      <trkpt lat="27.0358269" lon="74.7270839">
      </trkpt>
      <trkpt lat="27.0355309" lon="74.7275291">
      </trkpt>
      <trkpt lat="27.0352853" lon="74.7278819">
      </trkpt>
      <trkpt lat="27.0350716" lon="74.7281627">
      </trkpt>
      <trkpt lat="27.0348302" lon="74.7284501">
      </trkpt>
      <trkpt lat="27.026105" lon="74.7386716">
      </trkpt>
      <trkpt lat="27.0252866" lon="74.7396438">
      </trkpt>
      <trkpt lat="27.0249603" lon="74.7400366">
      </trkpt>
      <trkpt lat="27.0247615" lon="74.7403021">
      </trkpt>
      <trkpt lat="27.0245302" lon="74.7406386">
      </trkpt>
      <trkpt lat="27.0242727" lon="74.7410475">
      </trkpt>
      <trkpt lat="27.023975" lon="74.7416039">
      </trkpt>
      <trkpt lat="27.0237443" lon="74.7421252">
      </trkpt>
      <trkpt lat="27.0235513" lon="74.7426579">
      </trkpt>
      <trkpt lat="27.0233877" lon="74.7431692">
      </trkpt>
      <trkpt lat="27.0232585" lon="74.7436494">
      </trkpt>
      <trkpt lat="27.0231462" lon="74.7442055">
      </trkpt>
      <trkpt lat="27.0230857" lon="74.7446007">
      </trkpt>
      <trkpt lat="27.0230452" lon="74.7449911">
      </trkpt>
      <trkpt lat="27.0230261" lon="74.7454339">
      </trkpt>
      <trkpt lat="27.0228895" lon="74.7555336">
      </trkpt>
      <trkpt lat="27.0227883" lon="74.7645857">
      </trkpt>
      <trkpt lat="27.0227947" lon="74.7654845">
      </trkpt>
      <trkpt lat="27.0228453" lon="74.7662214">
      </trkpt>
      <trkpt lat="27.0230162" lon="74.7672494">
      </trkpt>
      <trkpt lat="27.0231942" lon="74.7680266">
      </trkpt>
      <trkpt lat="27.0259042" lon="74.780061">
      </trkpt>
      <trkpt lat="27.0273127" lon="74.7862938">
      </trkpt>
      <trkpt lat="27.0279451" lon="74.7891094">
      </trkpt>
      <trkpt lat="27.0282927" lon="74.7906589">
      </trkpt>
      <trkpt lat="27.0286211" lon="74.7921244">
      </trkpt>
      <trkpt lat="27.0287955" lon="74.7929833">
      </trkpt>
      <trkpt lat="27.0289237" lon="74.7938245">
      </trkpt>
      <trkpt lat="27.0290877" lon="74.7955523">
      </trkpt>
      <trkpt lat="27.0298988" lon="74.8040058">
      </trkpt>
      <trkpt lat="27.0299894" lon="74.8049102">
      </trkpt>
      <trkpt lat="27.0301368" lon="74.8057863">
      </trkpt>
      <trkpt lat="27.0303166" lon="74.8064564">
      </trkpt>
      <trkpt lat="27.030498" lon="74.8070513">
      </trkpt>
      <trkpt lat="27.0307571" lon="74.8076433">
      </trkpt>
      <trkpt lat="27.0310214" lon="74.8081863">
      </trkpt>
      <trkpt lat="27.0313091" lon="74.8086768">
      </trkpt>
      <trkpt lat="27.0316714" lon="74.809209">
      </trkpt>
      <trkpt lat="27.0349541" lon="74.8136423">
      </trkpt>
      <trkpt lat="27.0353048" lon="74.8141225">
      </trkpt>
      <trkpt lat="27.0381125" lon="74.8179638">
      </trkpt>
      <trkpt lat="27.0409226" lon="74.8218146">
      </trkpt>
      <trkpt lat="27.0413823" lon="74.8224371">
      </trkpt>
      <trkpt lat="27.0418313" lon="74.8231431">
      </trkpt>
      <trkpt lat="27.0420358" lon="74.8234933">
      </trkpt>
      <trkpt lat="27.0422417" lon="74.8239158">
      </trkpt>
      <trkpt lat="27.0426753" lon="74.824935">
      </trkpt>
      <trkpt lat="27.0435671" lon="74.8273595">
      </trkpt>
      <trkpt lat="27.0492045" lon="74.8410854">
      </trkpt>
      <trkpt lat="27.050902" lon="74.8455642">
      </trkpt>
      <trkpt lat="27.0545818" lon="74.8548285">
      </trkpt>
      <trkpt lat="27.0552932" lon="74.8572715">
      </trkpt>
      <trkpt lat="27.0557371" lon="74.8591136">
      </trkpt>
      <trkpt lat="27.0576501" lon="74.8691914">
      </trkpt>
      <trkpt lat="27.0594488" lon="74.8796816">
      </trkpt>
      <trkpt lat="27.0597689" lon="74.8818182">
      </trkpt>
      <trkpt lat="27.059726" lon="74.8829034">
      </trkpt>
      <trkpt lat="27.0595704" lon="74.8841111">
      </trkpt>
      <trkpt lat="27.0592236" lon="74.8855119">
      </trkpt>
      <trkpt lat="27.0586829" lon="74.8870904">
      </trkpt>
      <trkpt lat="27.0549633" lon="74.8978812">
      </trkpt>
      <trkpt lat="27.054491" lon="74.8993868">
      </trkpt>
      <trkpt lat="27.0540494" lon="74.9002787">
      </trkpt>
      <trkpt lat="27.0535936" lon="74.9010481">
      </trkpt>
      <trkpt lat="27.0531379" lon="74.9017112">
      </trkpt>
      <trkpt lat="27.0469407" lon="74.907374">
      </trkpt>
      <trkpt lat="27.046131" lon="74.9081862">
      </trkpt>
      <trkpt lat="27.0456962" lon="74.9087548">
      </trkpt>
      <trkpt lat="27.0452471" lon="74.9094844">
      </trkpt>
      <trkpt lat="27.0450226" lon="74.9100208">
      </trkpt>
      <trkpt lat="27.0448028" lon="74.9106055">
      </trkpt>
      <trkpt lat="27.0442056" lon="74.9129873">
      </trkpt>
      <trkpt lat="27.0382713" lon="74.9369158">
      </trkpt>
      <trkpt lat="27.0343644" lon="74.952914">
      </trkpt>
      <trkpt lat="27.0300001" lon="74.970644">
      </trkpt>
      <trkpt lat="27.0296824" lon="74.9719318">
      </trkpt>
      <trkpt lat="27.0295333" lon="74.9729237">
      </trkpt>
      <trkpt lat="27.0295249" lon="74.9735478">
      </trkpt>
      <trkpt lat="27.0295161" lon="74.9738848">
      </trkpt>
      <trkpt lat="27.0293739" lon="75.0009498">
      </trkpt>
      <trkpt lat="27.0293836" lon="75.0035819">
      </trkpt>
      <trkpt lat="27.0292902" lon="75.0080381">
      </trkpt>
      <trkpt lat="27.029301" lon="75.0124845">
      </trkpt>
      <trkpt lat="27.0291394" lon="75.0243051">
      </trkpt>
      <trkpt lat="27.0292158" lon="75.0254723">
      </trkpt>
      <trkpt lat="27.0292506" lon="75.0259828">
      </trkpt>
      <trkpt lat="27.0293571" lon="75.026712">
      </trkpt>
      <trkpt lat="27.0295815" lon="75.0275653">
      </trkpt>
      <trkpt lat="27.0299122" lon="75.0284464">
      </trkpt>
      <trkpt lat="27.0307682" lon="75.0301935">
      </trkpt>
      <trkpt lat="27.0310774" lon="75.0310173">
      </trkpt>
      <trkpt lat="27.0312236" lon="75.0315722">
      </trkpt>
      <trkpt lat="27.0313184" lon="75.0322564">
      </trkpt>
      <trkpt lat="27.0313968" lon="75.0331555">
      </trkpt>
      <trkpt lat="27.031847" lon="75.0386714">
      </trkpt>
      <trkpt lat="27.0323054" lon="75.0445933">
      </trkpt>
      <trkpt lat="27.0324627" lon="75.0466365">
      </trkpt>
      <trkpt lat="27.0325227" lon="75.0480784">
      </trkpt>
      <trkpt lat="27.0324094" lon="75.0494252">
      </trkpt>
      <trkpt lat="27.0324769" lon="75.0504358">
      </trkpt>
      <trkpt lat="27.0327017" lon="75.0517162">
      </trkpt>
      <trkpt lat="27.0332292" lon="75.0544638">
      </trkpt>
      <trkpt lat="27.0336504" lon="75.0566892">
      </trkpt>
      <trkpt lat="27.0337485" lon="75.0580269">
      </trkpt>
      <trkpt lat="27.0347044" lon="75.075234">
      </trkpt>
      <trkpt lat="27.03477" lon="75.0766427">
      </trkpt>
      <trkpt lat="27.0347072" lon="75.0777217">
      </trkpt>
      <trkpt lat="27.0344802" lon="75.0789799">
      </trkpt>
      <trkpt lat="27.0313348" lon="75.0927857">
      </trkpt>
      <trkpt lat="27.0306596" lon="75.0957053">
      </trkpt>
      <trkpt lat="27.0299605" lon="75.0986747">
      </trkpt>
      <trkpt lat="27.0295348" lon="75.0998046">
      </trkpt>
      <trkpt lat="27.0289813" lon="75.1008094">
      </trkpt>
      <trkpt lat="27.0283576" lon="75.1017033">
      </trkpt>
      <trkpt lat="27.0272891" lon="75.1027924">
      </trkpt>
      <trkpt lat="27.0252032" lon="75.1048007">
      </trkpt>
      <trkpt lat="27.0231332" lon="75.1068018">
      </trkpt>
      <trkpt lat="27.0189618" lon="75.1108147">
      </trkpt>
      <trkpt lat="27.0185082" lon="75.1112642">
      </trkpt>
      <trkpt lat="27.0177444" lon="75.1119633">
      </trkpt>
      <trkpt lat="27.0170234" lon="75.1125067">
      </trkpt>
      <trkpt lat="27.0156502" lon="75.1131734">
      </trkpt>
      <trkpt lat="27.0145778" lon="75.1134813">
      </trkpt>
      <trkpt lat="26.9917643" lon="75.1172991">
      </trkpt>
      <trkpt lat="26.9849108" lon="75.1185034">
      </trkpt>
      <trkpt lat="26.9782834" lon="75.119691">
      </trkpt>
      <trkpt lat="26.977623" lon="75.1197577">
      </trkpt>
      <trkpt lat="26.9769179" lon="75.1198231">
      </trkpt>
      <trkpt lat="26.975021" lon="75.1196921">
      </trkpt>
      <trkpt lat="26.9717206" lon="75.1193757">
      </trkpt>
      <trkpt lat="26.968115" lon="75.1189605">
      </trkpt>
      <trkpt lat="26.9610865" lon="75.1182176">
      </trkpt>
      <trkpt lat="26.9599148" lon="75.1180969">
      </trkpt>
      <trkpt lat="26.9594165" lon="75.1180544">
      </trkpt>
      <trkpt lat="26.9587361" lon="75.1180248">
      </trkpt>
      <trkpt lat="26.958095" lon="75.1181152">
      </trkpt>
      <trkpt lat="26.9574897" lon="75.1182781">
      </trkpt>
      <trkpt lat="26.9569901" lon="75.1184676">
      </trkpt>
      <trkpt lat="26.9561672" lon="75.1189148">
      </trkpt>
      <trkpt lat="26.9546895" lon="75.1198041">
      </trkpt>
      <trkpt lat="26.9539191" lon="75.1203634">
      </trkpt>
      <trkpt lat="26.953549" lon="75.1206987">
      </trkpt>
      <trkpt lat="26.9532533" lon="75.1210188">
      </trkpt>
      <trkpt lat="26.9529316" lon="75.1213675">
      </trkpt>
      <trkpt lat="26.9526437" lon="75.1217237">
      </trkpt>
      <trkpt lat="26.9523809" lon="75.1220796">
      </trkpt>
      <trkpt lat="26.9521723" lon="75.1224014">
      </trkpt>
      <trkpt lat="26.9519671" lon="75.12275">
      </trkpt>
      <trkpt lat="26.9517957" lon="75.1230551">
      </trkpt>
      <trkpt lat="26.9515978" lon="75.1234661">
      </trkpt>
      <trkpt lat="26.951427" lon="75.1238771">
      </trkpt>
      <trkpt lat="26.9512122" lon="75.1244645">
      </trkpt>
      <trkpt lat="26.9510498" lon="75.1250462">
      </trkpt>
      <trkpt lat="26.9508896" lon="75.1256578">
      </trkpt>
      <trkpt lat="26.9507487" lon="75.1261988">
      </trkpt>
      <trkpt lat="26.9506601" lon="75.1266203">
      </trkpt>
      <trkpt lat="26.950578" lon="75.1270708">
      </trkpt>
      <trkpt lat="26.9503239" lon="75.1286088">
      </trkpt>
      <trkpt lat="26.9494844" lon="75.1336281">
      </trkpt>
      <trkpt lat="26.9493281" lon="75.1346057">
      </trkpt>
      <trkpt lat="26.9492427" lon="75.1351394">
      </trkpt>
      <trkpt lat="26.9490779" lon="75.1362953">
      </trkpt>
      <trkpt lat="26.9488995" lon="75.1374056">
      </trkpt>
      <trkpt lat="26.9481715" lon="75.1419586">
      </trkpt>
      <trkpt lat="26.9473462" lon="75.1467255">
      </trkpt>
      <trkpt lat="26.9469419" lon="75.1482477">
      </trkpt>
      <trkpt lat="26.9463537" lon="75.1498842">
      </trkpt>
      <trkpt lat="26.9457286" lon="75.1512008">
      </trkpt>
      <trkpt lat="26.9453982" lon="75.1518844">
      </trkpt>
      <trkpt lat="26.9451219" lon="75.1523189">
      </trkpt>
      <trkpt lat="26.9448689" lon="75.1527274">
      </trkpt>
      <trkpt lat="26.9437901" lon="75.1542418">
      </trkpt>
      <trkpt lat="26.9429985" lon="75.1551413">
      </trkpt>
      <trkpt lat="26.9421861" lon="75.1559998">
      </trkpt>
      <trkpt lat="26.9413193" lon="75.1567273">
      </trkpt>
      <trkpt lat="26.9405292" lon="75.1573455">
      </trkpt>
      <trkpt lat="26.9235527" lon="75.1677341">
      </trkpt>
      <trkpt lat="26.9150557" lon="75.172935">
      </trkpt>
      <trkpt lat="26.9123975" lon="75.1745358">
      </trkpt>
      <trkpt lat="26.9075682" lon="75.1774822">
      </trkpt>
      <trkpt lat="26.9065581" lon="75.1780985">
      </trkpt>
      <trkpt lat="26.9052019" lon="75.1789285">
      </trkpt>
      <trkpt lat="26.903841" lon="75.1797447">
      </trkpt>
      <trkpt lat="26.902696" lon="75.1804437">
      </trkpt>
      <trkpt lat="26.9022983" lon="75.1807178">
      </trkpt>
      <trkpt lat="26.9019811" lon="75.1809604">
      </trkpt>
      <trkpt lat="26.9017352" lon="75.1811845">
      </trkpt>
      <trkpt lat="26.9014873" lon="75.1814424">
      </trkpt>
      <trkpt lat="26.9012222" lon="75.1817522">
      </trkpt>
      <trkpt lat="26.9010605" lon="75.1819752">
      </trkpt>
      <trkpt lat="26.9009434" lon="75.1821472">
      </trkpt>
      <trkpt lat="26.9005953" lon="75.1827045">
      </trkpt>
      <trkpt lat="26.9000384" lon="75.1837622">
      </trkpt>
      <trkpt lat="26.8997446" lon="75.1843383">
      </trkpt>
      <trkpt lat="26.8993822" lon="75.185031">
      </trkpt>
      <trkpt lat="26.8984467" lon="75.1868897">
      </trkpt>
      <trkpt lat="26.8817895" lon="75.219501">
      </trkpt>
      <trkpt lat="26.8755919" lon="75.2316345">
      </trkpt>
      <trkpt lat="26.8743172" lon="75.2347215">
      </trkpt>
      <trkpt lat="26.8735059" lon="75.2370662">
      </trkpt>
      <trkpt lat="26.8730958" lon="75.238237">
      </trkpt>
      <trkpt lat="26.8728505" lon="75.2389395">
      </trkpt>
      <trkpt lat="26.8727093" lon="75.2393934">
      </trkpt>
      <trkpt lat="26.8726294" lon="75.2397623">
      </trkpt>
      <trkpt lat="26.8726077" lon="75.2400113">
      </trkpt>
      <trkpt lat="26.8726027" lon="75.2402508">
      </trkpt>
      <trkpt lat="26.8726203" lon="75.2405272">
      </trkpt>
      <trkpt lat="26.8726433" lon="75.2407451">
      </trkpt>
      <trkpt lat="26.8725686" lon="75.2407519">
      </trkpt>
      <trkpt lat="26.8728446" lon="75.2425546">
      </trkpt>
      <trkpt lat="26.8729214" lon="75.2430846">
      </trkpt>
      <trkpt lat="26.8742564" lon="75.2518068">
      </trkpt>
      <trkpt lat="26.874426" lon="75.2529691">
      </trkpt>
      <trkpt lat="26.8745052" lon="75.2534249">
      </trkpt>
      <trkpt lat="26.8745603" lon="75.2537896">
      </trkpt>
      <trkpt lat="26.8746691" lon="75.2545107">
      </trkpt>
      <trkpt lat="26.8748482" lon="75.2556965">
      </trkpt>
      <trkpt lat="26.875282" lon="75.2584959">
      </trkpt>
      <trkpt lat="26.8761264" lon="75.2641125">
      </trkpt>
      <trkpt lat="26.8850683" lon="75.3226877">
      </trkpt>
      <trkpt lat="26.8850979" lon="75.3228767">
      </trkpt>
      <trkpt lat="26.8864629" lon="75.3318972">
      </trkpt>
      <trkpt lat="26.8864896" lon="75.3320717">
      </trkpt>
      <trkpt lat="26.8866813" lon="75.3333512">
      </trkpt>
      <trkpt lat="26.8910736" lon="75.3622751">
      </trkpt>
      <trkpt lat="26.8918764" lon="75.3674811">
      </trkpt>
      <trkpt lat="26.8936354" lon="75.3790907">
      </trkpt>
      <trkpt lat="26.8953946" lon="75.3907789">
      </trkpt>
      <trkpt lat="26.8965122" lon="75.3981327">
      </trkpt>
      <trkpt lat="26.8975042" lon="75.4046999">
      </trkpt>
      <trkpt lat="26.8976371" lon="75.4055797">
      </trkpt>
      <trkpt lat="26.8979139" lon="75.4074285">
      </trkpt>
      <trkpt lat="26.8982233" lon="75.40936">
      </trkpt>
      <trkpt lat="26.8987832" lon="75.4131947">
      </trkpt>
      <trkpt lat="26.8992349" lon="75.4165743">
      </trkpt>
      <trkpt lat="26.8995447" lon="75.4189431">
      </trkpt>
      <trkpt lat="26.8998412" lon="75.4209265">
      </trkpt>
      <trkpt lat="26.8999243" lon="75.4214786">
      </trkpt>
      <trkpt lat="26.9002171" lon="75.4234227">
      </trkpt>
      <trkpt lat="26.9009922" lon="75.428569">
      </trkpt>
      <trkpt lat="26.9012882" lon="75.4304208">
      </trkpt>
      <trkpt lat="26.9014236" lon="75.4314336">
      </trkpt>
      <trkpt lat="26.9015447" lon="75.4328291">
      </trkpt>
      <trkpt lat="26.9014775" lon="75.434687">
      </trkpt>
      <trkpt lat="26.9013776" lon="75.4354773">
      </trkpt>
      <trkpt lat="26.9012691" lon="75.4360922">
      </trkpt>
      <trkpt lat="26.9011777" lon="75.4365758">
      </trkpt>
      <trkpt lat="26.901078" lon="75.437031">
      </trkpt>
      <trkpt lat="26.900901" lon="75.4376283">
      </trkpt>
      <trkpt lat="26.9004055" lon="75.4391992">
      </trkpt>
      <trkpt lat="26.9001184" lon="75.4400092">
      </trkpt>
      <trkpt lat="26.8997651" lon="75.4411626">
      </trkpt>
      <trkpt lat="26.8996148" lon="75.4419369">
      </trkpt>
      <trkpt lat="26.8995365" lon="75.4425641">
      </trkpt>
      <trkpt lat="26.8995088" lon="75.4433066">
      </trkpt>
      <trkpt lat="26.8995235" lon="75.4438489">
      </trkpt>
      <trkpt lat="26.8995653" lon="75.4444665">
      </trkpt>
      <trkpt lat="26.8996359" lon="75.4451384">
      </trkpt>
      <trkpt lat="26.8997767" lon="75.4463076">
      </trkpt>
      <trkpt lat="26.8999168" lon="75.4474626">
      </trkpt>
      <trkpt lat="26.9001789" lon="75.4497258">
      </trkpt>
      <trkpt lat="26.9006318" lon="75.4536821">
      </trkpt>
      <trkpt lat="26.9009484" lon="75.4564005">
      </trkpt>
      <trkpt lat="26.9011272" lon="75.4579574">
      </trkpt>
      <trkpt lat="26.9016277" lon="75.4621873">
      </trkpt>
      <trkpt lat="26.902114" lon="75.4664628">
      </trkpt>
      <trkpt lat="26.9031126" lon="75.4750789">
      </trkpt>
      <trkpt lat="26.9051136" lon="75.492292">
      </trkpt>
      <trkpt lat="26.9059005" lon="75.4989857">
      </trkpt>
      <trkpt lat="26.9062695" lon="75.5021768">
      </trkpt>
      <trkpt lat="26.9065963" lon="75.5050188">
      </trkpt>
      <trkpt lat="26.9066453" lon="75.5054451">
      </trkpt>
      <trkpt lat="26.9085075" lon="75.521572">
      </trkpt>
      <trkpt lat="26.9087908" lon="75.5239746">
      </trkpt>
      <trkpt lat="26.9089893" lon="75.5256465">
      </trkpt>
      <trkpt lat="26.9099989" lon="75.5344721">
      </trkpt>
      <trkpt lat="26.9110287" lon="75.5433513">
      </trkpt>
      <trkpt lat="26.9113311" lon="75.5460096">
      </trkpt>
      <trkpt lat="26.9116533" lon="75.5487552">
      </trkpt>
      <trkpt lat="26.9119438" lon="75.5512967">
      </trkpt>
      <trkpt lat="26.9119604" lon="75.5514422">
      </trkpt>
      <trkpt lat="26.9123624" lon="75.5548327">
      </trkpt>
      <trkpt lat="26.9127418" lon="75.5581709">
      </trkpt>
      <trkpt lat="26.9131005" lon="75.5614003">
      </trkpt>
      <trkpt lat="26.9131649" lon="75.561955">
      </trkpt>
      <trkpt lat="26.9138698" lon="75.5680244">
      </trkpt>
      <trkpt lat="26.9146184" lon="75.5745309">
      </trkpt>
      <trkpt lat="26.9153841" lon="75.5811048">
      </trkpt>
      <trkpt lat="26.9161364" lon="75.5876935">
      </trkpt>
      <trkpt lat="26.9166484" lon="75.5920654">
      </trkpt>
      <trkpt lat="26.9171543" lon="75.5965558">
      </trkpt>
      <trkpt lat="26.9174237" lon="75.598809">
      </trkpt>
      <trkpt lat="26.9176613" lon="75.6010119">
      </trkpt>
      <trkpt lat="26.9182056" lon="75.605526">
      </trkpt>
      <trkpt lat="26.9186535" lon="75.6094494">
      </trkpt>
      <trkpt lat="26.9186654" lon="75.6095544">
      </trkpt>
      <trkpt lat="26.9187772" lon="75.6105359">
      </trkpt>
      <trkpt lat="26.9190911" lon="75.6132933">
      </trkpt>
      <trkpt lat="26.9195143" lon="75.6169423">
      </trkpt>
      <trkpt lat="26.9199353" lon="75.6206205">
      </trkpt>
      <trkpt lat="26.9200024" lon="75.6212034">
      </trkpt>
      <trkpt lat="26.9200111" lon="75.6212789">
      </trkpt>
      <trkpt lat="26.9203684" lon="75.6243842">
      </trkpt>
      <trkpt lat="26.9207994" lon="75.6281231">
      </trkpt>
      <trkpt lat="26.9210877" lon="75.6306094">
      </trkpt>
      <trkpt lat="26.9213821" lon="75.6331946">
      </trkpt>
      <trkpt lat="26.9220159" lon="75.6386805">
      </trkpt>
      <trkpt lat="26.9226413" lon="75.6441772">
      </trkpt>
      <trkpt lat="26.9230653" lon="75.6478435">
      </trkpt>
      <trkpt lat="26.9234921" lon="75.651561">
      </trkpt>
      <trkpt lat="26.923948" lon="75.6555197">
      </trkpt>
      <trkpt lat="26.9242365" lon="75.658088">
      </trkpt>
      <trkpt lat="26.924405" lon="75.6595884">
      </trkpt>
      <trkpt lat="26.9250109" lon="75.6648377">
      </trkpt>
      <trkpt lat="26.925624" lon="75.6701286">
      </trkpt>
      <trkpt lat="26.9261766" lon="75.6749529">
      </trkpt>
      <trkpt lat="26.9263602" lon="75.6765698">
      </trkpt>
      <trkpt lat="26.9267329" lon="75.6798513">
      </trkpt>
      <trkpt lat="26.9273557" lon="75.6852193">
      </trkpt>
      <trkpt lat="26.9279764" lon="75.6906786">
      </trkpt>
      <trkpt lat="26.928042" lon="75.6913745">
      </trkpt>
      <trkpt lat="26.9282583" lon="75.6931865">
      </trkpt>
      <trkpt lat="26.9283214" lon="75.6937238">
      </trkpt>
      <trkpt lat="26.9284119" lon="75.6944944">
      </trkpt>
      <trkpt lat="26.9285666" lon="75.6957394">
      </trkpt>
      <trkpt lat="26.9288564" lon="75.6982873">
      </trkpt>
      <trkpt lat="26.9291504" lon="75.7008294">
      </trkpt>
      <trkpt lat="26.9295751" lon="75.704607">
      </trkpt>
      <trkpt lat="26.9297293" lon="75.7059779">
      </trkpt>
      <trkpt lat="26.9298635" lon="75.7073047">
      </trkpt>
      <trkpt lat="26.9298822" lon="75.7074711">
      </trkpt>
      <trkpt lat="26.9302827" lon="75.7110282">
      </trkpt>
      <trkpt lat="26.9304776" lon="75.7125856">
      </trkpt>
      <trkpt lat="26.9308" lon="75.7154564">
      </trkpt>
      <trkpt lat="26.9311156" lon="75.7182745">
      </trkpt>
      <trkpt lat="26.9311252" lon="75.7183605">
      </trkpt>
      <trkpt lat="26.931258" lon="75.7195455">
      </trkpt>
      <trkpt lat="26.9318411" lon="75.7244417">
      </trkpt>
      <trkpt lat="26.9328713" lon="75.7334494">
      </trkpt>
      <trkpt lat="26.9335483" lon="75.7394277">
      </trkpt>
      <trkpt lat="26.9339998" lon="75.7433834">
      </trkpt>
      <trkpt lat="26.9344674" lon="75.7474661">
      </trkpt>
      <trkpt lat="26.9345206" lon="75.7480204">
      </trkpt>
      <trkpt lat="26.9345573" lon="75.7486155">
      </trkpt>
      <trkpt lat="26.9345859" lon="75.7493206">
      </trkpt>
      <trkpt lat="26.9345792" lon="75.7501074">
      </trkpt>
      <trkpt lat="26.9345402" lon="75.7509725">
      </trkpt>
      <trkpt lat="26.934469" lon="75.7521673">
      </trkpt>
      <trkpt lat="26.9341476" lon="75.7573601">
      </trkpt>
      <trkpt lat="26.933954" lon="75.760461">
      </trkpt>
      <trkpt lat="26.9338705" lon="75.7618241">
      </trkpt>
      <trkpt lat="26.9337961" lon="75.7631348">
      </trkpt>
      <trkpt lat="26.9337219" lon="75.7639522">
      </trkpt>
      <trkpt lat="26.9336347" lon="75.7646568">
      </trkpt>
      <trkpt lat="26.9335276" lon="75.7653385">
      </trkpt>
      <trkpt lat="26.933379" lon="75.7660472">
      </trkpt>
      <trkpt lat="26.9332833" lon="75.7664056">
      </trkpt>
      <trkpt lat="26.9331991" lon="75.766753">
      </trkpt>
      <trkpt lat="26.9330439" lon="75.7673163">
      </trkpt>
      <trkpt lat="26.9328369" lon="75.7679971">
      </trkpt>
      <trkpt lat="26.9326779" lon="75.7684501">
      </trkpt>
      <trkpt lat="26.9325424" lon="75.7688161">
      </trkpt>
      <trkpt lat="26.9322901" lon="75.769439">
      </trkpt>
      <trkpt lat="26.9321511" lon="75.7697591">
      </trkpt>
      <trkpt lat="26.931829" lon="75.7704499">
      </trkpt>
      <trkpt lat="26.9314192" lon="75.7712244">
      </trkpt>
      <trkpt lat="26.9311752" lon="75.7716597">
      </trkpt>
      <trkpt lat="26.9310054" lon="75.7719453">
      </trkpt>
      <trkpt lat="26.9302931" lon="75.7731367">
      </trkpt>
      <trkpt lat="26.9294683" lon="75.7744901">
      </trkpt>
      <trkpt lat="26.9291036" lon="75.7751021">
      </trkpt>
      <trkpt lat="26.9286086" lon="75.7759177">
      </trkpt>
      <trkpt lat="26.9282618" lon="75.776489">
      </trkpt>
      <trkpt lat="26.9274174" lon="75.7778945">
      </trkpt>
      <trkpt lat="26.9271697" lon="75.7782945">
      </trkpt>
      <trkpt lat="26.9269034" lon="75.7786959">
      </trkpt>
      <trkpt lat="26.926694" lon="75.7789794">
      </trkpt>
      <trkpt lat="26.9265012" lon="75.7792262">
      </trkpt>
      <trkpt lat="26.9262862" lon="75.7794955">
      </trkpt>
      <trkpt lat="26.9261336" lon="75.7796834">
      </trkpt>
      <trkpt lat="26.9260396" lon="75.7797994">
      </trkpt>
      <trkpt lat="26.9258168" lon="75.7800745">
      </trkpt>
      <trkpt lat="26.9250088" lon="75.7810304">
      </trkpt>
      <trkpt lat="26.9247773" lon="75.7813074">
      </trkpt>
      <trkpt lat="26.9236868" lon="75.7826576">
      </trkpt>
      <trkpt lat="26.9234609" lon="75.7829331">
      </trkpt>
      <trkpt lat="26.9204954" lon="75.7866329">
      </trkpt>
    </trkseg>
  </trk>
</gpx>