<?xml version="1.0" encoding="UTF-8"?>
<gpx xmlns="http://www.topografix.com/GPX/1/1" xmlns:xsi="http://www.w3.org/2001/XMLSchema-instance" xsi:schemaLocation="http://www.topografix.com/GPX/1/1 http://www.topografix.com/GPX/1/1/gpx.xsd" version="1.1" creator="gpx.py -- https://github.com/tkrajina/gpxpy">
  <wpt lat="9.9194541" lon="78.109826">
    <name>Madurai Junction</name>
  </wpt>
  <wpt lat="9.5955977" lon="77.9576257">
    <name>Virudhunagar Junction</name>
  </wpt>
  <wpt lat="9.3410211" lon="77.9268642">
    <name>Satur</name>
  </wpt>
  <wpt lat="9.1834021" lon="77.8740915">
    <name>Kovilpatti</name>
  </wpt>
  <wpt lat="8.7306751" lon="77.7081285">
    <name>Tirunelveli Junction</name>
  </wpt>
  <wpt lat="8.0878718" lon="77.5461791">
    <name>Kanyakumari</name>
  </wpt>
  <trk>
    <name>Madurai - Kanyakumari (Vies regionals)</name>
    <trkseg>
      <trkpt lat="9.9194541" lon="78.109826">
      </trkpt>
      <trkpt lat="9.9189903" lon="78.1096493">
      </trkpt>
      <trkpt lat="9.9185267" lon="78.1094938">
      </trkpt>
      <trkpt lat="9.9183166" lon="78.1094401">
      </trkpt>
      <trkpt lat="9.9179269" lon="78.1093677">
      </trkpt>
      <trkpt lat="9.9176616" lon="78.1093162">
      </trkpt>
      <trkpt lat="9.9173617" lon="78.1092822">
      </trkpt>
      <trkpt lat="9.9170029" lon="78.1092522">
      </trkpt>
      <trkpt lat="9.9160261" lon="78.108923">
      </trkpt>
      <trkpt lat="9.915947" lon="78.1088935">
      </trkpt>
      <trkpt lat="9.9149515" lon="78.1084882">
      </trkpt>
      <trkpt lat="9.9148379" lon="78.108448">
      </trkpt>
      <trkpt lat="9.9144843" lon="78.1082781">
      </trkpt>
      <trkpt lat="9.91378" lon="78.1079662">
      </trkpt>
      <trkpt lat="9.9135693" lon="78.107873">
      </trkpt>
      <trkpt lat="9.9122779" lon="78.1071833">
      </trkpt>
      <trkpt lat="9.9109586" lon="78.1063363">
      </trkpt>
      <trkpt lat="9.9099735" lon="78.1056111">
      </trkpt>
      <trkpt lat="9.9097033" lon="78.1054177">
      </trkpt>
      <trkpt lat="9.9089964" lon="78.1048198">
      </trkpt>
      <trkpt lat="9.9082202" lon="78.1041356">
      </trkpt>
      <trkpt lat="9.907724" lon="78.1036483">
      </trkpt>
      <trkpt lat="9.907658" lon="78.1035786">
      </trkpt>
      <trkpt lat="9.9066927" lon="78.1025667">
      </trkpt>
      <trkpt lat="9.9059063" lon="78.1015905">
      </trkpt>
      <trkpt lat="9.9050758" lon="78.100454">
      </trkpt>
      <trkpt lat="9.9042254" lon="78.0992676">
      </trkpt>
      <trkpt lat="9.9039341" lon="78.0988893">
      </trkpt>
      <trkpt lat="9.9030255" lon="78.0976161">
      </trkpt>
      <trkpt lat="9.9022649" lon="78.0965569">
      </trkpt>
      <trkpt lat="9.9013319" lon="78.09527">
      </trkpt>
      <trkpt lat="9.9003433" lon="78.0939267">
      </trkpt>
      <trkpt lat="9.8998776" lon="78.0932135">
      </trkpt>
      <trkpt lat="9.8995963" lon="78.0928472">
      </trkpt>
      <trkpt lat="9.8995697" lon="78.0928004">
      </trkpt>
      <trkpt lat="9.8974112" lon="78.0898261">
      </trkpt>
      <trkpt lat="9.8963326" lon="78.0883637">
      </trkpt>
      <trkpt lat="9.8951437" lon="78.0866847">
      </trkpt>
      <trkpt lat="9.8932348" lon="78.0840515">
      </trkpt>
      <trkpt lat="9.8923587" lon="78.0828533">
      </trkpt>
      <trkpt lat="9.8913374" lon="78.0814874">
      </trkpt>
      <trkpt lat="9.8899102" lon="78.0795505">
      </trkpt>
      <trkpt lat="9.8888899" lon="78.0781183">
      </trkpt>
      <trkpt lat="9.8887728" lon="78.0779572">
      </trkpt>
      <trkpt lat="9.8887246" lon="78.0778909">
      </trkpt>
      <trkpt lat="9.8876654" lon="78.0764339">
      </trkpt>
      <trkpt lat="9.8863014" lon="78.0745013">
      </trkpt>
      <trkpt lat="9.8854436" lon="78.0733191">
      </trkpt>
      <trkpt lat="9.8844354" lon="78.0719058">
      </trkpt>
      <trkpt lat="9.8833394" lon="78.0703967">
      </trkpt>
      <trkpt lat="9.8830576" lon="78.0700097">
      </trkpt>
      <trkpt lat="9.8830274" lon="78.0699678">
      </trkpt>
      <trkpt lat="9.882853" lon="78.0697294">
      </trkpt>
      <trkpt lat="9.8820148" lon="78.0685691">
      </trkpt>
      <trkpt lat="9.8816691" lon="78.0681139">
      </trkpt>
      <trkpt lat="9.8814876" lon="78.0678772">
      </trkpt>
      <trkpt lat="9.8813754" lon="78.067744">
      </trkpt>
      <trkpt lat="9.8808952" lon="78.0671477">
      </trkpt>
      <trkpt lat="9.8806649" lon="78.0668978">
      </trkpt>
      <trkpt lat="9.8804999" lon="78.0667152">
      </trkpt>
      <trkpt lat="9.8802818" lon="78.066477">
      </trkpt>
      <trkpt lat="9.8798684" lon="78.0660642">
      </trkpt>
      <trkpt lat="9.879304" lon="78.0655192">
      </trkpt>
      <trkpt lat="9.8788051" lon="78.0650772">
      </trkpt>
      <trkpt lat="9.8779976" lon="78.0644227">
      </trkpt>
      <trkpt lat="9.8773586" lon="78.0639361">
      </trkpt>
      <trkpt lat="9.8772952" lon="78.0638925">
      </trkpt>
      <trkpt lat="9.8763318" lon="78.063234">
      </trkpt>
      <trkpt lat="9.8756637" lon="78.0628134">
      </trkpt>
      <trkpt lat="9.8749619" lon="78.0623885">
      </trkpt>
      <trkpt lat="9.8748372" lon="78.0623199">
      </trkpt>
      <trkpt lat="9.8739751" lon="78.0617935">
      </trkpt>
      <trkpt lat="9.8735037" lon="78.0615151">
      </trkpt>
      <trkpt lat="9.8719067" lon="78.0605292">
      </trkpt>
      <trkpt lat="9.8711829" lon="78.0600739">
      </trkpt>
      <trkpt lat="9.8711176" lon="78.0600313">
      </trkpt>
      <trkpt lat="9.8707575" lon="78.0597965">
      </trkpt>
      <trkpt lat="9.8685953" lon="78.0584519">
      </trkpt>
      <trkpt lat="9.8674833" lon="78.0577181">
      </trkpt>
      <trkpt lat="9.8673593" lon="78.0576226">
      </trkpt>
      <trkpt lat="9.8663322" lon="78.0568176">
      </trkpt>
      <trkpt lat="9.8653149" lon="78.0559151">
      </trkpt>
      <trkpt lat="9.8645218" lon="78.0550857">
      </trkpt>
      <trkpt lat="9.8641741" lon="78.0546614">
      </trkpt>
      <trkpt lat="9.8640911" lon="78.0545601">
      </trkpt>
      <trkpt lat="9.8633923" lon="78.0537075">
      </trkpt>
      <trkpt lat="9.8630275" lon="78.0531247">
      </trkpt>
      <trkpt lat="9.8627238" lon="78.0526764">
      </trkpt>
      <trkpt lat="9.8618497" lon="78.0511633">
      </trkpt>
      <trkpt lat="9.861264" lon="78.0499399">
      </trkpt>
      <trkpt lat="9.8612344" lon="78.0498623">
      </trkpt>
      <trkpt lat="9.8595307" lon="78.0454098">
      </trkpt>
      <trkpt lat="9.8588402" lon="78.043686">
      </trkpt>
      <trkpt lat="9.8588147" lon="78.0436241">
      </trkpt>
      <trkpt lat="9.8573727" lon="78.0398712">
      </trkpt>
      <trkpt lat="9.8571068" lon="78.0391874">
      </trkpt>
      <trkpt lat="9.8570661" lon="78.0390826">
      </trkpt>
      <trkpt lat="9.855822" lon="78.0358835">
      </trkpt>
      <trkpt lat="9.8558052" lon="78.0358313">
      </trkpt>
      <trkpt lat="9.8554818" lon="78.0350051">
      </trkpt>
      <trkpt lat="9.8554338" lon="78.0348811">
      </trkpt>
      <trkpt lat="9.8546536" lon="78.0328662">
      </trkpt>
      <trkpt lat="9.8522007" lon="78.026508">
      </trkpt>
      <trkpt lat="9.8521765" lon="78.0264446">
      </trkpt>
      <trkpt lat="9.8520148" lon="78.0260346">
      </trkpt>
      <trkpt lat="9.8519783" lon="78.0259462">
      </trkpt>
      <trkpt lat="9.8518939" lon="78.0257287">
      </trkpt>
      <trkpt lat="9.8515467" lon="78.0248364">
      </trkpt>
      <trkpt lat="9.8503811" lon="78.0217644">
      </trkpt>
      <trkpt lat="9.8496141" lon="78.019935">
      </trkpt>
      <trkpt lat="9.8492593" lon="78.0191386">
      </trkpt>
      <trkpt lat="9.8487531" lon="78.018191">
      </trkpt>
      <trkpt lat="9.8484387" lon="78.0176082">
      </trkpt>
      <trkpt lat="9.8478407" lon="78.0165743">
      </trkpt>
      <trkpt lat="9.8476455" lon="78.0162809">
      </trkpt>
      <trkpt lat="9.8470213" lon="78.0153682">
      </trkpt>
      <trkpt lat="9.8465303" lon="78.0146461">
      </trkpt>
      <trkpt lat="9.8461308" lon="78.0140951">
      </trkpt>
      <trkpt lat="9.8455769" lon="78.0133905">
      </trkpt>
      <trkpt lat="9.8448829" lon="78.0125525">
      </trkpt>
      <trkpt lat="9.8441245" lon="78.0117066">
      </trkpt>
      <trkpt lat="9.8431966" lon="78.0106929">
      </trkpt>
      <trkpt lat="9.8383784" lon="78.0054288">
      </trkpt>
      <trkpt lat="9.8376916" lon="78.0046836">
      </trkpt>
      <trkpt lat="9.8366357" lon="78.0035353">
      </trkpt>
      <trkpt lat="9.8355585" lon="78.002356">
      </trkpt>
      <trkpt lat="9.8345021" lon="78.0012015">
      </trkpt>
      <trkpt lat="9.8336799" lon="78.0003019">
      </trkpt>
      <trkpt lat="9.8336014" lon="78.000216">
      </trkpt>
      <trkpt lat="9.8327365" lon="77.9992793">
      </trkpt>
      <trkpt lat="9.8299907" lon="77.9962594">
      </trkpt>
      <trkpt lat="9.8290161" lon="77.9952096">
      </trkpt>
      <trkpt lat="9.8285914" lon="77.9947862">
      </trkpt>
      <trkpt lat="9.8280477" lon="77.9942442">
      </trkpt>
      <trkpt lat="9.8279815" lon="77.9941783">
      </trkpt>
      <trkpt lat="9.8264527" lon="77.9925369">
      </trkpt>
      <trkpt lat="9.8259095" lon="77.9919789">
      </trkpt>
      <trkpt lat="9.8253492" lon="77.9914371">
      </trkpt>
      <trkpt lat="9.8247571" lon="77.9908769">
      </trkpt>
      <trkpt lat="9.8241441" lon="77.9903298">
      </trkpt>
      <trkpt lat="9.823268" lon="77.9895888">
      </trkpt>
      <trkpt lat="9.822489" lon="77.9889649">
      </trkpt>
      <trkpt lat="9.8221067" lon="77.9886855">
      </trkpt>
      <trkpt lat="9.8217874" lon="77.9884527">
      </trkpt>
      <trkpt lat="9.8211331" lon="77.9880276">
      </trkpt>
      <trkpt lat="9.8206125" lon="77.9877159">
      </trkpt>
      <trkpt lat="9.8200899" lon="77.9874192">
      </trkpt>
      <trkpt lat="9.8195727" lon="77.9871717">
      </trkpt>
      <trkpt lat="9.8191034" lon="77.9869533">
      </trkpt>
      <trkpt lat="9.8186966" lon="77.9867519">
      </trkpt>
      <trkpt lat="9.8178528" lon="77.9863721">
      </trkpt>
      <trkpt lat="9.8173901" lon="77.9862011">
      </trkpt>
      <trkpt lat="9.81692" lon="77.9860391">
      </trkpt>
      <trkpt lat="9.8159886" lon="77.9857498">
      </trkpt>
      <trkpt lat="9.8159226" lon="77.9857319">
      </trkpt>
      <trkpt lat="9.8153484" lon="77.9855792">
      </trkpt>
      <trkpt lat="9.8147589" lon="77.9854583">
      </trkpt>
      <trkpt lat="9.8146673" lon="77.985438">
      </trkpt>
      <trkpt lat="9.8139466" lon="77.9852929">
      </trkpt>
      <trkpt lat="9.8132315" lon="77.9851717">
      </trkpt>
      <trkpt lat="9.8126116" lon="77.9850628">
      </trkpt>
      <trkpt lat="9.8120778" lon="77.9849859">
      </trkpt>
      <trkpt lat="9.8112223" lon="77.9848604">
      </trkpt>
      <trkpt lat="9.8106188" lon="77.9848306">
      </trkpt>
      <trkpt lat="9.8101959" lon="77.9848134">
      </trkpt>
      <trkpt lat="9.8096631" lon="77.984798">
      </trkpt>
      <trkpt lat="9.8091147" lon="77.9848216">
      </trkpt>
      <trkpt lat="9.8075919" lon="77.9848792">
      </trkpt>
      <trkpt lat="9.8043441" lon="77.9850204">
      </trkpt>
      <trkpt lat="9.8026538" lon="77.9850991">
      </trkpt>
      <trkpt lat="9.795543" lon="77.9854008">
      </trkpt>
      <trkpt lat="9.7918729" lon="77.9855584">
      </trkpt>
      <trkpt lat="9.7917347" lon="77.9855649">
      </trkpt>
      <trkpt lat="9.7892867" lon="77.9856472">
      </trkpt>
      <trkpt lat="9.7874702" lon="77.985744">
      </trkpt>
      <trkpt lat="9.7777373" lon="77.9861507">
      </trkpt>
      <trkpt lat="9.7740192" lon="77.9863178">
      </trkpt>
      <trkpt lat="9.7671552" lon="77.9865956">
      </trkpt>
      <trkpt lat="9.7631348" lon="77.9867609">
      </trkpt>
      <trkpt lat="9.7606451" lon="77.9868927">
      </trkpt>
      <trkpt lat="9.7605177" lon="77.9869003">
      </trkpt>
      <trkpt lat="9.7602527" lon="77.9869064">
      </trkpt>
      <trkpt lat="9.7573832" lon="77.9870022">
      </trkpt>
      <trkpt lat="9.7496713" lon="77.9873428">
      </trkpt>
      <trkpt lat="9.7481007" lon="77.9874019">
      </trkpt>
      <trkpt lat="9.7473061" lon="77.9874268">
      </trkpt>
      <trkpt lat="9.7467091" lon="77.9874202">
      </trkpt>
      <trkpt lat="9.7464959" lon="77.987413">
      </trkpt>
      <trkpt lat="9.74599" lon="77.9873814">
      </trkpt>
      <trkpt lat="9.7454092" lon="77.9873446">
      </trkpt>
      <trkpt lat="9.744831" lon="77.9873016">
      </trkpt>
      <trkpt lat="9.7442878" lon="77.9872438">
      </trkpt>
      <trkpt lat="9.7437677" lon="77.9871749">
      </trkpt>
      <trkpt lat="9.7431358" lon="77.9870925">
      </trkpt>
      <trkpt lat="9.7425397" lon="77.9870027">
      </trkpt>
      <trkpt lat="9.7419903" lon="77.9869237">
      </trkpt>
      <trkpt lat="9.74142" lon="77.9868229">
      </trkpt>
      <trkpt lat="9.7404221" lon="77.9865753">
      </trkpt>
      <trkpt lat="9.7397345" lon="77.9863972">
      </trkpt>
      <trkpt lat="9.7380747" lon="77.9859351">
      </trkpt>
      <trkpt lat="9.7368893" lon="77.985597">
      </trkpt>
      <trkpt lat="9.7357407" lon="77.9852683">
      </trkpt>
      <trkpt lat="9.7335919" lon="77.9846801">
      </trkpt>
      <trkpt lat="9.7324264" lon="77.9843425">
      </trkpt>
      <trkpt lat="9.7293865" lon="77.9834895">
      </trkpt>
      <trkpt lat="9.7275161" lon="77.9829756">
      </trkpt>
      <trkpt lat="9.7240997" lon="77.9820109">
      </trkpt>
      <trkpt lat="9.7183463" lon="77.9803883">
      </trkpt>
      <trkpt lat="9.7170586" lon="77.9800295">
      </trkpt>
      <trkpt lat="9.712262" lon="77.9786771">
      </trkpt>
      <trkpt lat="9.7061714" lon="77.9769578">
      </trkpt>
      <trkpt lat="9.7055428" lon="77.9767673">
      </trkpt>
      <trkpt lat="9.704862" lon="77.9765769">
      </trkpt>
      <trkpt lat="9.7041799" lon="77.9763932">
      </trkpt>
      <trkpt lat="9.7033858" lon="77.9761678">
      </trkpt>
      <trkpt lat="9.7009676" lon="77.9754964">
      </trkpt>
      <trkpt lat="9.7006899" lon="77.9754193">
      </trkpt>
      <trkpt lat="9.7001454" lon="77.9752695">
      </trkpt>
      <trkpt lat="9.6993459" lon="77.9750364">
      </trkpt>
      <trkpt lat="9.6971761" lon="77.9744798">
      </trkpt>
      <trkpt lat="9.6951753" lon="77.9740781">
      </trkpt>
      <trkpt lat="9.693374" lon="77.9737176">
      </trkpt>
      <trkpt lat="9.692663" lon="77.9735974">
      </trkpt>
      <trkpt lat="9.6922172" lon="77.9735278">
      </trkpt>
      <trkpt lat="9.6917274" lon="77.9734687">
      </trkpt>
      <trkpt lat="9.6915459" lon="77.9734429">
      </trkpt>
      <trkpt lat="9.6765335" lon="77.9708635">
      </trkpt>
      <trkpt lat="9.6645948" lon="77.968773">
      </trkpt>
      <trkpt lat="9.662849" lon="77.9684901">
      </trkpt>
      <trkpt lat="9.652802" lon="77.9667446">
      </trkpt>
      <trkpt lat="9.6502565" lon="77.9663024">
      </trkpt>
      <trkpt lat="9.6485427" lon="77.9660098">
      </trkpt>
      <trkpt lat="9.6467913" lon="77.9656981">
      </trkpt>
      <trkpt lat="9.6453416" lon="77.9654482">
      </trkpt>
      <trkpt lat="9.6423162" lon="77.9649234">
      </trkpt>
      <trkpt lat="9.6400503" lon="77.9645268">
      </trkpt>
      <trkpt lat="9.6399905" lon="77.9645177">
      </trkpt>
      <trkpt lat="9.6374803" lon="77.9640875">
      </trkpt>
      <trkpt lat="9.6365197" lon="77.963917">
      </trkpt>
      <trkpt lat="9.6357794" lon="77.9637922">
      </trkpt>
      <trkpt lat="9.6346249" lon="77.9635697">
      </trkpt>
      <trkpt lat="9.6326686" lon="77.9632447">
      </trkpt>
      <trkpt lat="9.6310807" lon="77.9629689">
      </trkpt>
      <trkpt lat="9.6309494" lon="77.9629433">
      </trkpt>
      <trkpt lat="9.6303598" lon="77.9628392">
      </trkpt>
      <trkpt lat="9.6274692" lon="77.962326">
      </trkpt>
      <trkpt lat="9.6264985" lon="77.9621536">
      </trkpt>
      <trkpt lat="9.6242021" lon="77.9617599">
      </trkpt>
      <trkpt lat="9.6231933" lon="77.9615929">
      </trkpt>
      <trkpt lat="9.6221066" lon="77.961405">
      </trkpt>
      <trkpt lat="9.6203656" lon="77.9610934">
      </trkpt>
      <trkpt lat="9.6178968" lon="77.9606692">
      </trkpt>
      <trkpt lat="9.6164131" lon="77.9604209">
      </trkpt>
      <trkpt lat="9.6153394" lon="77.9602208">
      </trkpt>
      <trkpt lat="9.6140875" lon="77.9600047">
      </trkpt>
      <trkpt lat="9.6074558" lon="77.9588506">
      </trkpt>
      <trkpt lat="9.6051683" lon="77.9584526">
      </trkpt>
      <trkpt lat="9.6039882" lon="77.958249">
      </trkpt>
      <trkpt lat="9.6036906" lon="77.9581932">
      </trkpt>
      <trkpt lat="9.6034523" lon="77.9581514">
      </trkpt>
      <trkpt lat="9.6029698" lon="77.958073">
      </trkpt>
      <trkpt lat="9.6020065" lon="77.9579021">
      </trkpt>
      <trkpt lat="9.6013464" lon="77.9577956">
      </trkpt>
      <trkpt lat="9.6007115" lon="77.9577169">
      </trkpt>
      <trkpt lat="9.5995138" lon="77.9576239">
      </trkpt>
      <trkpt lat="9.5984037" lon="77.9575721">
      </trkpt>
      <trkpt lat="9.5975764" lon="77.9575467">
      </trkpt>
      <trkpt lat="9.5966891" lon="77.9575735">
      </trkpt>
      <trkpt lat="9.5955977" lon="77.9576257">
      </trkpt>
      <trkpt lat="9.5945625" lon="77.9577218">
      </trkpt>
      <trkpt lat="9.5938694" lon="77.957796">
      </trkpt>
      <trkpt lat="9.5930695" lon="77.957914">
      </trkpt>
      <trkpt lat="9.592349" lon="77.9580371">
      </trkpt>
      <trkpt lat="9.5917817" lon="77.9581295">
      </trkpt>
      <trkpt lat="9.5911667" lon="77.9582386">
      </trkpt>
      <trkpt lat="9.5910045" lon="77.9582709">
      </trkpt>
      <trkpt lat="9.590737" lon="77.9583215">
      </trkpt>
      <trkpt lat="9.5900773" lon="77.9584316">
      </trkpt>
      <trkpt lat="9.589769" lon="77.9584945">
      </trkpt>
      <trkpt lat="9.5893939" lon="77.9585646">
      </trkpt>
      <trkpt lat="9.5893127" lon="77.9585782">
      </trkpt>
      <trkpt lat="9.5890822" lon="77.958617">
      </trkpt>
      <trkpt lat="9.5884573" lon="77.9587265">
      </trkpt>
      <trkpt lat="9.5882978" lon="77.9587539">
      </trkpt>
      <trkpt lat="9.5878972" lon="77.9588227">
      </trkpt>
      <trkpt lat="9.5874206" lon="77.9588887">
      </trkpt>
      <trkpt lat="9.5869603" lon="77.958937">
      </trkpt>
      <trkpt lat="9.5864512" lon="77.9589705">
      </trkpt>
      <trkpt lat="9.5859103" lon="77.9589893">
      </trkpt>
      <trkpt lat="9.585301" lon="77.9589825">
      </trkpt>
      <trkpt lat="9.5848791" lon="77.9589678">
      </trkpt>
      <trkpt lat="9.5844237" lon="77.9589395">
      </trkpt>
      <trkpt lat="9.5839319" lon="77.9588927">
      </trkpt>
      <trkpt lat="9.583655" lon="77.9588547">
      </trkpt>
      <trkpt lat="9.58338" lon="77.958813">
      </trkpt>
      <trkpt lat="9.5826677" lon="77.9586801">
      </trkpt>
      <trkpt lat="9.5820725" lon="77.95854">
      </trkpt>
      <trkpt lat="9.5815365" lon="77.9583826">
      </trkpt>
      <trkpt lat="9.5810787" lon="77.9582336">
      </trkpt>
      <trkpt lat="9.5805893" lon="77.9580678">
      </trkpt>
      <trkpt lat="9.5802335" lon="77.957929">
      </trkpt>
      <trkpt lat="9.5798206" lon="77.9577615">
      </trkpt>
      <trkpt lat="9.5789133" lon="77.9573244">
      </trkpt>
      <trkpt lat="9.57812" lon="77.9569252">
      </trkpt>
      <trkpt lat="9.5773414" lon="77.9565227">
      </trkpt>
      <trkpt lat="9.5761512" lon="77.9559119">
      </trkpt>
      <trkpt lat="9.5747918" lon="77.9552414">
      </trkpt>
      <trkpt lat="9.5742914" lon="77.9549755">
      </trkpt>
      <trkpt lat="9.5735091" lon="77.9545757">
      </trkpt>
      <trkpt lat="9.5719262" lon="77.9538409">
      </trkpt>
      <trkpt lat="9.5714826" lon="77.953645">
      </trkpt>
      <trkpt lat="9.5709172" lon="77.9533943">
      </trkpt>
      <trkpt lat="9.5703352" lon="77.953185">
      </trkpt>
      <trkpt lat="9.5699703" lon="77.9530911">
      </trkpt>
      <trkpt lat="9.5693778" lon="77.952957">
      </trkpt>
      <trkpt lat="9.5687872" lon="77.952835">
      </trkpt>
      <trkpt lat="9.568192" lon="77.9527136">
      </trkpt>
      <trkpt lat="9.5675678" lon="77.9526938">
      </trkpt>
      <trkpt lat="9.5664711" lon="77.9525976">
      </trkpt>
      <trkpt lat="9.5653391" lon="77.9524487">
      </trkpt>
      <trkpt lat="9.562553" lon="77.9521773">
      </trkpt>
      <trkpt lat="9.5607686" lon="77.9520158">
      </trkpt>
      <trkpt lat="9.560522" lon="77.9519869">
      </trkpt>
      <trkpt lat="9.5596039" lon="77.9518794">
      </trkpt>
      <trkpt lat="9.5594782" lon="77.9518656">
      </trkpt>
      <trkpt lat="9.5587337" lon="77.951784">
      </trkpt>
      <trkpt lat="9.5574645" lon="77.9516737">
      </trkpt>
      <trkpt lat="9.5560262" lon="77.9515384">
      </trkpt>
      <trkpt lat="9.5533864" lon="77.9512514">
      </trkpt>
      <trkpt lat="9.5504584" lon="77.9509456">
      </trkpt>
      <trkpt lat="9.548162" lon="77.9507108">
      </trkpt>
      <trkpt lat="9.5459803" lon="77.9504869">
      </trkpt>
      <trkpt lat="9.5428275" lon="77.9501785">
      </trkpt>
      <trkpt lat="9.5387936" lon="77.9497601">
      </trkpt>
      <trkpt lat="9.5364083" lon="77.9495289">
      </trkpt>
      <trkpt lat="9.5348458" lon="77.9493774">
      </trkpt>
      <trkpt lat="9.5319145" lon="77.9490699">
      </trkpt>
      <trkpt lat="9.5300851" lon="77.9488803">
      </trkpt>
      <trkpt lat="9.526721" lon="77.9485396">
      </trkpt>
      <trkpt lat="9.5244726" lon="77.948301">
      </trkpt>
      <trkpt lat="9.5235097" lon="77.9482098">
      </trkpt>
      <trkpt lat="9.5225562" lon="77.9480824">
      </trkpt>
      <trkpt lat="9.5203592" lon="77.9477498">
      </trkpt>
      <trkpt lat="9.5191556" lon="77.9475258">
      </trkpt>
      <trkpt lat="9.5179362" lon="77.9473514">
      </trkpt>
      <trkpt lat="9.5164257" lon="77.9471074">
      </trkpt>
      <trkpt lat="9.511016" lon="77.9462545">
      </trkpt>
      <trkpt lat="9.5076459" lon="77.9457233">
      </trkpt>
      <trkpt lat="9.5061618" lon="77.9454658">
      </trkpt>
      <trkpt lat="9.5036306" lon="77.9450682">
      </trkpt>
      <trkpt lat="9.5035302" lon="77.945052">
      </trkpt>
      <trkpt lat="9.5013974" lon="77.9447068">
      </trkpt>
      <trkpt lat="9.4999706" lon="77.9444848">
      </trkpt>
      <trkpt lat="9.4998967" lon="77.9444733">
      </trkpt>
      <trkpt lat="9.4981912" lon="77.9442079">
      </trkpt>
      <trkpt lat="9.49807" lon="77.9441882">
      </trkpt>
      <trkpt lat="9.4959574" lon="77.9438443">
      </trkpt>
      <trkpt lat="9.4957758" lon="77.9438125">
      </trkpt>
      <trkpt lat="9.4944452" lon="77.9436017">
      </trkpt>
      <trkpt lat="9.4927927" lon="77.9433338">
      </trkpt>
      <trkpt lat="9.4922786" lon="77.943253">
      </trkpt>
      <trkpt lat="9.4908104" lon="77.943009">
      </trkpt>
      <trkpt lat="9.485925" lon="77.9421986">
      </trkpt>
      <trkpt lat="9.4842909" lon="77.9419375">
      </trkpt>
      <trkpt lat="9.4841676" lon="77.9419178">
      </trkpt>
      <trkpt lat="9.4801951" lon="77.941283">
      </trkpt>
      <trkpt lat="9.4799077" lon="77.9412462">
      </trkpt>
      <trkpt lat="9.4786427" lon="77.941028">
      </trkpt>
      <trkpt lat="9.4784367" lon="77.940998">
      </trkpt>
      <trkpt lat="9.4779816" lon="77.9409403">
      </trkpt>
      <trkpt lat="9.4770922" lon="77.9407826">
      </trkpt>
      <trkpt lat="9.4762419" lon="77.9406027">
      </trkpt>
      <trkpt lat="9.4751915" lon="77.9403504">
      </trkpt>
      <trkpt lat="9.474574" lon="77.9401768">
      </trkpt>
      <trkpt lat="9.4744044" lon="77.9401291">
      </trkpt>
      <trkpt lat="9.4741197" lon="77.9400491">
      </trkpt>
      <trkpt lat="9.4730098" lon="77.9396848">
      </trkpt>
      <trkpt lat="9.4721113" lon="77.9393623">
      </trkpt>
      <trkpt lat="9.4709739" lon="77.938873">
      </trkpt>
      <trkpt lat="9.4697242" lon="77.938304">
      </trkpt>
      <trkpt lat="9.4680667" lon="77.9375643">
      </trkpt>
      <trkpt lat="9.4669448" lon="77.9370329">
      </trkpt>
      <trkpt lat="9.4654244" lon="77.9363658">
      </trkpt>
      <trkpt lat="9.4650029" lon="77.9361665">
      </trkpt>
      <trkpt lat="9.4648879" lon="77.9361122">
      </trkpt>
      <trkpt lat="9.46447" lon="77.9359147">
      </trkpt>
      <trkpt lat="9.4641749" lon="77.9357827">
      </trkpt>
      <trkpt lat="9.4636735" lon="77.9355583">
      </trkpt>
      <trkpt lat="9.4628014" lon="77.9351636">
      </trkpt>
      <trkpt lat="9.4613686" lon="77.9345118">
      </trkpt>
      <trkpt lat="9.4602589" lon="77.9339998">
      </trkpt>
      <trkpt lat="9.4589436" lon="77.9334021">
      </trkpt>
      <trkpt lat="9.4584651" lon="77.9331856">
      </trkpt>
      <trkpt lat="9.4572923" lon="77.9326472">
      </trkpt>
      <trkpt lat="9.4563883" lon="77.932247">
      </trkpt>
      <trkpt lat="9.4560644" lon="77.9320922">
      </trkpt>
      <trkpt lat="9.4558452" lon="77.9319903">
      </trkpt>
      <trkpt lat="9.4556624" lon="77.9319034">
      </trkpt>
      <trkpt lat="9.454288" lon="77.931275">
      </trkpt>
      <trkpt lat="9.4529373" lon="77.9306587">
      </trkpt>
      <trkpt lat="9.4514118" lon="77.9299666">
      </trkpt>
      <trkpt lat="9.4485449" lon="77.9286704">
      </trkpt>
      <trkpt lat="9.4474232" lon="77.9281496">
      </trkpt>
      <trkpt lat="9.4456596" lon="77.9273409">
      </trkpt>
      <trkpt lat="9.4437859" lon="77.9264849">
      </trkpt>
      <trkpt lat="9.4423334" lon="77.9258336">
      </trkpt>
      <trkpt lat="9.4382133" lon="77.9239859">
      </trkpt>
      <trkpt lat="9.4370717" lon="77.9234652">
      </trkpt>
      <trkpt lat="9.4356829" lon="77.9228195">
      </trkpt>
      <trkpt lat="9.4343951" lon="77.9222335">
      </trkpt>
      <trkpt lat="9.4335172" lon="77.9218409">
      </trkpt>
      <trkpt lat="9.4326615" lon="77.921495">
      </trkpt>
      <trkpt lat="9.4317386" lon="77.9211702">
      </trkpt>
      <trkpt lat="9.4309448" lon="77.9209518">
      </trkpt>
      <trkpt lat="9.4301497" lon="77.9208061">
      </trkpt>
      <trkpt lat="9.4300694" lon="77.9207914">
      </trkpt>
      <trkpt lat="9.4297427" lon="77.9207315">
      </trkpt>
      <trkpt lat="9.4288338" lon="77.9206287">
      </trkpt>
      <trkpt lat="9.4274232" lon="77.9205993">
      </trkpt>
      <trkpt lat="9.4253488" lon="77.9205694">
      </trkpt>
      <trkpt lat="9.4183426" lon="77.9204746">
      </trkpt>
      <trkpt lat="9.4167745" lon="77.920455">
      </trkpt>
      <trkpt lat="9.415758" lon="77.9204366">
      </trkpt>
      <trkpt lat="9.4149437" lon="77.9204219">
      </trkpt>
      <trkpt lat="9.4115982" lon="77.9203824">
      </trkpt>
      <trkpt lat="9.4050255" lon="77.9203114">
      </trkpt>
      <trkpt lat="9.403396" lon="77.9202823">
      </trkpt>
      <trkpt lat="9.3954456" lon="77.9201779">
      </trkpt>
      <trkpt lat="9.3945214" lon="77.9201663">
      </trkpt>
      <trkpt lat="9.3890276" lon="77.920091">
      </trkpt>
      <trkpt lat="9.3856029" lon="77.9200441">
      </trkpt>
      <trkpt lat="9.3831397" lon="77.9200322">
      </trkpt>
      <trkpt lat="9.3812615" lon="77.9199998">
      </trkpt>
      <trkpt lat="9.3802887" lon="77.9200223">
      </trkpt>
      <trkpt lat="9.3787388" lon="77.9200776">
      </trkpt>
      <trkpt lat="9.3771569" lon="77.9200814">
      </trkpt>
      <trkpt lat="9.3762665" lon="77.9200746">
      </trkpt>
      <trkpt lat="9.3748014" lon="77.9200531">
      </trkpt>
      <trkpt lat="9.3741927" lon="77.920046">
      </trkpt>
      <trkpt lat="9.3741118" lon="77.9200451">
      </trkpt>
      <trkpt lat="9.3726368" lon="77.920028">
      </trkpt>
      <trkpt lat="9.3709946" lon="77.9200009">
      </trkpt>
      <trkpt lat="9.3690682" lon="77.9199025">
      </trkpt>
      <trkpt lat="9.3680436" lon="77.9198817">
      </trkpt>
      <trkpt lat="9.3671946" lon="77.9198887">
      </trkpt>
      <trkpt lat="9.366354" lon="77.9199469">
      </trkpt>
      <trkpt lat="9.3654109" lon="77.9200101">
      </trkpt>
      <trkpt lat="9.3649231" lon="77.9200827">
      </trkpt>
      <trkpt lat="9.3644764" lon="77.9201704">
      </trkpt>
      <trkpt lat="9.3640201" lon="77.9202594">
      </trkpt>
      <trkpt lat="9.3632659" lon="77.9204064">
      </trkpt>
      <trkpt lat="9.3622968" lon="77.9206473">
      </trkpt>
      <trkpt lat="9.3613878" lon="77.9209203">
      </trkpt>
      <trkpt lat="9.3606051" lon="77.9211907">
      </trkpt>
      <trkpt lat="9.3591517" lon="77.9216563">
      </trkpt>
      <trkpt lat="9.3580984" lon="77.9220099">
      </trkpt>
      <trkpt lat="9.3564664" lon="77.9225323">
      </trkpt>
      <trkpt lat="9.3561723" lon="77.9226265">
      </trkpt>
      <trkpt lat="9.35575" lon="77.9227617">
      </trkpt>
      <trkpt lat="9.3544791" lon="77.9231573">
      </trkpt>
      <trkpt lat="9.3535522" lon="77.923447">
      </trkpt>
      <trkpt lat="9.3525446" lon="77.9237689">
      </trkpt>
      <trkpt lat="9.3510675" lon="77.9242639">
      </trkpt>
      <trkpt lat="9.3502004" lon="77.9245492">
      </trkpt>
      <trkpt lat="9.3478048" lon="77.9253272">
      </trkpt>
      <trkpt lat="9.3459309" lon="77.9259416">
      </trkpt>
      <trkpt lat="9.3451355" lon="77.9261746">
      </trkpt>
      <trkpt lat="9.3440485" lon="77.9264414">
      </trkpt>
      <trkpt lat="9.3429785" lon="77.9266402">
      </trkpt>
      <trkpt lat="9.342351" lon="77.9267342">
      </trkpt>
      <trkpt lat="9.3416898" lon="77.9268196">
      </trkpt>
      <trkpt lat="9.3410211" lon="77.9268642">
      </trkpt>
      <trkpt lat="9.3403524" lon="77.9268875">
      </trkpt>
      <trkpt lat="9.3397909" lon="77.9269103">
      </trkpt>
      <trkpt lat="9.3382011" lon="77.9269529">
      </trkpt>
      <trkpt lat="9.3381226" lon="77.9269537">
      </trkpt>
      <trkpt lat="9.3299543" lon="77.9270323">
      </trkpt>
      <trkpt lat="9.3144862" lon="77.9271811">
      </trkpt>
      <trkpt lat="9.3097103" lon="77.9272188">
      </trkpt>
      <trkpt lat="9.3095904" lon="77.9272197">
      </trkpt>
      <trkpt lat="9.3066236" lon="77.9272431">
      </trkpt>
      <trkpt lat="9.3037263" lon="77.9272898">
      </trkpt>
      <trkpt lat="9.3022102" lon="77.9273152">
      </trkpt>
      <trkpt lat="9.3019107" lon="77.9273005">
      </trkpt>
      <trkpt lat="9.3018296" lon="77.9272966">
      </trkpt>
      <trkpt lat="9.3009454" lon="77.9272533">
      </trkpt>
      <trkpt lat="9.299352" lon="77.9270708">
      </trkpt>
      <trkpt lat="9.2989983" lon="77.927015">
      </trkpt>
      <trkpt lat="9.2989177" lon="77.9270024">
      </trkpt>
      <trkpt lat="9.2981471" lon="77.9268809">
      </trkpt>
      <trkpt lat="9.2919339" lon="77.9259494">
      </trkpt>
      <trkpt lat="9.2915969" lon="77.9258989">
      </trkpt>
      <trkpt lat="9.2903424" lon="77.9257166">
      </trkpt>
      <trkpt lat="9.2901386" lon="77.925687">
      </trkpt>
      <trkpt lat="9.2894429" lon="77.9255859">
      </trkpt>
      <trkpt lat="9.2820825" lon="77.9244793">
      </trkpt>
      <trkpt lat="9.2820025" lon="77.9244673">
      </trkpt>
      <trkpt lat="9.276872" lon="77.923696">
      </trkpt>
      <trkpt lat="9.2686507" lon="77.9224601">
      </trkpt>
      <trkpt lat="9.2685291" lon="77.9224418">
      </trkpt>
      <trkpt lat="9.2430783" lon="77.9186627">
      </trkpt>
      <trkpt lat="9.2422106" lon="77.9185342">
      </trkpt>
      <trkpt lat="9.2416442" lon="77.9184504">
      </trkpt>
      <trkpt lat="9.2395424" lon="77.9181392">
      </trkpt>
      <trkpt lat="9.2373706" lon="77.917809">
      </trkpt>
      <trkpt lat="9.2355124" lon="77.9175014">
      </trkpt>
      <trkpt lat="9.234037" lon="77.9171606">
      </trkpt>
      <trkpt lat="9.2330209" lon="77.9168885">
      </trkpt>
      <trkpt lat="9.231601" lon="77.9164369">
      </trkpt>
      <trkpt lat="9.2299879" lon="77.9158142">
      </trkpt>
      <trkpt lat="9.2284526" lon="77.9151743">
      </trkpt>
      <trkpt lat="9.2277736" lon="77.9148437">
      </trkpt>
      <trkpt lat="9.2270112" lon="77.9144487">
      </trkpt>
      <trkpt lat="9.2262488" lon="77.914034">
      </trkpt>
      <trkpt lat="9.2252678" lon="77.9134318">
      </trkpt>
      <trkpt lat="9.2246531" lon="77.9130355">
      </trkpt>
      <trkpt lat="9.2243488" lon="77.9128478">
      </trkpt>
      <trkpt lat="9.2233168" lon="77.9120947">
      </trkpt>
      <trkpt lat="9.2223386" lon="77.9113228">
      </trkpt>
      <trkpt lat="9.2187312" lon="77.9084423">
      </trkpt>
      <trkpt lat="9.2160932" lon="77.9063305">
      </trkpt>
      <trkpt lat="9.2138353" lon="77.9045401">
      </trkpt>
      <trkpt lat="9.211592" lon="77.9027252">
      </trkpt>
      <trkpt lat="9.2072319" lon="77.8992627">
      </trkpt>
      <trkpt lat="9.2062457" lon="77.8984921">
      </trkpt>
      <trkpt lat="9.2053756" lon="77.8978146">
      </trkpt>
      <trkpt lat="9.2046999" lon="77.8972263">
      </trkpt>
      <trkpt lat="9.2039317" lon="77.8964614">
      </trkpt>
      <trkpt lat="9.202848" lon="77.8955748">
      </trkpt>
      <trkpt lat="9.2014218" lon="77.8942378">
      </trkpt>
      <trkpt lat="9.1995132" lon="77.8924739">
      </trkpt>
      <trkpt lat="9.1971819" lon="77.890335">
      </trkpt>
      <trkpt lat="9.1970938" lon="77.8902542">
      </trkpt>
      <trkpt lat="9.1920636" lon="77.8856392">
      </trkpt>
      <trkpt lat="9.1919828" lon="77.8855526">
      </trkpt>
      <trkpt lat="9.1917796" lon="77.8853348">
      </trkpt>
      <trkpt lat="9.1914238" lon="77.8849312">
      </trkpt>
      <trkpt lat="9.1906443" lon="77.883927">
      </trkpt>
      <trkpt lat="9.1842408" lon="77.8752149">
      </trkpt>
      <trkpt lat="9.1839948" lon="77.8748959">
      </trkpt>
      <trkpt lat="9.1834021" lon="77.8740915">
      </trkpt>
      <trkpt lat="9.1834241" lon="77.8740421">
      </trkpt>
      <trkpt lat="9.1831363" lon="77.8735845">
      </trkpt>
      <trkpt lat="9.1826993" lon="77.8729876">
      </trkpt>
      <trkpt lat="9.1813194" lon="77.8711125">
      </trkpt>
      <trkpt lat="9.1803291" lon="77.8697776">
      </trkpt>
      <trkpt lat="9.1797214" lon="77.8689754">
      </trkpt>
      <trkpt lat="9.1795429" lon="77.8687309">
      </trkpt>
      <trkpt lat="9.1795171" lon="77.8686956">
      </trkpt>
      <trkpt lat="9.1795081" lon="77.8686832">
      </trkpt>
      <trkpt lat="9.1792884" lon="77.8683821">
      </trkpt>
      <trkpt lat="9.1789871" lon="77.8679657">
      </trkpt>
      <trkpt lat="9.178275" lon="77.8669936">
      </trkpt>
      <trkpt lat="9.1775285" lon="77.8660548">
      </trkpt>
      <trkpt lat="9.1756647" lon="77.863502">
      </trkpt>
      <trkpt lat="9.1731396" lon="77.8600561">
      </trkpt>
      <trkpt lat="9.1710404" lon="77.8572039">
      </trkpt>
      <trkpt lat="9.1704392" lon="77.8563969">
      </trkpt>
      <trkpt lat="9.1697177" lon="77.8555494">
      </trkpt>
      <trkpt lat="9.168896" lon="77.8546816">
      </trkpt>
      <trkpt lat="9.1684501" lon="77.8542806">
      </trkpt>
      <trkpt lat="9.1677186" lon="77.8536716">
      </trkpt>
      <trkpt lat="9.1652636" lon="77.8518243">
      </trkpt>
      <trkpt lat="9.1651165" lon="77.8517208">
      </trkpt>
      <trkpt lat="9.1631022" lon="77.8502582">
      </trkpt>
      <trkpt lat="9.1615385" lon="77.8491102">
      </trkpt>
      <trkpt lat="9.1587999" lon="77.8471075">
      </trkpt>
      <trkpt lat="9.1586284" lon="77.8469757">
      </trkpt>
      <trkpt lat="9.1570672" lon="77.8458556">
      </trkpt>
      <trkpt lat="9.155991" lon="77.8451788">
      </trkpt>
      <trkpt lat="9.1546013" lon="77.8445199">
      </trkpt>
      <trkpt lat="9.1540336" lon="77.8442803">
      </trkpt>
      <trkpt lat="9.1521156" lon="77.8436709">
      </trkpt>
      <trkpt lat="9.1482621" lon="77.8424594">
      </trkpt>
      <trkpt lat="9.1452402" lon="77.841519">
      </trkpt>
      <trkpt lat="9.1422775" lon="77.8405966">
      </trkpt>
      <trkpt lat="9.1388002" lon="77.8395544">
      </trkpt>
      <trkpt lat="9.1357691" lon="77.838607">
      </trkpt>
      <trkpt lat="9.1344639" lon="77.8382092">
      </trkpt>
      <trkpt lat="9.1342854" lon="77.838153">
      </trkpt>
      <trkpt lat="9.1325399" lon="77.8376105">
      </trkpt>
      <trkpt lat="9.1295883" lon="77.8366904">
      </trkpt>
      <trkpt lat="9.1281879" lon="77.8362524">
      </trkpt>
      <trkpt lat="9.1262401" lon="77.8356778">
      </trkpt>
      <trkpt lat="9.1261091" lon="77.8356377">
      </trkpt>
      <trkpt lat="9.1259544" lon="77.8355814">
      </trkpt>
      <trkpt lat="9.1242882" lon="77.835043">
      </trkpt>
      <trkpt lat="9.1219118" lon="77.8342996">
      </trkpt>
      <trkpt lat="9.1193212" lon="77.8335242">
      </trkpt>
      <trkpt lat="9.1168655" lon="77.8327527">
      </trkpt>
      <trkpt lat="9.1161752" lon="77.8325317">
      </trkpt>
      <trkpt lat="9.1142351" lon="77.8320013">
      </trkpt>
      <trkpt lat="9.1127871" lon="77.8316678">
      </trkpt>
      <trkpt lat="9.1124618" lon="77.8316196">
      </trkpt>
      <trkpt lat="9.112311" lon="77.8315955">
      </trkpt>
      <trkpt lat="9.1108113" lon="77.8313825">
      </trkpt>
      <trkpt lat="9.1098235" lon="77.8313022">
      </trkpt>
      <trkpt lat="9.1084016" lon="77.8312073">
      </trkpt>
      <trkpt lat="9.1079222" lon="77.8311917">
      </trkpt>
      <trkpt lat="9.1078084" lon="77.8311872">
      </trkpt>
      <trkpt lat="9.1075491" lon="77.831177">
      </trkpt>
      <trkpt lat="9.1046479" lon="77.8310629">
      </trkpt>
      <trkpt lat="9.1041697" lon="77.831046">
      </trkpt>
      <trkpt lat="9.1009428" lon="77.8309345">
      </trkpt>
      <trkpt lat="9.0999179" lon="77.8309116">
      </trkpt>
      <trkpt lat="9.0990039" lon="77.8309226">
      </trkpt>
      <trkpt lat="9.0976358" lon="77.8309829">
      </trkpt>
      <trkpt lat="9.0959416" lon="77.8311686">
      </trkpt>
      <trkpt lat="9.0940579" lon="77.8314759">
      </trkpt>
      <trkpt lat="9.0925913" lon="77.8318152">
      </trkpt>
      <trkpt lat="9.0882927" lon="77.8331724">
      </trkpt>
      <trkpt lat="9.0880643" lon="77.8332314">
      </trkpt>
      <trkpt lat="9.0823246" lon="77.835079">
      </trkpt>
      <trkpt lat="9.0821576" lon="77.8351334">
      </trkpt>
      <trkpt lat="9.0785349" lon="77.8363132">
      </trkpt>
      <trkpt lat="9.0765501" lon="77.8369596">
      </trkpt>
      <trkpt lat="9.0744324" lon="77.837651">
      </trkpt>
      <trkpt lat="9.0740594" lon="77.8377663">
      </trkpt>
      <trkpt lat="9.0716571" lon="77.8385665">
      </trkpt>
      <trkpt lat="9.0692675" lon="77.8392963">
      </trkpt>
      <trkpt lat="9.0689766" lon="77.8393988">
      </trkpt>
      <trkpt lat="9.0668272" lon="77.840103">
      </trkpt>
      <trkpt lat="9.0633818" lon="77.8412169">
      </trkpt>
      <trkpt lat="9.0629139" lon="77.8413769">
      </trkpt>
      <trkpt lat="9.0627053" lon="77.8414602">
      </trkpt>
      <trkpt lat="9.0615927" lon="77.8418635">
      </trkpt>
      <trkpt lat="9.0607236" lon="77.8422293">
      </trkpt>
      <trkpt lat="9.0600595" lon="77.8425207">
      </trkpt>
      <trkpt lat="9.0599212" lon="77.8425824">
      </trkpt>
      <trkpt lat="9.0590191" lon="77.8430251">
      </trkpt>
      <trkpt lat="9.0576189" lon="77.8437648">
      </trkpt>
      <trkpt lat="9.0574861" lon="77.8438489">
      </trkpt>
      <trkpt lat="9.0560915" lon="77.8446447">
      </trkpt>
      <trkpt lat="9.0537837" lon="77.8460793">
      </trkpt>
      <trkpt lat="9.0519407" lon="77.847217">
      </trkpt>
      <trkpt lat="9.050097" lon="77.8483528">
      </trkpt>
      <trkpt lat="9.0497295" lon="77.8485671">
      </trkpt>
      <trkpt lat="9.049503" lon="77.84871">
      </trkpt>
      <trkpt lat="9.0479103" lon="77.8496799">
      </trkpt>
      <trkpt lat="9.0468448" lon="77.8503416">
      </trkpt>
      <trkpt lat="9.0455973" lon="77.8511122">
      </trkpt>
      <trkpt lat="9.043872" lon="77.8521611">
      </trkpt>
      <trkpt lat="9.0432761" lon="77.8525371">
      </trkpt>
      <trkpt lat="9.0431955" lon="77.8525866">
      </trkpt>
      <trkpt lat="9.0420584" lon="77.8532687">
      </trkpt>
      <trkpt lat="9.041523" lon="77.8535893">
      </trkpt>
      <trkpt lat="9.0400031" lon="77.8545134">
      </trkpt>
      <trkpt lat="9.0392804" lon="77.854868">
      </trkpt>
      <trkpt lat="9.0389365" lon="77.8550304">
      </trkpt>
      <trkpt lat="9.0381655" lon="77.8553642">
      </trkpt>
      <trkpt lat="9.0376443" lon="77.855551">
      </trkpt>
      <trkpt lat="9.0370054" lon="77.8557366">
      </trkpt>
      <trkpt lat="9.0352943" lon="77.8561833">
      </trkpt>
      <trkpt lat="9.0351797" lon="77.8562093">
      </trkpt>
      <trkpt lat="9.0335504" lon="77.8565787">
      </trkpt>
      <trkpt lat="9.0309803" lon="77.8570932">
      </trkpt>
      <trkpt lat="9.0308965" lon="77.8571126">
      </trkpt>
      <trkpt lat="9.0274428" lon="77.857849">
      </trkpt>
      <trkpt lat="9.0273335" lon="77.8578723">
      </trkpt>
      <trkpt lat="9.0240764" lon="77.8585677">
      </trkpt>
      <trkpt lat="9.0238827" lon="77.8586088">
      </trkpt>
      <trkpt lat="9.0206048" lon="77.8593039">
      </trkpt>
      <trkpt lat="9.0126268" lon="77.8609818">
      </trkpt>
      <trkpt lat="9.0118683" lon="77.8611619">
      </trkpt>
      <trkpt lat="9.0053159" lon="77.8625396">
      </trkpt>
      <trkpt lat="9.0051181" lon="77.8625835">
      </trkpt>
      <trkpt lat="9.0043566" lon="77.8627241">
      </trkpt>
      <trkpt lat="9.0040255" lon="77.8628005">
      </trkpt>
      <trkpt lat="9.0033978" lon="77.8629454">
      </trkpt>
      <trkpt lat="9.0021061" lon="77.8632155">
      </trkpt>
      <trkpt lat="9.0010921" lon="77.8634186">
      </trkpt>
      <trkpt lat="9.0000023" lon="77.8636472">
      </trkpt>
      <trkpt lat="8.9988405" lon="77.8639108">
      </trkpt>
      <trkpt lat="8.9977903" lon="77.8640538">
      </trkpt>
      <trkpt lat="8.9965808" lon="77.8641267">
      </trkpt>
      <trkpt lat="8.996413" lon="77.8641329">
      </trkpt>
      <trkpt lat="8.9959217" lon="77.8641482">
      </trkpt>
      <trkpt lat="8.9948934" lon="77.8640739">
      </trkpt>
      <trkpt lat="8.993595" lon="77.8639148">
      </trkpt>
      <trkpt lat="8.9895951" lon="77.8634019">
      </trkpt>
      <trkpt lat="8.9856767" lon="77.8628655">
      </trkpt>
      <trkpt lat="8.9819794" lon="77.8624411">
      </trkpt>
      <trkpt lat="8.9785034" lon="77.8620167">
      </trkpt>
      <trkpt lat="8.9777814" lon="77.8619636">
      </trkpt>
      <trkpt lat="8.9760114" lon="77.8618811">
      </trkpt>
      <trkpt lat="8.9758949" lon="77.8618929">
      </trkpt>
      <trkpt lat="8.9732049" lon="77.8620403">
      </trkpt>
      <trkpt lat="8.971627" lon="77.8622643">
      </trkpt>
      <trkpt lat="8.9704" lon="77.8624601">
      </trkpt>
      <trkpt lat="8.9703344" lon="77.8624706">
      </trkpt>
      <trkpt lat="8.967982" lon="77.8629952">
      </trkpt>
      <trkpt lat="8.9657714" lon="77.8637215">
      </trkpt>
      <trkpt lat="8.9618586" lon="77.8650302">
      </trkpt>
      <trkpt lat="8.9580272" lon="77.8662739">
      </trkpt>
      <trkpt lat="8.9541725" lon="77.8675295">
      </trkpt>
      <trkpt lat="8.9524023" lon="77.868119">
      </trkpt>
      <trkpt lat="8.9502653" lon="77.8688322">
      </trkpt>
      <trkpt lat="8.9478371" lon="77.8695986">
      </trkpt>
      <trkpt lat="8.9465123" lon="77.8700579">
      </trkpt>
      <trkpt lat="8.9444598" lon="77.8706891">
      </trkpt>
      <trkpt lat="8.9405642" lon="77.8720213">
      </trkpt>
      <trkpt lat="8.9368141" lon="77.8732179">
      </trkpt>
      <trkpt lat="8.932831" lon="77.8745383">
      </trkpt>
      <trkpt lat="8.9293371" lon="77.875676">
      </trkpt>
      <trkpt lat="8.9260469" lon="77.8767194">
      </trkpt>
      <trkpt lat="8.9233914" lon="77.8776154">
      </trkpt>
      <trkpt lat="8.9230147" lon="77.8777347">
      </trkpt>
      <trkpt lat="8.9224772" lon="77.8779396">
      </trkpt>
      <trkpt lat="8.9223491" lon="77.8779749">
      </trkpt>
      <trkpt lat="8.9189209" lon="77.879087">
      </trkpt>
      <trkpt lat="8.9174364" lon="77.8795734">
      </trkpt>
      <trkpt lat="8.914948" lon="77.8803841">
      </trkpt>
      <trkpt lat="8.9077722" lon="77.8827079">
      </trkpt>
      <trkpt lat="8.9046973" lon="77.8837034">
      </trkpt>
      <trkpt lat="8.9044919" lon="77.8837916">
      </trkpt>
      <trkpt lat="8.900278" lon="77.8851083">
      </trkpt>
      <trkpt lat="8.8956694" lon="77.8866204">
      </trkpt>
      <trkpt lat="8.8936071" lon="77.8872795">
      </trkpt>
      <trkpt lat="8.892585" lon="77.887614">
      </trkpt>
      <trkpt lat="8.8923236" lon="77.8876815">
      </trkpt>
      <trkpt lat="8.8907531" lon="77.8882222">
      </trkpt>
      <trkpt lat="8.8892227" lon="77.8887141">
      </trkpt>
      <trkpt lat="8.8889947" lon="77.8887859">
      </trkpt>
      <trkpt lat="8.8868122" lon="77.8894728">
      </trkpt>
      <trkpt lat="8.8857805" lon="77.8897731">
      </trkpt>
      <trkpt lat="8.8834605" lon="77.8904593">
      </trkpt>
      <trkpt lat="8.8825922" lon="77.8907139">
      </trkpt>
      <trkpt lat="8.8810606" lon="77.8912397">
      </trkpt>
      <trkpt lat="8.8807741" lon="77.8913355">
      </trkpt>
      <trkpt lat="8.8805638" lon="77.8914056">
      </trkpt>
      <trkpt lat="8.8803506" lon="77.8914995">
      </trkpt>
      <trkpt lat="8.8798353" lon="77.8917036">
      </trkpt>
      <trkpt lat="8.8791145" lon="77.8920132">
      </trkpt>
      <trkpt lat="8.8786152" lon="77.8921841">
      </trkpt>
      <trkpt lat="8.8783304" lon="77.892273">
      </trkpt>
      <trkpt lat="8.8777159" lon="77.8924737">
      </trkpt>
      <trkpt lat="8.8773901" lon="77.8925619">
      </trkpt>
      <trkpt lat="8.8771055" lon="77.8926081">
      </trkpt>
      <trkpt lat="8.8767639" lon="77.8926603">
      </trkpt>
      <trkpt lat="8.8766059" lon="77.8926757">
      </trkpt>
      <trkpt lat="8.8764233" lon="77.8926978">
      </trkpt>
      <trkpt lat="8.8759216" lon="77.8927165">
      </trkpt>
      <trkpt lat="8.8754033" lon="77.8927003">
      </trkpt>
      <trkpt lat="8.8749836" lon="77.8926647">
      </trkpt>
      <trkpt lat="8.8747759" lon="77.89265">
      </trkpt>
      <trkpt lat="8.8743426" lon="77.8925692">
      </trkpt>
      <trkpt lat="8.8742358" lon="77.8925456">
      </trkpt>
      <trkpt lat="8.8736661" lon="77.8923951">
      </trkpt>
      <trkpt lat="8.8731422" lon="77.8922057">
      </trkpt>
      <trkpt lat="8.8727504" lon="77.8920369">
      </trkpt>
      <trkpt lat="8.8723222" lon="77.8918172">
      </trkpt>
      <trkpt lat="8.8720981" lon="77.8916904">
      </trkpt>
      <trkpt lat="8.871973" lon="77.8916194">
      </trkpt>
      <trkpt lat="8.8717438" lon="77.8914591">
      </trkpt>
      <trkpt lat="8.8713522" lon="77.8911868">
      </trkpt>
      <trkpt lat="8.8708871" lon="77.8907966">
      </trkpt>
      <trkpt lat="8.8704101" lon="77.89035">
      </trkpt>
      <trkpt lat="8.8702478" lon="77.8901723">
      </trkpt>
      <trkpt lat="8.8699092" lon="77.8897767">
      </trkpt>
      <trkpt lat="8.869568" lon="77.88931">
      </trkpt>
      <trkpt lat="8.8692361" lon="77.8887836">
      </trkpt>
      <trkpt lat="8.8691251" lon="77.8885685">
      </trkpt>
      <trkpt lat="8.8688419" lon="77.8880198">
      </trkpt>
      <trkpt lat="8.8684321" lon="77.8869701">
      </trkpt>
      <trkpt lat="8.8680144" lon="77.8858741">
      </trkpt>
      <trkpt lat="8.866906" lon="77.8830215">
      </trkpt>
      <trkpt lat="8.8668788" lon="77.8829542">
      </trkpt>
      <trkpt lat="8.8660458" lon="77.88084">
      </trkpt>
      <trkpt lat="8.8645586" lon="77.8769509">
      </trkpt>
      <trkpt lat="8.863841" lon="77.8750537">
      </trkpt>
      <trkpt lat="8.863528" lon="77.8741936">
      </trkpt>
      <trkpt lat="8.8632214" lon="77.8731272">
      </trkpt>
      <trkpt lat="8.8630565" lon="77.8722487">
      </trkpt>
      <trkpt lat="8.862941" lon="77.8717317">
      </trkpt>
      <trkpt lat="8.8628907" lon="77.871254">
      </trkpt>
      <trkpt lat="8.8628279" lon="77.8703444">
      </trkpt>
      <trkpt lat="8.8628082" lon="77.8684717">
      </trkpt>
      <trkpt lat="8.8627365" lon="77.8578927">
      </trkpt>
      <trkpt lat="8.862726" lon="77.8543722">
      </trkpt>
      <trkpt lat="8.862726" lon="77.8542367">
      </trkpt>
      <trkpt lat="8.8627096" lon="77.8524701">
      </trkpt>
      <trkpt lat="8.8627122" lon="77.8523351">
      </trkpt>
      <trkpt lat="8.8626912" lon="77.8474247">
      </trkpt>
      <trkpt lat="8.8626915" lon="77.8472374">
      </trkpt>
      <trkpt lat="8.8626755" lon="77.8458912">
      </trkpt>
      <trkpt lat="8.8626481" lon="77.8435872">
      </trkpt>
      <trkpt lat="8.8626641" lon="77.8424831">
      </trkpt>
      <trkpt lat="8.8626577" lon="77.8408474">
      </trkpt>
      <trkpt lat="8.8626564" lon="77.8406938">
      </trkpt>
      <trkpt lat="8.8626469" lon="77.8394262">
      </trkpt>
      <trkpt lat="8.8626326" lon="77.8380687">
      </trkpt>
      <trkpt lat="8.8626242" lon="77.8361676">
      </trkpt>
      <trkpt lat="8.8626234" lon="77.8360748">
      </trkpt>
      <trkpt lat="8.8626083" lon="77.833632">
      </trkpt>
      <trkpt lat="8.8626135" lon="77.8318541">
      </trkpt>
      <trkpt lat="8.8625739" lon="77.8310112">
      </trkpt>
      <trkpt lat="8.862558" lon="77.8307912">
      </trkpt>
      <trkpt lat="8.8625049" lon="77.830101">
      </trkpt>
      <trkpt lat="8.8623991" lon="77.8294577">
      </trkpt>
      <trkpt lat="8.8622681" lon="77.8288273">
      </trkpt>
      <trkpt lat="8.8620814" lon="77.8280778">
      </trkpt>
      <trkpt lat="8.8618347" lon="77.8273017">
      </trkpt>
      <trkpt lat="8.8615228" lon="77.8264874">
      </trkpt>
      <trkpt lat="8.8611307" lon="77.8256038">
      </trkpt>
      <trkpt lat="8.8608318" lon="77.8249833">
      </trkpt>
      <trkpt lat="8.8604326" lon="77.8242974">
      </trkpt>
      <trkpt lat="8.8599629" lon="77.8235822">
      </trkpt>
      <trkpt lat="8.8594596" lon="77.8228824">
      </trkpt>
      <trkpt lat="8.8586383" lon="77.8219467">
      </trkpt>
      <trkpt lat="8.857852" lon="77.8210932">
      </trkpt>
      <trkpt lat="8.8568064" lon="77.8199364">
      </trkpt>
      <trkpt lat="8.8552231" lon="77.8182002">
      </trkpt>
      <trkpt lat="8.8551006" lon="77.8181062">
      </trkpt>
      <trkpt lat="8.8531366" lon="77.8159525">
      </trkpt>
      <trkpt lat="8.8410839" lon="77.8025955">
      </trkpt>
      <trkpt lat="8.839674" lon="77.801021">
      </trkpt>
      <trkpt lat="8.8385953" lon="77.7998891">
      </trkpt>
      <trkpt lat="8.8378759" lon="77.7989815">
      </trkpt>
      <trkpt lat="8.8375263" lon="77.7984824">
      </trkpt>
      <trkpt lat="8.837221" lon="77.7980442">
      </trkpt>
      <trkpt lat="8.8368839" lon="77.7974989">
      </trkpt>
      <trkpt lat="8.8354553" lon="77.7948766">
      </trkpt>
      <trkpt lat="8.8324682" lon="77.7892375">
      </trkpt>
      <trkpt lat="8.8315774" lon="77.787707">
      </trkpt>
      <trkpt lat="8.8308866" lon="77.7866954">
      </trkpt>
      <trkpt lat="8.8299772" lon="77.7855355">
      </trkpt>
      <trkpt lat="8.8297274" lon="77.7852309">
      </trkpt>
      <trkpt lat="8.829137" lon="77.78435">
      </trkpt>
      <trkpt lat="8.8290156" lon="77.7841994">
      </trkpt>
      <trkpt lat="8.8280366" lon="77.7830579">
      </trkpt>
      <trkpt lat="8.822827" lon="77.7769516">
      </trkpt>
      <trkpt lat="8.8224327" lon="77.7765694">
      </trkpt>
      <trkpt lat="8.8220071" lon="77.7760377">
      </trkpt>
      <trkpt lat="8.8217929" lon="77.7757763">
      </trkpt>
      <trkpt lat="8.821494" lon="77.7754117">
      </trkpt>
      <trkpt lat="8.8189405" lon="77.7723796">
      </trkpt>
      <trkpt lat="8.8170184" lon="77.7700479">
      </trkpt>
      <trkpt lat="8.8107083" lon="77.7623317">
      </trkpt>
      <trkpt lat="8.8093574" lon="77.7606598">
      </trkpt>
      <trkpt lat="8.8045434" lon="77.7547446">
      </trkpt>
      <trkpt lat="8.8009816" lon="77.7503887">
      </trkpt>
      <trkpt lat="8.7931627" lon="77.7408189">
      </trkpt>
      <trkpt lat="8.7898882" lon="77.7368119">
      </trkpt>
      <trkpt lat="8.7887727" lon="77.7354738">
      </trkpt>
      <trkpt lat="8.788395" lon="77.7349463">
      </trkpt>
      <trkpt lat="8.7879258" lon="77.7343696">
      </trkpt>
      <trkpt lat="8.7869265" lon="77.7331439">
      </trkpt>
      <trkpt lat="8.7859006" lon="77.7318698">
      </trkpt>
      <trkpt lat="8.7850365" lon="77.7308211">
      </trkpt>
      <trkpt lat="8.7841368" lon="77.7297301">
      </trkpt>
      <trkpt lat="8.7836612" lon="77.7291424">
      </trkpt>
      <trkpt lat="8.7833205" lon="77.7287246">
      </trkpt>
      <trkpt lat="8.7832907" lon="77.7286866">
      </trkpt>
      <trkpt lat="8.7832644" lon="77.728653">
      </trkpt>
      <trkpt lat="8.7826916" lon="77.7279718">
      </trkpt>
      <trkpt lat="8.7821731" lon="77.7273013">
      </trkpt>
      <trkpt lat="8.7817086" lon="77.7267599">
      </trkpt>
      <trkpt lat="8.7807014" lon="77.7254955">
      </trkpt>
      <trkpt lat="8.7803396" lon="77.7251437">
      </trkpt>
      <trkpt lat="8.7734134" lon="77.7166459">
      </trkpt>
      <trkpt lat="8.7728287" lon="77.7159736">
      </trkpt>
      <trkpt lat="8.7721581" lon="77.715303">
      </trkpt>
      <trkpt lat="8.7714742" lon="77.7146861">
      </trkpt>
      <trkpt lat="8.7706941" lon="77.7140978">
      </trkpt>
      <trkpt lat="8.7700135" lon="77.7136454">
      </trkpt>
      <trkpt lat="8.7692474" lon="77.7132082">
      </trkpt>
      <trkpt lat="8.768431" lon="77.7128085">
      </trkpt>
      <trkpt lat="8.767556" lon="77.7124266">
      </trkpt>
      <trkpt lat="8.7656449" lon="77.7117276">
      </trkpt>
      <trkpt lat="8.7645387" lon="77.7113637">
      </trkpt>
      <trkpt lat="8.7644623" lon="77.7113374">
      </trkpt>
      <trkpt lat="8.7636603" lon="77.7110618">
      </trkpt>
      <trkpt lat="8.7610272" lon="77.7101425">
      </trkpt>
      <trkpt lat="8.7599799" lon="77.7098393">
      </trkpt>
      <trkpt lat="8.7590203" lon="77.7096355">
      </trkpt>
      <trkpt lat="8.7582727" lon="77.7095094">
      </trkpt>
      <trkpt lat="8.7575002" lon="77.70944">
      </trkpt>
      <trkpt lat="8.7558139" lon="77.7093598">
      </trkpt>
      <trkpt lat="8.7556151" lon="77.709352">
      </trkpt>
      <trkpt lat="8.7551419" lon="77.7093201">
      </trkpt>
      <trkpt lat="8.7480294" lon="77.7089676">
      </trkpt>
      <trkpt lat="8.7470619" lon="77.7089264">
      </trkpt>
      <trkpt lat="8.7468679" lon="77.7089182">
      </trkpt>
      <trkpt lat="8.7459119" lon="77.7088775">
      </trkpt>
      <trkpt lat="8.7440237" lon="77.7087893">
      </trkpt>
      <trkpt lat="8.7434136" lon="77.7087532">
      </trkpt>
      <trkpt lat="8.7425995" lon="77.7086907">
      </trkpt>
      <trkpt lat="8.7420443" lon="77.7086819">
      </trkpt>
      <trkpt lat="8.7417424" lon="77.7086507">
      </trkpt>
      <trkpt lat="8.739032" lon="77.7085216">
      </trkpt>
      <trkpt lat="8.7383175" lon="77.7084777">
      </trkpt>
      <trkpt lat="8.7379857" lon="77.7084717">
      </trkpt>
      <trkpt lat="8.737274" lon="77.7084396">
      </trkpt>
      <trkpt lat="8.7368063" lon="77.7084141">
      </trkpt>
      <trkpt lat="8.7363586" lon="77.7083899">
      </trkpt>
      <trkpt lat="8.7359139" lon="77.708371">
      </trkpt>
      <trkpt lat="8.7354987" lon="77.7083499">
      </trkpt>
      <trkpt lat="8.7335435" lon="77.7082608">
      </trkpt>
      <trkpt lat="8.7324146" lon="77.708208">
      </trkpt>
      <trkpt lat="8.7319049" lon="77.7081805">
      </trkpt>
      <trkpt lat="8.7306751" lon="77.7081285">
      </trkpt>
      <trkpt lat="8.7300637" lon="77.708097">
      </trkpt>
      <trkpt lat="8.7292804" lon="77.7080572">
      </trkpt>
      <trkpt lat="8.7291816" lon="77.7080474">
      </trkpt>
      <trkpt lat="8.7289909" lon="77.7080241">
      </trkpt>
      <trkpt lat="8.728846" lon="77.7079932">
      </trkpt>
      <trkpt lat="8.7286589" lon="77.7079493">
      </trkpt>
      <trkpt lat="8.7285095" lon="77.7078891">
      </trkpt>
      <trkpt lat="8.7283177" lon="77.7078046">
      </trkpt>
      <trkpt lat="8.7279162" lon="77.707593">
      </trkpt>
      <trkpt lat="8.727758" lon="77.7074939">
      </trkpt>
      <trkpt lat="8.7275274" lon="77.7073239">
      </trkpt>
      <trkpt lat="8.727292" lon="77.7071137">
      </trkpt>
      <trkpt lat="8.7270777" lon="77.706902">
      </trkpt>
      <trkpt lat="8.7269354" lon="77.7067258">
      </trkpt>
      <trkpt lat="8.7267262" lon="77.7064322">
      </trkpt>
      <trkpt lat="8.7266374" lon="77.706288">
      </trkpt>
      <trkpt lat="8.7265895" lon="77.706203">
      </trkpt>
      <trkpt lat="8.7261527" lon="77.7055004">
      </trkpt>
      <trkpt lat="8.7259474" lon="77.7051825">
      </trkpt>
      <trkpt lat="8.7258882" lon="77.7051027">
      </trkpt>
      <trkpt lat="8.7258003" lon="77.7049843">
      </trkpt>
      <trkpt lat="8.7256211" lon="77.7047949">
      </trkpt>
      <trkpt lat="8.7254425" lon="77.7046126">
      </trkpt>
      <trkpt lat="8.7252476" lon="77.7044442">
      </trkpt>
      <trkpt lat="8.725023" lon="77.7042961">
      </trkpt>
      <trkpt lat="8.7247673" lon="77.7041892">
      </trkpt>
      <trkpt lat="8.7245148" lon="77.7040923">
      </trkpt>
      <trkpt lat="8.7242543" lon="77.7040299">
      </trkpt>
      <trkpt lat="8.7240518" lon="77.7040043">
      </trkpt>
      <trkpt lat="8.7238679" lon="77.7039972">
      </trkpt>
      <trkpt lat="8.7237166" lon="77.7040007">
      </trkpt>
      <trkpt lat="8.7235741" lon="77.7040009">
      </trkpt>
      <trkpt lat="8.7234319" lon="77.7040089">
      </trkpt>
      <trkpt lat="8.7232903" lon="77.7040247">
      </trkpt>
      <trkpt lat="8.7231497" lon="77.7040483">
      </trkpt>
      <trkpt lat="8.7230106" lon="77.7040797">
      </trkpt>
      <trkpt lat="8.7228735" lon="77.7041186">
      </trkpt>
      <trkpt lat="8.7227386" lon="77.7041651">
      </trkpt>
      <trkpt lat="8.7226064" lon="77.7042189">
      </trkpt>
      <trkpt lat="8.722468" lon="77.7042847">
      </trkpt>
      <trkpt lat="8.7223337" lon="77.7043585">
      </trkpt>
      <trkpt lat="8.7222038" lon="77.7044401">
      </trkpt>
      <trkpt lat="8.7220789" lon="77.7045293">
      </trkpt>
      <trkpt lat="8.7219594" lon="77.7046257">
      </trkpt>
      <trkpt lat="8.7218456" lon="77.704729">
      </trkpt>
      <trkpt lat="8.7214323" lon="77.7050763">
      </trkpt>
      <trkpt lat="8.7194977" lon="77.7066466">
      </trkpt>
      <trkpt lat="8.7190943" lon="77.7069698">
      </trkpt>
      <trkpt lat="8.7188018" lon="77.7072111">
      </trkpt>
      <trkpt lat="8.718582" lon="77.7073704">
      </trkpt>
      <trkpt lat="8.7182414" lon="77.7075959">
      </trkpt>
      <trkpt lat="8.7178616" lon="77.707775">
      </trkpt>
      <trkpt lat="8.7173676" lon="77.7079722">
      </trkpt>
      <trkpt lat="8.7167806" lon="77.7081063">
      </trkpt>
      <trkpt lat="8.7162488" lon="77.7081559">
      </trkpt>
      <trkpt lat="8.7160619" lon="77.7081624">
      </trkpt>
      <trkpt lat="8.7157452" lon="77.7081733">
      </trkpt>
      <trkpt lat="8.7153005" lon="77.708151">
      </trkpt>
      <trkpt lat="8.714828" lon="77.7080908">
      </trkpt>
      <trkpt lat="8.714349" lon="77.707971">
      </trkpt>
      <trkpt lat="8.7138919" lon="77.7078197">
      </trkpt>
      <trkpt lat="8.7134544" lon="77.7076287">
      </trkpt>
      <trkpt lat="8.7130565" lon="77.7074139">
      </trkpt>
      <trkpt lat="8.7126718" lon="77.7071594">
      </trkpt>
      <trkpt lat="8.7122688" lon="77.7068226">
      </trkpt>
      <trkpt lat="8.7116497" lon="77.706277">
      </trkpt>
      <trkpt lat="8.7106772" lon="77.7054136">
      </trkpt>
      <trkpt lat="8.7088762" lon="77.703806">
      </trkpt>
      <trkpt lat="8.7065514" lon="77.7018008">
      </trkpt>
      <trkpt lat="8.7060902" lon="77.7013553">
      </trkpt>
      <trkpt lat="8.704846" lon="77.7002424">
      </trkpt>
      <trkpt lat="8.7037019" lon="77.6992431">
      </trkpt>
      <trkpt lat="8.7035272" lon="77.6990612">
      </trkpt>
      <trkpt lat="8.7019494" lon="77.697704">
      </trkpt>
      <trkpt lat="8.7000468" lon="77.6959894">
      </trkpt>
      <trkpt lat="8.6994765" lon="77.695538">
      </trkpt>
      <trkpt lat="8.6989323" lon="77.6951925">
      </trkpt>
      <trkpt lat="8.698481" lon="77.6949483">
      </trkpt>
      <trkpt lat="8.6980035" lon="77.6947371">
      </trkpt>
      <trkpt lat="8.6973954" lon="77.6945074">
      </trkpt>
      <trkpt lat="8.6966564" lon="77.694291">
      </trkpt>
      <trkpt lat="8.6923069" lon="77.6934714">
      </trkpt>
      <trkpt lat="8.690579" lon="77.6931598">
      </trkpt>
      <trkpt lat="8.6892754" lon="77.692894">
      </trkpt>
      <trkpt lat="8.6846249" lon="77.6920346">
      </trkpt>
      <trkpt lat="8.6825959" lon="77.6916457">
      </trkpt>
      <trkpt lat="8.6825313" lon="77.6916333">
      </trkpt>
      <trkpt lat="8.6823371" lon="77.6915967">
      </trkpt>
      <trkpt lat="8.6813208" lon="77.691433">
      </trkpt>
      <trkpt lat="8.6792573" lon="77.6910478">
      </trkpt>
      <trkpt lat="8.6734807" lon="77.689991">
      </trkpt>
      <trkpt lat="8.6692599" lon="77.6892366">
      </trkpt>
      <trkpt lat="8.6659654" lon="77.688635">
      </trkpt>
      <trkpt lat="8.6613244" lon="77.6878138">
      </trkpt>
      <trkpt lat="8.6585286" lon="77.6873005">
      </trkpt>
      <trkpt lat="8.6575705" lon="77.6871228">
      </trkpt>
      <trkpt lat="8.6542316" lon="77.6865312">
      </trkpt>
      <trkpt lat="8.6520188" lon="77.686136">
      </trkpt>
      <trkpt lat="8.649806" lon="77.6857474">
      </trkpt>
      <trkpt lat="8.6467966" lon="77.6852065">
      </trkpt>
      <trkpt lat="8.6448381" lon="77.6848734">
      </trkpt>
      <trkpt lat="8.6393597" lon="77.683864">
      </trkpt>
      <trkpt lat="8.6361314" lon="77.6832937">
      </trkpt>
      <trkpt lat="8.6353969" lon="77.6831483">
      </trkpt>
      <trkpt lat="8.6348255" lon="77.6830834">
      </trkpt>
      <trkpt lat="8.6342966" lon="77.6830285">
      </trkpt>
      <trkpt lat="8.6337873" lon="77.6830068">
      </trkpt>
      <trkpt lat="8.6323429" lon="77.6830027">
      </trkpt>
      <trkpt lat="8.6313203" lon="77.6829913">
      </trkpt>
      <trkpt lat="8.62357" lon="77.682953">
      </trkpt>
      <trkpt lat="8.6230931" lon="77.6829567">
      </trkpt>
      <trkpt lat="8.6216754" lon="77.6829436">
      </trkpt>
      <trkpt lat="8.6175244" lon="77.6828993">
      </trkpt>
      <trkpt lat="8.6135587" lon="77.6828671">
      </trkpt>
      <trkpt lat="8.6133579" lon="77.6828663">
      </trkpt>
      <trkpt lat="8.6131892" lon="77.6828658">
      </trkpt>
      <trkpt lat="8.6085036" lon="77.6828459">
      </trkpt>
      <trkpt lat="8.606789" lon="77.6828349">
      </trkpt>
      <trkpt lat="8.6023345" lon="77.6828016">
      </trkpt>
      <trkpt lat="8.599512" lon="77.6827899">
      </trkpt>
      <trkpt lat="8.5943668" lon="77.6827544">
      </trkpt>
      <trkpt lat="8.5890951" lon="77.6827271">
      </trkpt>
      <trkpt lat="8.5866775" lon="77.6827215">
      </trkpt>
      <trkpt lat="8.5788178" lon="77.6826658">
      </trkpt>
      <trkpt lat="8.5777593" lon="77.6826535">
      </trkpt>
      <trkpt lat="8.576822" lon="77.6826189">
      </trkpt>
      <trkpt lat="8.5759104" lon="77.6825023">
      </trkpt>
      <trkpt lat="8.575006" lon="77.6823357">
      </trkpt>
      <trkpt lat="8.5743324" lon="77.682167">
      </trkpt>
      <trkpt lat="8.573633" lon="77.681958">
      </trkpt>
      <trkpt lat="8.5730938" lon="77.6817834">
      </trkpt>
      <trkpt lat="8.5723571" lon="77.6815086">
      </trkpt>
      <trkpt lat="8.5717525" lon="77.681245">
      </trkpt>
      <trkpt lat="8.5716122" lon="77.6811856">
      </trkpt>
      <trkpt lat="8.5715514" lon="77.6811599">
      </trkpt>
      <trkpt lat="8.5708107" lon="77.6808466">
      </trkpt>
      <trkpt lat="8.5695661" lon="77.6803035">
      </trkpt>
      <trkpt lat="8.5678789" lon="77.6795866">
      </trkpt>
      <trkpt lat="8.5678205" lon="77.6795618">
      </trkpt>
      <trkpt lat="8.5640591" lon="77.6779637">
      </trkpt>
      <trkpt lat="8.5615991" lon="77.6769407">
      </trkpt>
      <trkpt lat="8.5591556" lon="77.6758675">
      </trkpt>
      <trkpt lat="8.5580858" lon="77.6754226">
      </trkpt>
      <trkpt lat="8.5576322" lon="77.6752201">
      </trkpt>
      <trkpt lat="8.5566722" lon="77.674822">
      </trkpt>
      <trkpt lat="8.5560977" lon="77.6745909">
      </trkpt>
      <trkpt lat="8.5559224" lon="77.6745223">
      </trkpt>
      <trkpt lat="8.5552056" lon="77.6742951">
      </trkpt>
      <trkpt lat="8.5544963" lon="77.6740809">
      </trkpt>
      <trkpt lat="8.5541536" lon="77.6739948">
      </trkpt>
      <trkpt lat="8.5537999" lon="77.6739198">
      </trkpt>
      <trkpt lat="8.5530705" lon="77.6737754">
      </trkpt>
      <trkpt lat="8.5527836" lon="77.67373">
      </trkpt>
      <trkpt lat="8.5523127" lon="77.6736673">
      </trkpt>
      <trkpt lat="8.5517372" lon="77.6736157">
      </trkpt>
      <trkpt lat="8.5503769" lon="77.6735237">
      </trkpt>
      <trkpt lat="8.5495238" lon="77.6734571">
      </trkpt>
      <trkpt lat="8.5494645" lon="77.6734525">
      </trkpt>
      <trkpt lat="8.5478765" lon="77.6733285">
      </trkpt>
      <trkpt lat="8.5459154" lon="77.6731831">
      </trkpt>
      <trkpt lat="8.5431149" lon="77.6729677">
      </trkpt>
      <trkpt lat="8.5364693" lon="77.6724663">
      </trkpt>
      <trkpt lat="8.5362045" lon="77.6724463">
      </trkpt>
      <trkpt lat="8.5334167" lon="77.6722327">
      </trkpt>
      <trkpt lat="8.5318713" lon="77.6721143">
      </trkpt>
      <trkpt lat="8.5298001" lon="77.671956">
      </trkpt>
      <trkpt lat="8.5271626" lon="77.6717405">
      </trkpt>
      <trkpt lat="8.5239196" lon="77.6714852">
      </trkpt>
      <trkpt lat="8.5232525" lon="77.6714396">
      </trkpt>
      <trkpt lat="8.5231718" lon="77.671434">
      </trkpt>
      <trkpt lat="8.5216028" lon="77.6713267">
      </trkpt>
      <trkpt lat="8.5215329" lon="77.6713219">
      </trkpt>
      <trkpt lat="8.521275" lon="77.6713043">
      </trkpt>
      <trkpt lat="8.5192336" lon="77.6711613">
      </trkpt>
      <trkpt lat="8.5168147" lon="77.670973">
      </trkpt>
      <trkpt lat="8.5160955" lon="77.6709128">
      </trkpt>
      <trkpt lat="8.514508" lon="77.6707984">
      </trkpt>
      <trkpt lat="8.5135764" lon="77.6707075">
      </trkpt>
      <trkpt lat="8.5126578" lon="77.6706099">
      </trkpt>
      <trkpt lat="8.5123998" lon="77.6705611">
      </trkpt>
      <trkpt lat="8.5123187" lon="77.6705458">
      </trkpt>
      <trkpt lat="8.5116778" lon="77.6704246">
      </trkpt>
      <trkpt lat="8.5106742" lon="77.6701697">
      </trkpt>
      <trkpt lat="8.5098919" lon="77.6699336">
      </trkpt>
      <trkpt lat="8.5092471" lon="77.669671">
      </trkpt>
      <trkpt lat="8.5083831" lon="77.6692984">
      </trkpt>
      <trkpt lat="8.5077685" lon="77.6690027">
      </trkpt>
      <trkpt lat="8.5072063" lon="77.6686937">
      </trkpt>
      <trkpt lat="8.5066905" lon="77.6683806">
      </trkpt>
      <trkpt lat="8.5061984" lon="77.6680601">
      </trkpt>
      <trkpt lat="8.5056997" lon="77.6676933">
      </trkpt>
      <trkpt lat="8.5054927" lon="77.6675303">
      </trkpt>
      <trkpt lat="8.5047862" lon="77.6669741">
      </trkpt>
      <trkpt lat="8.5038909" lon="77.6662697">
      </trkpt>
      <trkpt lat="8.5033139" lon="77.6658127">
      </trkpt>
      <trkpt lat="8.5027827" lon="77.6653954">
      </trkpt>
      <trkpt lat="8.5023367" lon="77.6650847">
      </trkpt>
      <trkpt lat="8.5019158" lon="77.6647952">
      </trkpt>
      <trkpt lat="8.501386" lon="77.6645178">
      </trkpt>
      <trkpt lat="8.5008235" lon="77.6642867">
      </trkpt>
      <trkpt lat="8.5002596" lon="77.6640547">
      </trkpt>
      <trkpt lat="8.4996107" lon="77.6638956">
      </trkpt>
      <trkpt lat="8.4990441" lon="77.6637989">
      </trkpt>
      <trkpt lat="8.4984435" lon="77.6637529">
      </trkpt>
      <trkpt lat="8.4966965" lon="77.6636729">
      </trkpt>
      <trkpt lat="8.4946136" lon="77.6635841">
      </trkpt>
      <trkpt lat="8.4929732" lon="77.6635135">
      </trkpt>
      <trkpt lat="8.4915283" lon="77.6634447">
      </trkpt>
      <trkpt lat="8.4904275" lon="77.6634062">
      </trkpt>
      <trkpt lat="8.4903466" lon="77.6634034">
      </trkpt>
      <trkpt lat="8.4900393" lon="77.6633926">
      </trkpt>
      <trkpt lat="8.4885568" lon="77.6633234">
      </trkpt>
      <trkpt lat="8.4883071" lon="77.6633118">
      </trkpt>
      <trkpt lat="8.4830704" lon="77.6630691">
      </trkpt>
      <trkpt lat="8.4810388" lon="77.6629917">
      </trkpt>
      <trkpt lat="8.4782104" lon="77.6628501">
      </trkpt>
      <trkpt lat="8.4760819" lon="77.6627419">
      </trkpt>
      <trkpt lat="8.4747285" lon="77.6625785">
      </trkpt>
      <trkpt lat="8.4741075" lon="77.6624493">
      </trkpt>
      <trkpt lat="8.4734926" lon="77.6623078">
      </trkpt>
      <trkpt lat="8.4727497" lon="77.6620969">
      </trkpt>
      <trkpt lat="8.4702037" lon="77.6612302">
      </trkpt>
      <trkpt lat="8.4689065" lon="77.6607808">
      </trkpt>
      <trkpt lat="8.4664642" lon="77.6599309">
      </trkpt>
      <trkpt lat="8.4655818" lon="77.6595541">
      </trkpt>
      <trkpt lat="8.4645649" lon="77.6592009">
      </trkpt>
      <trkpt lat="8.4631733" lon="77.6587029">
      </trkpt>
      <trkpt lat="8.4618815" lon="77.6582572">
      </trkpt>
      <trkpt lat="8.4605226" lon="77.6577622">
      </trkpt>
      <trkpt lat="8.4596846" lon="77.6574806">
      </trkpt>
      <trkpt lat="8.4588496" lon="77.6571866">
      </trkpt>
      <trkpt lat="8.457204" lon="77.6565926">
      </trkpt>
      <trkpt lat="8.45583" lon="77.6561148">
      </trkpt>
      <trkpt lat="8.4544651" lon="77.6556217">
      </trkpt>
      <trkpt lat="8.4536014" lon="77.6553044">
      </trkpt>
      <trkpt lat="8.4527439" lon="77.6550148">
      </trkpt>
      <trkpt lat="8.4522477" lon="77.6548097">
      </trkpt>
      <trkpt lat="8.4517575" lon="77.6545799">
      </trkpt>
      <trkpt lat="8.4509151" lon="77.6540129">
      </trkpt>
      <trkpt lat="8.4504556" lon="77.6536388">
      </trkpt>
      <trkpt lat="8.4500466" lon="77.6532225">
      </trkpt>
      <trkpt lat="8.4496102" lon="77.6527475">
      </trkpt>
      <trkpt lat="8.4486768" lon="77.6516298">
      </trkpt>
      <trkpt lat="8.4476027" lon="77.6503637">
      </trkpt>
      <trkpt lat="8.4466837" lon="77.6492464">
      </trkpt>
      <trkpt lat="8.4464429" lon="77.648986">
      </trkpt>
      <trkpt lat="8.4461309" lon="77.6486592">
      </trkpt>
      <trkpt lat="8.4455494" lon="77.6481011">
      </trkpt>
      <trkpt lat="8.4449862" lon="77.6476067">
      </trkpt>
      <trkpt lat="8.4443712" lon="77.6471122">
      </trkpt>
      <trkpt lat="8.4425514" lon="77.6458414">
      </trkpt>
      <trkpt lat="8.4418363" lon="77.6453373">
      </trkpt>
      <trkpt lat="8.4395489" lon="77.6436884">
      </trkpt>
      <trkpt lat="8.438194" lon="77.6427496">
      </trkpt>
      <trkpt lat="8.436512" lon="77.6415756">
      </trkpt>
      <trkpt lat="8.435712" lon="77.6409906">
      </trkpt>
      <trkpt lat="8.4350379" lon="77.6405071">
      </trkpt>
      <trkpt lat="8.4343426" lon="77.6400483">
      </trkpt>
      <trkpt lat="8.4336937" lon="77.6396759">
      </trkpt>
      <trkpt lat="8.4329821" lon="77.6393141">
      </trkpt>
      <trkpt lat="8.4315988" lon="77.6386321">
      </trkpt>
      <trkpt lat="8.431307" lon="77.6384972">
      </trkpt>
      <trkpt lat="8.4299288" lon="77.6378792">
      </trkpt>
      <trkpt lat="8.4261649" lon="77.6360854">
      </trkpt>
      <trkpt lat="8.4249086" lon="77.6354379">
      </trkpt>
      <trkpt lat="8.4208472" lon="77.633565">
      </trkpt>
      <trkpt lat="8.41903" lon="77.6327062">
      </trkpt>
      <trkpt lat="8.4173197" lon="77.6318827">
      </trkpt>
      <trkpt lat="8.4152232" lon="77.6308853">
      </trkpt>
      <trkpt lat="8.4131232" lon="77.6299055">
      </trkpt>
      <trkpt lat="8.4114625" lon="77.629101">
      </trkpt>
      <trkpt lat="8.4102762" lon="77.6285533">
      </trkpt>
      <trkpt lat="8.4091758" lon="77.6281457">
      </trkpt>
      <trkpt lat="8.4083425" lon="77.6278713">
      </trkpt>
      <trkpt lat="8.407363" lon="77.627638">
      </trkpt>
      <trkpt lat="8.4062336" lon="77.6274519">
      </trkpt>
      <trkpt lat="8.4055869" lon="77.6273622">
      </trkpt>
      <trkpt lat="8.4049298" lon="77.6273186">
      </trkpt>
      <trkpt lat="8.4031296" lon="77.6272593">
      </trkpt>
      <trkpt lat="8.4021641" lon="77.6272267">
      </trkpt>
      <trkpt lat="8.4008868" lon="77.627158">
      </trkpt>
      <trkpt lat="8.3996235" lon="77.6270998">
      </trkpt>
      <trkpt lat="8.398398" lon="77.6270128">
      </trkpt>
      <trkpt lat="8.3975932" lon="77.626928">
      </trkpt>
      <trkpt lat="8.3970264" lon="77.6268502">
      </trkpt>
      <trkpt lat="8.3964313" lon="77.6267222">
      </trkpt>
      <trkpt lat="8.3958852" lon="77.6265977">
      </trkpt>
      <trkpt lat="8.3951151" lon="77.6263699">
      </trkpt>
      <trkpt lat="8.3945061" lon="77.6261686">
      </trkpt>
      <trkpt lat="8.3939041" lon="77.625946">
      </trkpt>
      <trkpt lat="8.3927947" lon="77.6254655">
      </trkpt>
      <trkpt lat="8.3899842" lon="77.6242553">
      </trkpt>
      <trkpt lat="8.3873887" lon="77.6231157">
      </trkpt>
      <trkpt lat="8.3856038" lon="77.6223611">
      </trkpt>
      <trkpt lat="8.3838224" lon="77.6215994">
      </trkpt>
      <trkpt lat="8.3832327" lon="77.621302">
      </trkpt>
      <trkpt lat="8.3826207" lon="77.6209452">
      </trkpt>
      <trkpt lat="8.3821373" lon="77.6205826">
      </trkpt>
      <trkpt lat="8.381706" lon="77.620224">
      </trkpt>
      <trkpt lat="8.3812983" lon="77.6198263">
      </trkpt>
      <trkpt lat="8.3811114" lon="77.6196051">
      </trkpt>
      <trkpt lat="8.3800901" lon="77.6184228">
      </trkpt>
      <trkpt lat="8.3753094" lon="77.6128205">
      </trkpt>
      <trkpt lat="8.3749297" lon="77.6123638">
      </trkpt>
      <trkpt lat="8.3747496" lon="77.6121542">
      </trkpt>
      <trkpt lat="8.3724089" lon="77.6094222">
      </trkpt>
      <trkpt lat="8.3719473" lon="77.6088988">
      </trkpt>
      <trkpt lat="8.3715536" lon="77.608481">
      </trkpt>
      <trkpt lat="8.3710603" lon="77.6080201">
      </trkpt>
      <trkpt lat="8.3705016" lon="77.6075741">
      </trkpt>
      <trkpt lat="8.3697234" lon="77.6070883">
      </trkpt>
      <trkpt lat="8.3690109" lon="77.6067606">
      </trkpt>
      <trkpt lat="8.3681441" lon="77.6064519">
      </trkpt>
      <trkpt lat="8.3625494" lon="77.6048916">
      </trkpt>
      <trkpt lat="8.3617016" lon="77.6046534">
      </trkpt>
      <trkpt lat="8.3609703" lon="77.6043774">
      </trkpt>
      <trkpt lat="8.360271" lon="77.604089">
      </trkpt>
      <trkpt lat="8.3596844" lon="77.6038084">
      </trkpt>
      <trkpt lat="8.3591583" lon="77.6035423">
      </trkpt>
      <trkpt lat="8.3549447" lon="77.6011446">
      </trkpt>
      <trkpt lat="8.3530912" lon="77.600135">
      </trkpt>
      <trkpt lat="8.3527986" lon="77.600005">
      </trkpt>
      <trkpt lat="8.3524215" lon="77.5998384">
      </trkpt>
      <trkpt lat="8.3447608" lon="77.5967677">
      </trkpt>
      <trkpt lat="8.3437646" lon="77.5963819">
      </trkpt>
      <trkpt lat="8.3385094" lon="77.5943378">
      </trkpt>
      <trkpt lat="8.3366644" lon="77.5936018">
      </trkpt>
      <trkpt lat="8.3332499" lon="77.5922633">
      </trkpt>
      <trkpt lat="8.3327497" lon="77.5920683">
      </trkpt>
      <trkpt lat="8.3322739" lon="77.5918672">
      </trkpt>
      <trkpt lat="8.3317734" lon="77.5916066">
      </trkpt>
      <trkpt lat="8.3314264" lon="77.5914007">
      </trkpt>
      <trkpt lat="8.3310185" lon="77.5911516">
      </trkpt>
      <trkpt lat="8.330535" lon="77.5907981">
      </trkpt>
      <trkpt lat="8.3301673" lon="77.5904631">
      </trkpt>
      <trkpt lat="8.3298093" lon="77.5901131">
      </trkpt>
      <trkpt lat="8.3293354" lon="77.589646">
      </trkpt>
      <trkpt lat="8.3284364" lon="77.5887242">
      </trkpt>
      <trkpt lat="8.3277345" lon="77.5879794">
      </trkpt>
      <trkpt lat="8.3265496" lon="77.586842">
      </trkpt>
      <trkpt lat="8.3257306" lon="77.586006">
      </trkpt>
      <trkpt lat="8.32493" lon="77.5851885">
      </trkpt>
      <trkpt lat="8.3243147" lon="77.584692">
      </trkpt>
      <trkpt lat="8.3238854" lon="77.5844139">
      </trkpt>
      <trkpt lat="8.3234255" lon="77.5841359">
      </trkpt>
      <trkpt lat="8.3229519" lon="77.5838785">
      </trkpt>
      <trkpt lat="8.3224356" lon="77.583658">
      </trkpt>
      <trkpt lat="8.3219285" lon="77.5834966">
      </trkpt>
      <trkpt lat="8.3204745" lon="77.5830954">
      </trkpt>
      <trkpt lat="8.3203409" lon="77.5830601">
      </trkpt>
      <trkpt lat="8.3200265" lon="77.5829821">
      </trkpt>
      <trkpt lat="8.3198131" lon="77.5829292">
      </trkpt>
      <trkpt lat="8.3188683" lon="77.582695">
      </trkpt>
      <trkpt lat="8.3187366" lon="77.5826618">
      </trkpt>
      <trkpt lat="8.3178906" lon="77.5824471">
      </trkpt>
      <trkpt lat="8.3173437" lon="77.5823082">
      </trkpt>
      <trkpt lat="8.3145414" lon="77.5815968">
      </trkpt>
      <trkpt lat="8.313082" lon="77.5812332">
      </trkpt>
      <trkpt lat="8.3116428" lon="77.5808656">
      </trkpt>
      <trkpt lat="8.309716" lon="77.5803842">
      </trkpt>
      <trkpt lat="8.3092287" lon="77.5802625">
      </trkpt>
      <trkpt lat="8.3083961" lon="77.5800479">
      </trkpt>
      <trkpt lat="8.3066231" lon="77.5796128">
      </trkpt>
      <trkpt lat="8.3048742" lon="77.5791776">
      </trkpt>
      <trkpt lat="8.3013443" lon="77.5783072">
      </trkpt>
      <trkpt lat="8.2958334" lon="77.5769386">
      </trkpt>
      <trkpt lat="8.2943913" lon="77.5765864">
      </trkpt>
      <trkpt lat="8.2943123" lon="77.5765671">
      </trkpt>
      <trkpt lat="8.2903629" lon="77.5756025">
      </trkpt>
      <trkpt lat="8.288156" lon="77.5750442">
      </trkpt>
      <trkpt lat="8.2859369" lon="77.5745062">
      </trkpt>
      <trkpt lat="8.2833005" lon="77.5738648">
      </trkpt>
      <trkpt lat="8.280838" lon="77.5732705">
      </trkpt>
      <trkpt lat="8.2773526" lon="77.5724097">
      </trkpt>
      <trkpt lat="8.276749" lon="77.5722499">
      </trkpt>
      <trkpt lat="8.2760921" lon="77.5721021">
      </trkpt>
      <trkpt lat="8.2754915" lon="77.5719298">
      </trkpt>
      <trkpt lat="8.2747006" lon="77.571626">
      </trkpt>
      <trkpt lat="8.2740645" lon="77.5713234">
      </trkpt>
      <trkpt lat="8.2734283" lon="77.5709354">
      </trkpt>
      <trkpt lat="8.2729642" lon="77.5705872">
      </trkpt>
      <trkpt lat="8.272508" lon="77.5702146">
      </trkpt>
      <trkpt lat="8.2720544" lon="77.5697702">
      </trkpt>
      <trkpt lat="8.2716902" lon="77.5693498">
      </trkpt>
      <trkpt lat="8.2713622" lon="77.5688847">
      </trkpt>
      <trkpt lat="8.2709524" lon="77.5682504">
      </trkpt>
      <trkpt lat="8.2707598" lon="77.567917">
      </trkpt>
      <trkpt lat="8.270608" lon="77.5675875">
      </trkpt>
      <trkpt lat="8.2704892" lon="77.5673156">
      </trkpt>
      <trkpt lat="8.2703824" lon="77.5670408">
      </trkpt>
      <trkpt lat="8.2703403" lon="77.5669171">
      </trkpt>
      <trkpt lat="8.2702216" lon="77.5665158">
      </trkpt>
      <trkpt lat="8.270103" lon="77.5660901">
      </trkpt>
      <trkpt lat="8.2699864" lon="77.5653526">
      </trkpt>
      <trkpt lat="8.2699331" lon="77.5647096">
      </trkpt>
      <trkpt lat="8.2698286" lon="77.5632508">
      </trkpt>
      <trkpt lat="8.2696919" lon="77.5617879">
      </trkpt>
      <trkpt lat="8.2695848" lon="77.5610056">
      </trkpt>
      <trkpt lat="8.2694576" lon="77.5604104">
      </trkpt>
      <trkpt lat="8.2693156" lon="77.5599603">
      </trkpt>
      <trkpt lat="8.2690369" lon="77.5592908">
      </trkpt>
      <trkpt lat="8.2687677" lon="77.5587626">
      </trkpt>
      <trkpt lat="8.2684582" lon="77.5582589">
      </trkpt>
      <trkpt lat="8.2681122" lon="77.5577588">
      </trkpt>
      <trkpt lat="8.2677743" lon="77.5573238">
      </trkpt>
      <trkpt lat="8.2673478" lon="77.5568807">
      </trkpt>
      <trkpt lat="8.2648891" lon="77.554543">
      </trkpt>
      <trkpt lat="8.2623661" lon="77.5521769">
      </trkpt>
      <trkpt lat="8.260042" lon="77.5499904">
      </trkpt>
      <trkpt lat="8.2587755" lon="77.5488806">
      </trkpt>
      <trkpt lat="8.258028" lon="77.5481691">
      </trkpt>
      <trkpt lat="8.2573916" lon="77.5475647">
      </trkpt>
      <trkpt lat="8.2567848" lon="77.5469021">
      </trkpt>
      <trkpt lat="8.2565445" lon="77.5466012">
      </trkpt>
      <trkpt lat="8.2562628" lon="77.5462394">
      </trkpt>
      <trkpt lat="8.2558778" lon="77.5456893">
      </trkpt>
      <trkpt lat="8.2556383" lon="77.5452845">
      </trkpt>
      <trkpt lat="8.2553968" lon="77.5448164">
      </trkpt>
      <trkpt lat="8.2551656" lon="77.5442584">
      </trkpt>
      <trkpt lat="8.2512397" lon="77.5332838">
      </trkpt>
      <trkpt lat="8.2510674" lon="77.532827">
      </trkpt>
      <trkpt lat="8.2507117" lon="77.5320008">
      </trkpt>
      <trkpt lat="8.2504344" lon="77.5314121">
      </trkpt>
      <trkpt lat="8.2500901" lon="77.5307506">
      </trkpt>
      <trkpt lat="8.2497173" lon="77.5301743">
      </trkpt>
      <trkpt lat="8.2493701" lon="77.5296655">
      </trkpt>
      <trkpt lat="8.2490023" lon="77.5291711">
      </trkpt>
      <trkpt lat="8.2486598" lon="77.5287124">
      </trkpt>
      <trkpt lat="8.2482378" lon="77.5282189">
      </trkpt>
      <trkpt lat="8.2478847" lon="77.5278354">
      </trkpt>
      <trkpt lat="8.2473671" lon="77.5272667">
      </trkpt>
      <trkpt lat="8.2467252" lon="77.5265639">
      </trkpt>
      <trkpt lat="8.2459129" lon="77.5256525">
      </trkpt>
      <trkpt lat="8.2442166" lon="77.5237778">
      </trkpt>
      <trkpt lat="8.2379875" lon="77.517103">
      </trkpt>
      <trkpt lat="8.2369237" lon="77.5159968">
      </trkpt>
      <trkpt lat="8.2358497" lon="77.5147967">
      </trkpt>
      <trkpt lat="8.2331334" lon="77.5118435">
      </trkpt>
      <trkpt lat="8.2277112" lon="77.5060414">
      </trkpt>
      <trkpt lat="8.2274463" lon="77.50575">
      </trkpt>
      <trkpt lat="8.2257283" lon="77.5038604">
      </trkpt>
      <trkpt lat="8.2248504" lon="77.5028794">
      </trkpt>
      <trkpt lat="8.2214834" lon="77.4979643">
      </trkpt>
      <trkpt lat="8.2174554" lon="77.4919953">
      </trkpt>
      <trkpt lat="8.214739" lon="77.4880715">
      </trkpt>
      <trkpt lat="8.2144498" lon="77.4877063">
      </trkpt>
      <trkpt lat="8.2113153" lon="77.4846457">
      </trkpt>
      <trkpt lat="8.2102953" lon="77.4836811">
      </trkpt>
      <trkpt lat="8.2084396" lon="77.4818998">
      </trkpt>
      <trkpt lat="8.2074067" lon="77.480849">
      </trkpt>
      <trkpt lat="8.2063632" lon="77.4798558">
      </trkpt>
      <trkpt lat="8.2045182" lon="77.4780817">
      </trkpt>
      <trkpt lat="8.2044647" lon="77.47803">
      </trkpt>
      <trkpt lat="8.2037204" lon="77.4773116">
      </trkpt>
      <trkpt lat="8.2034886" lon="77.4770977">
      </trkpt>
      <trkpt lat="8.2032935" lon="77.4769176">
      </trkpt>
      <trkpt lat="8.2031913" lon="77.4768233">
      </trkpt>
      <trkpt lat="8.201189" lon="77.4748842">
      </trkpt>
      <trkpt lat="8.2003367" lon="77.4739181">
      </trkpt>
      <trkpt lat="8.1996854" lon="77.4729661">
      </trkpt>
      <trkpt lat="8.1991106" lon="77.4720502">
      </trkpt>
      <trkpt lat="8.1979324" lon="77.470173">
      </trkpt>
      <trkpt lat="8.1951401" lon="77.4657277">
      </trkpt>
      <trkpt lat="8.1950494" lon="77.4655855">
      </trkpt>
      <trkpt lat="8.1938098" lon="77.4636416">
      </trkpt>
      <trkpt lat="8.1924929" lon="77.4615291">
      </trkpt>
      <trkpt lat="8.191641" lon="77.4601625">
      </trkpt>
      <trkpt lat="8.1898811" lon="77.4573974">
      </trkpt>
      <trkpt lat="8.1887782" lon="77.4556569">
      </trkpt>
      <trkpt lat="8.1557093" lon="77.4577324">
      </trkpt>
      <trkpt lat="8.1506057" lon="77.4645915">
      </trkpt>
      <trkpt lat="8.1492141" lon="77.4664273">
      </trkpt>
      <trkpt lat="8.1480201" lon="77.4680609">
      </trkpt>
      <trkpt lat="8.1470966" lon="77.4693491">
      </trkpt>
      <trkpt lat="8.1465886" lon="77.4700165">
      </trkpt>
      <trkpt lat="8.14633" lon="77.4703572">
      </trkpt>
      <trkpt lat="8.1460437" lon="77.4706792">
      </trkpt>
      <trkpt lat="8.1456251" lon="77.4711129">
      </trkpt>
      <trkpt lat="8.1451603" lon="77.4715186">
      </trkpt>
      <trkpt lat="8.1446203" lon="77.4719262">
      </trkpt>
      <trkpt lat="8.1442255" lon="77.4721674">
      </trkpt>
      <trkpt lat="8.1435534" lon="77.472572">
      </trkpt>
      <trkpt lat="8.1392133" lon="77.4749818">
      </trkpt>
      <trkpt lat="8.1369938" lon="77.4762201">
      </trkpt>
      <trkpt lat="8.1352741" lon="77.477194">
      </trkpt>
      <trkpt lat="8.1349333" lon="77.4773869">
      </trkpt>
      <trkpt lat="8.1328717" lon="77.4785595">
      </trkpt>
      <trkpt lat="8.1326744" lon="77.4786536">
      </trkpt>
      <trkpt lat="8.1322111" lon="77.4789864">
      </trkpt>
      <trkpt lat="8.1319004" lon="77.4792679">
      </trkpt>
      <trkpt lat="8.1315179" lon="77.4796564">
      </trkpt>
      <trkpt lat="8.1313196" lon="77.4798974">
      </trkpt>
      <trkpt lat="8.1311326" lon="77.4801824">
      </trkpt>
      <trkpt lat="8.1309984" lon="77.4803837">
      </trkpt>
      <trkpt lat="8.1308199" lon="77.4806944">
      </trkpt>
      <trkpt lat="8.1301115" lon="77.4819038">
      </trkpt>
      <trkpt lat="8.1297808" lon="77.4824863">
      </trkpt>
      <trkpt lat="8.1285254" lon="77.4846504">
      </trkpt>
      <trkpt lat="8.1280239" lon="77.4855431">
      </trkpt>
      <trkpt lat="8.1261994" lon="77.4886988">
      </trkpt>
      <trkpt lat="8.1250033" lon="77.4907538">
      </trkpt>
      <trkpt lat="8.1203851" lon="77.4988039">
      </trkpt>
      <trkpt lat="8.1180632" lon="77.5028491">
      </trkpt>
      <trkpt lat="8.1149072" lon="77.5083484">
      </trkpt>
      <trkpt lat="8.1137832" lon="77.510258">
      </trkpt>
      <trkpt lat="8.1114684" lon="77.514306">
      </trkpt>
      <trkpt lat="8.1111323" lon="77.5148771">
      </trkpt>
      <trkpt lat="8.1108015" lon="77.5153721">
      </trkpt>
      <trkpt lat="8.1103551" lon="77.5159604">
      </trkpt>
      <trkpt lat="8.1101217" lon="77.5162171">
      </trkpt>
      <trkpt lat="8.1052541" lon="77.5210782">
      </trkpt>
      <trkpt lat="8.1037957" lon="77.5225519">
      </trkpt>
      <trkpt lat="8.1034827" lon="77.5228736">
      </trkpt>
      <trkpt lat="8.1031506" lon="77.5231671">
      </trkpt>
      <trkpt lat="8.1027792" lon="77.5234606">
      </trkpt>
      <trkpt lat="8.1020753" lon="77.5239532">
      </trkpt>
      <trkpt lat="8.1013437" lon="77.5243897">
      </trkpt>
      <trkpt lat="8.0997867" lon="77.5253316">
      </trkpt>
      <trkpt lat="8.0982481" lon="77.5262547">
      </trkpt>
      <trkpt lat="8.0955596" lon="77.5278769">
      </trkpt>
      <trkpt lat="8.0951654" lon="77.5281387">
      </trkpt>
      <trkpt lat="8.0927967" lon="77.5295677">
      </trkpt>
      <trkpt lat="8.0911455" lon="77.5305639">
      </trkpt>
      <trkpt lat="8.0906002" lon="77.5309406">
      </trkpt>
      <trkpt lat="8.0904928" lon="77.5310223">
      </trkpt>
      <trkpt lat="8.090047" lon="77.5314557">
      </trkpt>
      <trkpt lat="8.089871" lon="77.5316402">
      </trkpt>
      <trkpt lat="8.0897006" lon="77.5318415">
      </trkpt>
      <trkpt lat="8.0895349" lon="77.5320745">
      </trkpt>
      <trkpt lat="8.0893912" lon="77.5323019">
      </trkpt>
      <trkpt lat="8.0892307" lon="77.5325616">
      </trkpt>
      <trkpt lat="8.0891087" lon="77.5328212">
      </trkpt>
      <trkpt lat="8.08898" lon="77.5330846">
      </trkpt>
      <trkpt lat="8.0888678" lon="77.5333591">
      </trkpt>
      <trkpt lat="8.0887701" lon="77.5336359">
      </trkpt>
      <trkpt lat="8.0887055" lon="77.5339128">
      </trkpt>
      <trkpt lat="8.0886558" lon="77.5341477">
      </trkpt>
      <trkpt lat="8.0886172" lon="77.5343825">
      </trkpt>
      <trkpt lat="8.0885726" lon="77.5347415">
      </trkpt>
      <trkpt lat="8.08855" lon="77.5351061">
      </trkpt>
      <trkpt lat="8.0884272" lon="77.5369224">
      </trkpt>
      <trkpt lat="8.0883801" lon="77.5379763">
      </trkpt>
      <trkpt lat="8.0883584" lon="77.5382558">
      </trkpt>
      <trkpt lat="8.0883197" lon="77.5387559">
      </trkpt>
      <trkpt lat="8.0882376" lon="77.5400124">
      </trkpt>
      <trkpt lat="8.0880638" lon="77.5428178">
      </trkpt>
      <trkpt lat="8.0878718" lon="77.5461791">
      </trkpt>
    </trkseg>
  </trk>
</gpx>