<?xml version="1.0" encoding="UTF-8"?>
<gpx xmlns="http://www.topografix.com/GPX/1/1" xmlns:xsi="http://www.w3.org/2001/XMLSchema-instance" xsi:schemaLocation="http://www.topografix.com/GPX/1/1 http://www.topografix.com/GPX/1/1/gpx.xsd" version="1.1" creator="gpx.py -- https://github.com/tkrajina/gpxpy">
  <wpt lat="32.2722001" lon="75.6737035">
    <name>Pathankot Cantt.</name>
  </wpt>
  <wpt lat="32.3959646" lon="75.5536315">
    <name>Kathua</name>
  </wpt>
  <wpt lat="32.7030172" lon="74.8816251">
    <name>Jammu Tawi</name>
  </wpt>
  <trk>
    <name>Pathankot - Jammu (Vies regionals)</name>
    <trkseg>
      <trkpt lat="32.2722001" lon="75.6737035">
      </trkpt>
      <trkpt lat="32.2723684" lon="75.6680326">
      </trkpt>
      <trkpt lat="32.2723973" lon="75.6664758">
      </trkpt>
      <trkpt lat="32.2724291" lon="75.6654594">
      </trkpt>
      <trkpt lat="32.2724732" lon="75.6639106">
      </trkpt>
      <trkpt lat="32.2724923" lon="75.6629965">
      </trkpt>
      <trkpt lat="32.2725363" lon="75.6617682">
      </trkpt>
      <trkpt lat="32.2725615" lon="75.661034">
      </trkpt>
      <trkpt lat="32.2726437" lon="75.6575681">
      </trkpt>
      <trkpt lat="32.272639" lon="75.6573432">
      </trkpt>
      <trkpt lat="32.2726266" lon="75.6571539">
      </trkpt>
      <trkpt lat="32.2724735" lon="75.6551518">
      </trkpt>
      <trkpt lat="32.2723826" lon="75.6541979">
      </trkpt>
      <trkpt lat="32.2723582" lon="75.6539428">
      </trkpt>
      <trkpt lat="32.2722878" lon="75.653204">
      </trkpt>
      <trkpt lat="32.2722716" lon="75.653034">
      </trkpt>
      <trkpt lat="32.2722599" lon="75.6529414">
      </trkpt>
      <trkpt lat="32.2721726" lon="75.6522469">
      </trkpt>
      <trkpt lat="32.2720793" lon="75.6516148">
      </trkpt>
      <trkpt lat="32.2720492" lon="75.6514474">
      </trkpt>
      <trkpt lat="32.2719988" lon="75.6513098">
      </trkpt>
      <trkpt lat="32.2719222" lon="75.65118">
      </trkpt>
      <trkpt lat="32.2719568" lon="75.6509676">
      </trkpt>
      <trkpt lat="32.2720608" lon="75.6488071">
      </trkpt>
      <trkpt lat="32.2720665" lon="75.6486672">
      </trkpt>
      <trkpt lat="32.2720686" lon="75.6485392">
      </trkpt>
      <trkpt lat="32.2720533" lon="75.6478159">
      </trkpt>
      <trkpt lat="32.2719696" lon="75.643909">
      </trkpt>
      <trkpt lat="32.2719444" lon="75.6428897">
      </trkpt>
      <trkpt lat="32.2718961" lon="75.642465">
      </trkpt>
      <trkpt lat="32.271798" lon="75.6381057">
      </trkpt>
      <trkpt lat="32.2717887" lon="75.6367147">
      </trkpt>
      <trkpt lat="32.2717484" lon="75.6359822">
      </trkpt>
      <trkpt lat="32.2716875" lon="75.6335152">
      </trkpt>
      <trkpt lat="32.2716612" lon="75.63221">
      </trkpt>
      <trkpt lat="32.2716569" lon="75.6320338">
      </trkpt>
      <trkpt lat="32.2715354" lon="75.6265904">
      </trkpt>
      <trkpt lat="32.2715258" lon="75.6258603">
      </trkpt>
      <trkpt lat="32.2715128" lon="75.6253439">
      </trkpt>
      <trkpt lat="32.2714995" lon="75.6248069">
      </trkpt>
      <trkpt lat="32.2714584" lon="75.623241">
      </trkpt>
      <trkpt lat="32.2714277" lon="75.6218405">
      </trkpt>
      <trkpt lat="32.2714079" lon="75.6212293">
      </trkpt>
      <trkpt lat="32.2714312" lon="75.6208624">
      </trkpt>
      <trkpt lat="32.2714351" lon="75.6207266">
      </trkpt>
      <trkpt lat="32.2714177" lon="75.6202143">
      </trkpt>
      <trkpt lat="32.2714475" lon="75.619755">
      </trkpt>
      <trkpt lat="32.2714226" lon="75.6185531">
      </trkpt>
      <trkpt lat="32.2713493" lon="75.6155713">
      </trkpt>
      <trkpt lat="32.271323" lon="75.614672">
      </trkpt>
      <trkpt lat="32.2713008" lon="75.6138512">
      </trkpt>
      <trkpt lat="32.2713019" lon="75.6135763">
      </trkpt>
      <trkpt lat="32.271311" lon="75.6132652">
      </trkpt>
      <trkpt lat="32.2713312" lon="75.6130114">
      </trkpt>
      <trkpt lat="32.2713705" lon="75.6126342">
      </trkpt>
      <trkpt lat="32.2714203" lon="75.6123511">
      </trkpt>
      <trkpt lat="32.2715139" lon="75.6119656">
      </trkpt>
      <trkpt lat="32.2715979" lon="75.611663">
      </trkpt>
      <trkpt lat="32.2717181" lon="75.6112995">
      </trkpt>
      <trkpt lat="32.2718309" lon="75.6110332">
      </trkpt>
      <trkpt lat="32.2719555" lon="75.610789">
      </trkpt>
      <trkpt lat="32.2721574" lon="75.6104502">
      </trkpt>
      <trkpt lat="32.2723704" lon="75.6101314">
      </trkpt>
      <trkpt lat="32.2724582" lon="75.6099733">
      </trkpt>
      <trkpt lat="32.2726321" lon="75.6096314">
      </trkpt>
      <trkpt lat="32.2727976" lon="75.609379">
      </trkpt>
      <trkpt lat="32.2729505" lon="75.6091568">
      </trkpt>
      <trkpt lat="32.2733056" lon="75.608645">
      </trkpt>
      <trkpt lat="32.2738996" lon="75.6079746">
      </trkpt>
      <trkpt lat="32.2743387" lon="75.6075887">
      </trkpt>
      <trkpt lat="32.2748127" lon="75.6072684">
      </trkpt>
      <trkpt lat="32.2751861" lon="75.6070743">
      </trkpt>
      <trkpt lat="32.2756888" lon="75.6068825">
      </trkpt>
      <trkpt lat="32.2762018" lon="75.6067418">
      </trkpt>
      <trkpt lat="32.2766635" lon="75.6066932">
      </trkpt>
      <trkpt lat="32.2770944" lon="75.6067054">
      </trkpt>
      <trkpt lat="32.277515" lon="75.6067612">
      </trkpt>
      <trkpt lat="32.2779397" lon="75.6068655">
      </trkpt>
      <trkpt lat="32.2783993" lon="75.6069917">
      </trkpt>
      <trkpt lat="32.2789451" lon="75.6072077">
      </trkpt>
      <trkpt lat="32.2803465" lon="75.6078144">
      </trkpt>
      <trkpt lat="32.281834" lon="75.6084745">
      </trkpt>
      <trkpt lat="32.2832148" lon="75.6090837">
      </trkpt>
      <trkpt lat="32.2841452" lon="75.6094916">
      </trkpt>
      <trkpt lat="32.2846264" lon="75.6097025">
      </trkpt>
      <trkpt lat="32.2860605" lon="75.6103141">
      </trkpt>
      <trkpt lat="32.2875048" lon="75.6109451">
      </trkpt>
      <trkpt lat="32.2877753" lon="75.6110626">
      </trkpt>
      <trkpt lat="32.2888958" lon="75.6115494">
      </trkpt>
      <trkpt lat="32.2903134" lon="75.6121755">
      </trkpt>
      <trkpt lat="32.2917495" lon="75.6127919">
      </trkpt>
      <trkpt lat="32.293126" lon="75.6134061">
      </trkpt>
      <trkpt lat="32.2931691" lon="75.6134253">
      </trkpt>
      <trkpt lat="32.2945498" lon="75.6140248">
      </trkpt>
      <trkpt lat="32.2958914" lon="75.6146218">
      </trkpt>
      <trkpt lat="32.2973438" lon="75.6152576">
      </trkpt>
      <trkpt lat="32.2975001" lon="75.6153255">
      </trkpt>
      <trkpt lat="32.2986259" lon="75.6158255">
      </trkpt>
      <trkpt lat="32.2991777" lon="75.6160488">
      </trkpt>
      <trkpt lat="32.2996167" lon="75.6162016">
      </trkpt>
      <trkpt lat="32.3001029" lon="75.6163157">
      </trkpt>
      <trkpt lat="32.3004967" lon="75.6163715">
      </trkpt>
      <trkpt lat="32.3009214" lon="75.6163812">
      </trkpt>
      <trkpt lat="32.3013378" lon="75.6163473">
      </trkpt>
      <trkpt lat="32.3019224" lon="75.616255">
      </trkpt>
      <trkpt lat="32.3032742" lon="75.6159347">
      </trkpt>
      <trkpt lat="32.3040495" lon="75.615743">
      </trkpt>
      <trkpt lat="32.3048119" lon="75.6155062">
      </trkpt>
      <trkpt lat="32.3074157" lon="75.61487">
      </trkpt>
      <trkpt lat="32.3079691" lon="75.6147311">
      </trkpt>
      <trkpt lat="32.3146523" lon="75.6131106">
      </trkpt>
      <trkpt lat="32.3155516" lon="75.6128934">
      </trkpt>
      <trkpt lat="32.3162326" lon="75.6127224">
      </trkpt>
      <trkpt lat="32.3168737" lon="75.6125673">
      </trkpt>
      <trkpt lat="32.3171631" lon="75.6124915">
      </trkpt>
      <trkpt lat="32.31745" lon="75.6123884">
      </trkpt>
      <trkpt lat="32.3177974" lon="75.6122327">
      </trkpt>
      <trkpt lat="32.3180313" lon="75.6120997">
      </trkpt>
      <trkpt lat="32.3183412" lon="75.6118966">
      </trkpt>
      <trkpt lat="32.3186425" lon="75.6116503">
      </trkpt>
      <trkpt lat="32.3189046" lon="75.6113874">
      </trkpt>
      <trkpt lat="32.3191643" lon="75.6110903">
      </trkpt>
      <trkpt lat="32.3193884" lon="75.6107806">
      </trkpt>
      <trkpt lat="32.3209832" lon="75.6085193">
      </trkpt>
      <trkpt lat="32.3227101" lon="75.6059882">
      </trkpt>
      <trkpt lat="32.3229178" lon="75.6056888">
      </trkpt>
      <trkpt lat="32.3241941" lon="75.6038492">
      </trkpt>
      <trkpt lat="32.324674" lon="75.6031478">
      </trkpt>
      <trkpt lat="32.3250575" lon="75.6024659">
      </trkpt>
      <trkpt lat="32.3252195" lon="75.6020921">
      </trkpt>
      <trkpt lat="32.3253651" lon="75.6016844">
      </trkpt>
      <trkpt lat="32.325482" lon="75.6012403">
      </trkpt>
      <trkpt lat="32.3255415" lon="75.6008302">
      </trkpt>
      <trkpt lat="32.3255928" lon="75.600289">
      </trkpt>
      <trkpt lat="32.3255887" lon="75.6000099">
      </trkpt>
      <trkpt lat="32.3255661" lon="75.5996677">
      </trkpt>
      <trkpt lat="32.3254902" lon="75.5991265">
      </trkpt>
      <trkpt lat="32.325361" lon="75.5985586">
      </trkpt>
      <trkpt lat="32.3252421" lon="75.598197">
      </trkpt>
      <trkpt lat="32.3250903" lon="75.597782">
      </trkpt>
      <trkpt lat="32.3246412" lon="75.596656">
      </trkpt>
      <trkpt lat="32.324512" lon="75.5963356">
      </trkpt>
      <trkpt lat="32.324309" lon="75.5957532">
      </trkpt>
      <trkpt lat="32.3241962" lon="75.5951028">
      </trkpt>
      <trkpt lat="32.3241347" lon="75.5945422">
      </trkpt>
      <trkpt lat="32.3241367" lon="75.5939986">
      </trkpt>
      <trkpt lat="32.3241777" lon="75.5936175">
      </trkpt>
      <trkpt lat="32.3243131" lon="75.5929477">
      </trkpt>
      <trkpt lat="32.3244956" lon="75.5923507">
      </trkpt>
      <trkpt lat="32.3247601" lon="75.5917731">
      </trkpt>
      <trkpt lat="32.3250206" lon="75.5913824">
      </trkpt>
      <trkpt lat="32.3253487" lon="75.590982">
      </trkpt>
      <trkpt lat="32.3261547" lon="75.5901738">
      </trkpt>
      <trkpt lat="32.3267576" lon="75.5896181">
      </trkpt>
      <trkpt lat="32.3274487" lon="75.5889628">
      </trkpt>
      <trkpt lat="32.3277788" lon="75.5886935">
      </trkpt>
      <trkpt lat="32.3284227" lon="75.5883222">
      </trkpt>
      <trkpt lat="32.3287385" lon="75.5882057">
      </trkpt>
      <trkpt lat="32.3292594" lon="75.5880649">
      </trkpt>
      <trkpt lat="32.3295486" lon="75.5880334">
      </trkpt>
      <trkpt lat="32.3299115" lon="75.5880139">
      </trkpt>
      <trkpt lat="32.3302212" lon="75.5880188">
      </trkpt>
      <trkpt lat="32.3305821" lon="75.588077">
      </trkpt>
      <trkpt lat="32.333345" lon="75.5887625">
      </trkpt>
      <trkpt lat="32.334206" lon="75.5889755">
      </trkpt>
      <trkpt lat="32.3404494" lon="75.5905322">
      </trkpt>
      <trkpt lat="32.3415746" lon="75.5908115">
      </trkpt>
      <trkpt lat="32.3417233" lon="75.5908484">
      </trkpt>
      <trkpt lat="32.3454588" lon="75.5917757">
      </trkpt>
      <trkpt lat="32.3495519" lon="75.5927987">
      </trkpt>
      <trkpt lat="32.3525382" lon="75.5935071">
      </trkpt>
      <trkpt lat="32.3552053" lon="75.5941714">
      </trkpt>
      <trkpt lat="32.3561645" lon="75.5943913">
      </trkpt>
      <trkpt lat="32.3635265" lon="75.5962166">
      </trkpt>
      <trkpt lat="32.364494" lon="75.5964524">
      </trkpt>
      <trkpt lat="32.3655522" lon="75.5967084">
      </trkpt>
      <trkpt lat="32.3662793" lon="75.596883">
      </trkpt>
      <trkpt lat="32.3698606" lon="75.5977091">
      </trkpt>
      <trkpt lat="32.3733929" lon="75.5986814">
      </trkpt>
      <trkpt lat="32.38096" lon="75.600552">
      </trkpt>
      <trkpt lat="32.3813616" lon="75.6006379">
      </trkpt>
      <trkpt lat="32.3817714" lon="75.6007074">
      </trkpt>
      <trkpt lat="32.3821736" lon="75.600726">
      </trkpt>
      <trkpt lat="32.3825719" lon="75.6007105">
      </trkpt>
      <trkpt lat="32.3828933" lon="75.6006544">
      </trkpt>
      <trkpt lat="32.3833026" lon="75.600546">
      </trkpt>
      <trkpt lat="32.3834817" lon="75.6004805">
      </trkpt>
      <trkpt lat="32.383641" lon="75.6004136">
      </trkpt>
      <trkpt lat="32.3837623" lon="75.6003589">
      </trkpt>
      <trkpt lat="32.3839849" lon="75.6002367">
      </trkpt>
      <trkpt lat="32.3841374" lon="75.6001452">
      </trkpt>
      <trkpt lat="32.3843052" lon="75.6000197">
      </trkpt>
      <trkpt lat="32.3846252" lon="75.5997654">
      </trkpt>
      <trkpt lat="32.3848876" lon="75.5995086">
      </trkpt>
      <trkpt lat="32.3851207" lon="75.5992441">
      </trkpt>
      <trkpt lat="32.3853579" lon="75.5989143">
      </trkpt>
      <trkpt lat="32.3855834" lon="75.5985359">
      </trkpt>
      <trkpt lat="32.3857485" lon="75.5981853">
      </trkpt>
      <trkpt lat="32.3859055" lon="75.5977819">
      </trkpt>
      <trkpt lat="32.3860032" lon="75.5974557">
      </trkpt>
      <trkpt lat="32.3860804" lon="75.5971262">
      </trkpt>
      <trkpt lat="32.3861435" lon="75.5967604">
      </trkpt>
      <trkpt lat="32.3861756" lon="75.5963636">
      </trkpt>
      <trkpt lat="32.3861798" lon="75.5959299">
      </trkpt>
      <trkpt lat="32.3861795" lon="75.5950014">
      </trkpt>
      <trkpt lat="32.3861695" lon="75.5947106">
      </trkpt>
      <trkpt lat="32.3861008" lon="75.5927118">
      </trkpt>
      <trkpt lat="32.3860527" lon="75.5921132">
      </trkpt>
      <trkpt lat="32.385976" lon="75.5915387">
      </trkpt>
      <trkpt lat="32.3858458" lon="75.590895">
      </trkpt>
      <trkpt lat="32.3852791" lon="75.5884428">
      </trkpt>
      <trkpt lat="32.3852068" lon="75.5881707">
      </trkpt>
      <trkpt lat="32.3851318" lon="75.5879089">
      </trkpt>
      <trkpt lat="32.3850398" lon="75.5876202">
      </trkpt>
      <trkpt lat="32.3842592" lon="75.5853927">
      </trkpt>
      <trkpt lat="32.3841026" lon="75.584846">
      </trkpt>
      <trkpt lat="32.3839821" lon="75.5843854">
      </trkpt>
      <trkpt lat="32.3838921" lon="75.5839891">
      </trkpt>
      <trkpt lat="32.3838216" lon="75.5835831">
      </trkpt>
      <trkpt lat="32.3837817" lon="75.5832535">
      </trkpt>
      <trkpt lat="32.38323" lon="75.5786742">
      </trkpt>
      <trkpt lat="32.3831553" lon="75.5779339">
      </trkpt>
      <trkpt lat="32.3828608" lon="75.5751578">
      </trkpt>
      <trkpt lat="32.3828518" lon="75.5745623">
      </trkpt>
      <trkpt lat="32.3828971" lon="75.573975">
      </trkpt>
      <trkpt lat="32.3829854" lon="75.5734949">
      </trkpt>
      <trkpt lat="32.383101" lon="75.5729933">
      </trkpt>
      <trkpt lat="32.3832606" lon="75.5725376">
      </trkpt>
      <trkpt lat="32.3834407" lon="75.5721189">
      </trkpt>
      <trkpt lat="32.3836502" lon="75.5717543">
      </trkpt>
      <trkpt lat="32.3840206" lon="75.5711908">
      </trkpt>
      <trkpt lat="32.3844373" lon="75.5706705">
      </trkpt>
      <trkpt lat="32.3876321" lon="75.567141">
      </trkpt>
      <trkpt lat="32.3883037" lon="75.5662367">
      </trkpt>
      <trkpt lat="32.3885302" lon="75.5659069">
      </trkpt>
      <trkpt lat="32.3887737" lon="75.5655021">
      </trkpt>
      <trkpt lat="32.3889606" lon="75.5651129">
      </trkpt>
      <trkpt lat="32.3891304" lon="75.5647132">
      </trkpt>
      <trkpt lat="32.3901961" lon="75.5622486">
      </trkpt>
      <trkpt lat="32.3908608" lon="75.5606497">
      </trkpt>
      <trkpt lat="32.3913138" lon="75.5595447">
      </trkpt>
      <trkpt lat="32.3914927" lon="75.559153">
      </trkpt>
      <trkpt lat="32.3916807" lon="75.5588016">
      </trkpt>
      <trkpt lat="32.39188" lon="75.5584797">
      </trkpt>
      <trkpt lat="32.3920838" lon="75.5581874">
      </trkpt>
      <trkpt lat="32.3924417" lon="75.5577368">
      </trkpt>
      <trkpt lat="32.3946597" lon="75.5551375">
      </trkpt>
      <trkpt lat="32.3956538" lon="75.5539847">
      </trkpt>
      <trkpt lat="32.3959646" lon="75.5536315">
      </trkpt>
      <trkpt lat="32.4016675" lon="75.5470259">
      </trkpt>
      <trkpt lat="32.402128" lon="75.5464925">
      </trkpt>
      <trkpt lat="32.402389" lon="75.546167">
      </trkpt>
      <trkpt lat="32.4026887" lon="75.5457533">
      </trkpt>
      <trkpt lat="32.4029639" lon="75.5452995">
      </trkpt>
      <trkpt lat="32.403144" lon="75.5449476">
      </trkpt>
      <trkpt lat="32.4033487" lon="75.5444699">
      </trkpt>
      <trkpt lat="32.403481" lon="75.5441128">
      </trkpt>
      <trkpt lat="32.4036528" lon="75.5435212">
      </trkpt>
      <trkpt lat="32.4037927" lon="75.5429215">
      </trkpt>
      <trkpt lat="32.4050043" lon="75.5374174">
      </trkpt>
      <trkpt lat="32.4050709" lon="75.5370966">
      </trkpt>
      <trkpt lat="32.4082552" lon="75.5224048">
      </trkpt>
      <trkpt lat="32.408338" lon="75.5219468">
      </trkpt>
      <trkpt lat="32.408395" lon="75.5214318">
      </trkpt>
      <trkpt lat="32.4084227" lon="75.5210613">
      </trkpt>
      <trkpt lat="32.4084353" lon="75.520613">
      </trkpt>
      <trkpt lat="32.408476" lon="75.5162126">
      </trkpt>
      <trkpt lat="32.4084789" lon="75.5157318">
      </trkpt>
      <trkpt lat="32.4084964" lon="75.5135942">
      </trkpt>
      <trkpt lat="32.4085096" lon="75.5094182">
      </trkpt>
      <trkpt lat="32.4085427" lon="75.5088237">
      </trkpt>
      <trkpt lat="32.4085966" lon="75.5083098">
      </trkpt>
      <trkpt lat="32.4086997" lon="75.507679">
      </trkpt>
      <trkpt lat="32.4088351" lon="75.5071616">
      </trkpt>
      <trkpt lat="32.4089809" lon="75.5066772">
      </trkpt>
      <trkpt lat="32.4096921" lon="75.5045774">
      </trkpt>
      <trkpt lat="32.4103959" lon="75.5025143">
      </trkpt>
      <trkpt lat="32.4107976" lon="75.5013019">
      </trkpt>
      <trkpt lat="32.411382" lon="75.4995383">
      </trkpt>
      <trkpt lat="32.4125801" lon="75.4959415">
      </trkpt>
      <trkpt lat="32.4168617" lon="75.4831436">
      </trkpt>
      <trkpt lat="32.4170729" lon="75.4825436">
      </trkpt>
      <trkpt lat="32.4173514" lon="75.481944">
      </trkpt>
      <trkpt lat="32.4176336" lon="75.4814259">
      </trkpt>
      <trkpt lat="32.4179401" lon="75.4809715">
      </trkpt>
      <trkpt lat="32.4182406" lon="75.4805976">
      </trkpt>
      <trkpt lat="32.4186591" lon="75.4800575">
      </trkpt>
      <trkpt lat="32.4188339" lon="75.4798581">
      </trkpt>
      <trkpt lat="32.4237288" lon="75.4739863">
      </trkpt>
      <trkpt lat="32.4254928" lon="75.4718871">
      </trkpt>
      <trkpt lat="32.4256238" lon="75.4717373">
      </trkpt>
      <trkpt lat="32.4279645" lon="75.4689253">
      </trkpt>
      <trkpt lat="32.4281029" lon="75.4687567">
      </trkpt>
      <trkpt lat="32.4286772" lon="75.4680416">
      </trkpt>
      <trkpt lat="32.4289077" lon="75.4677206">
      </trkpt>
      <trkpt lat="32.429109" lon="75.46739">
      </trkpt>
      <trkpt lat="32.4293027" lon="75.4670222">
      </trkpt>
      <trkpt lat="32.4294831" lon="75.4665837">
      </trkpt>
      <trkpt lat="32.4296489" lon="75.4660162">
      </trkpt>
      <trkpt lat="32.4297429" lon="75.4655144">
      </trkpt>
      <trkpt lat="32.4298088" lon="75.4650607">
      </trkpt>
      <trkpt lat="32.4304412" lon="75.460107">
      </trkpt>
      <trkpt lat="32.4305058" lon="75.4597342">
      </trkpt>
      <trkpt lat="32.4306128" lon="75.4592371">
      </trkpt>
      <trkpt lat="32.4307356" lon="75.4587858">
      </trkpt>
      <trkpt lat="32.4308691" lon="75.4583695">
      </trkpt>
      <trkpt lat="32.431006" lon="75.4580181">
      </trkpt>
      <trkpt lat="32.4348442" lon="75.4487527">
      </trkpt>
      <trkpt lat="32.4351087" lon="75.448112">
      </trkpt>
      <trkpt lat="32.4385173" lon="75.4398717">
      </trkpt>
      <trkpt lat="32.4386598" lon="75.4395195">
      </trkpt>
      <trkpt lat="32.4421237" lon="75.4311347">
      </trkpt>
      <trkpt lat="32.4422586" lon="75.4308261">
      </trkpt>
      <trkpt lat="32.4423943" lon="75.4304991">
      </trkpt>
      <trkpt lat="32.4444174" lon="75.4255879">
      </trkpt>
      <trkpt lat="32.4445442" lon="75.4252847">
      </trkpt>
      <trkpt lat="32.4446871" lon="75.4248969">
      </trkpt>
      <trkpt lat="32.4448412" lon="75.4244461">
      </trkpt>
      <trkpt lat="32.4449615" lon="75.4240545">
      </trkpt>
      <trkpt lat="32.4450655" lon="75.4236486">
      </trkpt>
      <trkpt lat="32.4451715" lon="75.4232336">
      </trkpt>
      <trkpt lat="32.4453584" lon="75.4223945">
      </trkpt>
      <trkpt lat="32.44636" lon="75.4177866">
      </trkpt>
      <trkpt lat="32.4478501" lon="75.4109236">
      </trkpt>
      <trkpt lat="32.4485896" lon="75.4074777">
      </trkpt>
      <trkpt lat="32.4488679" lon="75.4061717">
      </trkpt>
      <trkpt lat="32.4492026" lon="75.4046318">
      </trkpt>
      <trkpt lat="32.4494467" lon="75.402516">
      </trkpt>
      <trkpt lat="32.4498173" lon="75.3973877">
      </trkpt>
      <trkpt lat="32.4500491" lon="75.3940737">
      </trkpt>
      <trkpt lat="32.4500649" lon="75.3938578">
      </trkpt>
      <trkpt lat="32.4501703" lon="75.3925041">
      </trkpt>
      <trkpt lat="32.4503512" lon="75.3901031">
      </trkpt>
      <trkpt lat="32.4503676" lon="75.3898851">
      </trkpt>
      <trkpt lat="32.450457" lon="75.3887162">
      </trkpt>
      <trkpt lat="32.450485" lon="75.3882719">
      </trkpt>
      <trkpt lat="32.4506267" lon="75.3862375">
      </trkpt>
      <trkpt lat="32.4507205" lon="75.3852637">
      </trkpt>
      <trkpt lat="32.4508152" lon="75.3848163">
      </trkpt>
      <trkpt lat="32.4509579" lon="75.3842742">
      </trkpt>
      <trkpt lat="32.4512082" lon="75.3835198">
      </trkpt>
      <trkpt lat="32.4514305" lon="75.3829335">
      </trkpt>
      <trkpt lat="32.4522173" lon="75.381079">
      </trkpt>
      <trkpt lat="32.4523549" lon="75.3807686">
      </trkpt>
      <trkpt lat="32.4532962" lon="75.3786563">
      </trkpt>
      <trkpt lat="32.4542944" lon="75.3763058">
      </trkpt>
      <trkpt lat="32.4552337" lon="75.374113">
      </trkpt>
      <trkpt lat="32.4556914" lon="75.3730643">
      </trkpt>
      <trkpt lat="32.4558767" lon="75.3726304">
      </trkpt>
      <trkpt lat="32.4560663" lon="75.3722094">
      </trkpt>
      <trkpt lat="32.4570013" lon="75.3700346">
      </trkpt>
      <trkpt lat="32.4580435" lon="75.3676411">
      </trkpt>
      <trkpt lat="32.4587787" lon="75.3659689">
      </trkpt>
      <trkpt lat="32.4590343" lon="75.3654048">
      </trkpt>
      <trkpt lat="32.4598283" lon="75.3633973">
      </trkpt>
      <trkpt lat="32.4599105" lon="75.3632059">
      </trkpt>
      <trkpt lat="32.4602572" lon="75.3624273">
      </trkpt>
      <trkpt lat="32.4636217" lon="75.3546235">
      </trkpt>
      <trkpt lat="32.4637597" lon="75.3542483">
      </trkpt>
      <trkpt lat="32.4641326" lon="75.3533844">
      </trkpt>
      <trkpt lat="32.4658405" lon="75.3494705">
      </trkpt>
      <trkpt lat="32.4674235" lon="75.3458308">
      </trkpt>
      <trkpt lat="32.4684063" lon="75.3434829">
      </trkpt>
      <trkpt lat="32.4686414" lon="75.3429621">
      </trkpt>
      <trkpt lat="32.4692693" lon="75.3414864">
      </trkpt>
      <trkpt lat="32.4698881" lon="75.3400348">
      </trkpt>
      <trkpt lat="32.4701496" lon="75.339433">
      </trkpt>
      <trkpt lat="32.4703283" lon="75.3390274">
      </trkpt>
      <trkpt lat="32.4705212" lon="75.3385647">
      </trkpt>
      <trkpt lat="32.4706501" lon="75.3382404">
      </trkpt>
      <trkpt lat="32.4712047" lon="75.336869">
      </trkpt>
      <trkpt lat="32.4714036" lon="75.3363944">
      </trkpt>
      <trkpt lat="32.4730287" lon="75.3325332">
      </trkpt>
      <trkpt lat="32.475684" lon="75.3264149">
      </trkpt>
      <trkpt lat="32.4768362" lon="75.3237698">
      </trkpt>
      <trkpt lat="32.4770119" lon="75.3233302">
      </trkpt>
      <trkpt lat="32.4771472" lon="75.3229215">
      </trkpt>
      <trkpt lat="32.4771936" lon="75.3227459">
      </trkpt>
      <trkpt lat="32.4772764" lon="75.3224176">
      </trkpt>
      <trkpt lat="32.4773551" lon="75.3219713">
      </trkpt>
      <trkpt lat="32.4774212" lon="75.3214863">
      </trkpt>
      <trkpt lat="32.477721" lon="75.3190682">
      </trkpt>
      <trkpt lat="32.4781138" lon="75.3157053">
      </trkpt>
      <trkpt lat="32.4793253" lon="75.3058154">
      </trkpt>
      <trkpt lat="32.4805145" lon="75.2964611">
      </trkpt>
      <trkpt lat="32.4806004" lon="75.2958461">
      </trkpt>
      <trkpt lat="32.4807759" lon="75.2949881">
      </trkpt>
      <trkpt lat="32.4809063" lon="75.2944393">
      </trkpt>
      <trkpt lat="32.48275" lon="75.2869783">
      </trkpt>
      <trkpt lat="32.4852544" lon="75.2770284">
      </trkpt>
      <trkpt lat="32.4860911" lon="75.2736345">
      </trkpt>
      <trkpt lat="32.4885062" lon="75.2637813">
      </trkpt>
      <trkpt lat="32.4885577" lon="75.2636248">
      </trkpt>
      <trkpt lat="32.4890903" lon="75.2615159">
      </trkpt>
      <trkpt lat="32.4893212" lon="75.2605772">
      </trkpt>
      <trkpt lat="32.4897912" lon="75.2586394">
      </trkpt>
      <trkpt lat="32.4911012" lon="75.2532919">
      </trkpt>
      <trkpt lat="32.4929713" lon="75.2456869">
      </trkpt>
      <trkpt lat="32.4947867" lon="75.2382951">
      </trkpt>
      <trkpt lat="32.4950471" lon="75.2372298">
      </trkpt>
      <trkpt lat="32.4951766" lon="75.236722">
      </trkpt>
      <trkpt lat="32.4960531" lon="75.2330921">
      </trkpt>
      <trkpt lat="32.4961719" lon="75.2326799">
      </trkpt>
      <trkpt lat="32.4963352" lon="75.2321993">
      </trkpt>
      <trkpt lat="32.4965187" lon="75.2317244">
      </trkpt>
      <trkpt lat="32.4967131" lon="75.2312786">
      </trkpt>
      <trkpt lat="32.4969548" lon="75.2307763">
      </trkpt>
      <trkpt lat="32.4978193" lon="75.229179">
      </trkpt>
      <trkpt lat="32.4988597" lon="75.2271884">
      </trkpt>
      <trkpt lat="32.4996396" lon="75.2257227">
      </trkpt>
      <trkpt lat="32.5016457" lon="75.2219993">
      </trkpt>
      <trkpt lat="32.5019035" lon="75.2215004">
      </trkpt>
      <trkpt lat="32.5021266" lon="75.2210636">
      </trkpt>
      <trkpt lat="32.5024208" lon="75.2204187">
      </trkpt>
      <trkpt lat="32.502592" lon="75.2200152">
      </trkpt>
      <trkpt lat="32.5026681" lon="75.219819">
      </trkpt>
      <trkpt lat="32.505707" lon="75.2110249">
      </trkpt>
      <trkpt lat="32.5060012" lon="75.2101823">
      </trkpt>
      <trkpt lat="32.5068561" lon="75.2077009">
      </trkpt>
      <trkpt lat="32.5069792" lon="75.2073587">
      </trkpt>
      <trkpt lat="32.5072381" lon="75.2066509">
      </trkpt>
      <trkpt lat="32.5112341" lon="75.1951756">
      </trkpt>
      <trkpt lat="32.5113771" lon="75.1947858">
      </trkpt>
      <trkpt lat="32.5115531" lon="75.1943433">
      </trkpt>
      <trkpt lat="32.5119647" lon="75.1933465">
      </trkpt>
      <trkpt lat="32.5120905" lon="75.1930501">
      </trkpt>
      <trkpt lat="32.5129428" lon="75.1910281">
      </trkpt>
      <trkpt lat="32.5130799" lon="75.1907121">
      </trkpt>
      <trkpt lat="32.5138855" lon="75.1888033">
      </trkpt>
      <trkpt lat="32.5140703" lon="75.1883759">
      </trkpt>
      <trkpt lat="32.5168226" lon="75.1818376">
      </trkpt>
      <trkpt lat="32.5180756" lon="75.1788419">
      </trkpt>
      <trkpt lat="32.5194187" lon="75.1756417">
      </trkpt>
      <trkpt lat="32.519622" lon="75.1751668">
      </trkpt>
      <trkpt lat="32.5198284" lon="75.1747029">
      </trkpt>
      <trkpt lat="32.5205892" lon="75.1728946">
      </trkpt>
      <trkpt lat="32.5212373" lon="75.1713435">
      </trkpt>
      <trkpt lat="32.5212502" lon="75.1713127">
      </trkpt>
      <trkpt lat="32.5214456" lon="75.1708451">
      </trkpt>
      <trkpt lat="32.5234382" lon="75.1663491">
      </trkpt>
      <trkpt lat="32.5235912" lon="75.165987">
      </trkpt>
      <trkpt lat="32.5245104" lon="75.1638132">
      </trkpt>
      <trkpt lat="32.5247519" lon="75.1632372">
      </trkpt>
      <trkpt lat="32.5250018" lon="75.1624865">
      </trkpt>
      <trkpt lat="32.5252076" lon="75.1617411">
      </trkpt>
      <trkpt lat="32.525387" lon="75.1609502">
      </trkpt>
      <trkpt lat="32.5254558" lon="75.1603497">
      </trkpt>
      <trkpt lat="32.5260124" lon="75.1525272">
      </trkpt>
      <trkpt lat="32.526149" lon="75.1504731">
      </trkpt>
      <trkpt lat="32.5261945" lon="75.149986">
      </trkpt>
      <trkpt lat="32.5263434" lon="75.1481561">
      </trkpt>
      <trkpt lat="32.5264263" lon="75.147348">
      </trkpt>
      <trkpt lat="32.5265742" lon="75.146168">
      </trkpt>
      <trkpt lat="32.5266106" lon="75.1458232">
      </trkpt>
      <trkpt lat="32.5266673" lon="75.1453036">
      </trkpt>
      <trkpt lat="32.5267846" lon="75.1435545">
      </trkpt>
      <trkpt lat="32.526823" lon="75.1429898">
      </trkpt>
      <trkpt lat="32.5269564" lon="75.1412156">
      </trkpt>
      <trkpt lat="32.5269855" lon="75.1407124">
      </trkpt>
      <trkpt lat="32.5270347" lon="75.1394043">
      </trkpt>
      <trkpt lat="32.5270778" lon="75.1386289">
      </trkpt>
      <trkpt lat="32.5272727" lon="75.1357173">
      </trkpt>
      <trkpt lat="32.5275644" lon="75.1318907">
      </trkpt>
      <trkpt lat="32.5275946" lon="75.1315043">
      </trkpt>
      <trkpt lat="32.5276241" lon="75.1308722">
      </trkpt>
      <trkpt lat="32.5277097" lon="75.1295904">
      </trkpt>
      <trkpt lat="32.5277257" lon="75.1291571">
      </trkpt>
      <trkpt lat="32.5277186" lon="75.1278916">
      </trkpt>
      <trkpt lat="32.5277366" lon="75.1273804">
      </trkpt>
      <trkpt lat="32.5277791" lon="75.1266989">
      </trkpt>
      <trkpt lat="32.527882" lon="75.125232">
      </trkpt>
      <trkpt lat="32.5286258" lon="75.1148578">
      </trkpt>
      <trkpt lat="32.5286518" lon="75.1144532">
      </trkpt>
      <trkpt lat="32.5286942" lon="75.113953">
      </trkpt>
      <trkpt lat="32.5287601" lon="75.1134374">
      </trkpt>
      <trkpt lat="32.528831" lon="75.1129826">
      </trkpt>
      <trkpt lat="32.5289438" lon="75.1125588">
      </trkpt>
      <trkpt lat="32.5290776" lon="75.1121271">
      </trkpt>
      <trkpt lat="32.529303" lon="75.1115505">
      </trkpt>
      <trkpt lat="32.529496" lon="75.1111391">
      </trkpt>
      <trkpt lat="32.5352465" lon="75.1003919">
      </trkpt>
      <trkpt lat="32.5364648" lon="75.0981619">
      </trkpt>
      <trkpt lat="32.5369382" lon="75.0973051">
      </trkpt>
      <trkpt lat="32.5375037" lon="75.0965743">
      </trkpt>
      <trkpt lat="32.5381701" lon="75.0960338">
      </trkpt>
      <trkpt lat="32.5385951" lon="75.0957927">
      </trkpt>
      <trkpt lat="32.5389367" lon="75.0956799">
      </trkpt>
      <trkpt lat="32.5393835" lon="75.095537">
      </trkpt>
      <trkpt lat="32.5400302" lon="75.0954639">
      </trkpt>
      <trkpt lat="32.5409862" lon="75.0954598">
      </trkpt>
      <trkpt lat="32.5442" lon="75.0955516">
      </trkpt>
      <trkpt lat="32.5457336" lon="75.0955808">
      </trkpt>
      <trkpt lat="32.546962" lon="75.0955978">
      </trkpt>
      <trkpt lat="32.547686" lon="75.0955005">
      </trkpt>
      <trkpt lat="32.5481969" lon="75.0953442">
      </trkpt>
      <trkpt lat="32.5487699" lon="75.0951132">
      </trkpt>
      <trkpt lat="32.5495345" lon="75.0947034">
      </trkpt>
      <trkpt lat="32.5500941" lon="75.0941707">
      </trkpt>
      <trkpt lat="32.5505125" lon="75.093723">
      </trkpt>
      <trkpt lat="32.5512642" lon="75.0925999">
      </trkpt>
      <trkpt lat="32.5519155" lon="75.0915128">
      </trkpt>
      <trkpt lat="32.5540245" lon="75.0880236">
      </trkpt>
      <trkpt lat="32.5549009" lon="75.0865066">
      </trkpt>
      <trkpt lat="32.5556413" lon="75.0852467">
      </trkpt>
      <trkpt lat="32.5559025" lon="75.0846906">
      </trkpt>
      <trkpt lat="32.5560657" lon="75.0842618">
      </trkpt>
      <trkpt lat="32.556163" lon="75.0839021">
      </trkpt>
      <trkpt lat="32.5562635" lon="75.0835717">
      </trkpt>
      <trkpt lat="32.5563238" lon="75.0832831">
      </trkpt>
      <trkpt lat="32.5563786" lon="75.0830166">
      </trkpt>
      <trkpt lat="32.5566299" lon="75.0813031">
      </trkpt>
      <trkpt lat="32.5567768" lon="75.0802506">
      </trkpt>
      <trkpt lat="32.5572883" lon="75.0768595">
      </trkpt>
      <trkpt lat="32.5575249" lon="75.0752132">
      </trkpt>
      <trkpt lat="32.5578936" lon="75.0725351">
      </trkpt>
      <trkpt lat="32.5580526" lon="75.0714913">
      </trkpt>
      <trkpt lat="32.5581296" lon="75.0709689">
      </trkpt>
      <trkpt lat="32.5582866" lon="75.0699094">
      </trkpt>
      <trkpt lat="32.5585376" lon="75.0683368">
      </trkpt>
      <trkpt lat="32.5586053" lon="75.0678728">
      </trkpt>
      <trkpt lat="32.5587848" lon="75.0665911">
      </trkpt>
      <trkpt lat="32.5590542" lon="75.0645636">
      </trkpt>
      <trkpt lat="32.5594237" lon="75.0620831">
      </trkpt>
      <trkpt lat="32.5596299" lon="75.0605378">
      </trkpt>
      <trkpt lat="32.5597008" lon="75.0601286">
      </trkpt>
      <trkpt lat="32.5599071" lon="75.058777">
      </trkpt>
      <trkpt lat="32.5601349" lon="75.0572207">
      </trkpt>
      <trkpt lat="32.5602301" lon="75.0564024">
      </trkpt>
      <trkpt lat="32.5604367" lon="75.0550646">
      </trkpt>
      <trkpt lat="32.5606658" lon="75.0541372">
      </trkpt>
      <trkpt lat="32.5609263" lon="75.053423">
      </trkpt>
      <trkpt lat="32.5611195" lon="75.052874">
      </trkpt>
      <trkpt lat="32.5617529" lon="75.0514456">
      </trkpt>
      <trkpt lat="32.5624177" lon="75.0500918">
      </trkpt>
      <trkpt lat="32.5631364" lon="75.0484982">
      </trkpt>
      <trkpt lat="32.5638282" lon="75.0470058">
      </trkpt>
      <trkpt lat="32.5649781" lon="75.0445488">
      </trkpt>
      <trkpt lat="32.5657777" lon="75.0427899">
      </trkpt>
      <trkpt lat="32.5668647" lon="75.0404555">
      </trkpt>
      <trkpt lat="32.5671926" lon="75.0397732">
      </trkpt>
      <trkpt lat="32.5687917" lon="75.0362982">
      </trkpt>
      <trkpt lat="32.5702694" lon="75.033079">
      </trkpt>
      <trkpt lat="32.5705423" lon="75.0324771">
      </trkpt>
      <trkpt lat="32.5707088" lon="75.0320931">
      </trkpt>
      <trkpt lat="32.5714377" lon="75.0305121">
      </trkpt>
      <trkpt lat="32.5716513" lon="75.0300576">
      </trkpt>
      <trkpt lat="32.5718759" lon="75.0294287">
      </trkpt>
      <trkpt lat="32.5720421" lon="75.0288717">
      </trkpt>
      <trkpt lat="32.5721432" lon="75.028416">
      </trkpt>
      <trkpt lat="32.5722307" lon="75.0277658">
      </trkpt>
      <trkpt lat="32.5722734" lon="75.0273234">
      </trkpt>
      <trkpt lat="32.5722848" lon="75.026351">
      </trkpt>
      <trkpt lat="32.5723078" lon="75.0252856">
      </trkpt>
      <trkpt lat="32.5723671" lon="75.0228249">
      </trkpt>
      <trkpt lat="32.5724338" lon="75.0198928">
      </trkpt>
      <trkpt lat="32.5725307" lon="75.0160962">
      </trkpt>
      <trkpt lat="32.5725357" lon="75.0157556">
      </trkpt>
      <trkpt lat="32.5725519" lon="75.0151127">
      </trkpt>
      <trkpt lat="32.5725787" lon="75.0134008">
      </trkpt>
      <trkpt lat="32.5726057" lon="75.0123028">
      </trkpt>
      <trkpt lat="32.5727025" lon="75.0114109">
      </trkpt>
      <trkpt lat="32.5728289" lon="75.0107091">
      </trkpt>
      <trkpt lat="32.5729782" lon="75.0100533">
      </trkpt>
      <trkpt lat="32.5731243" lon="75.0095898">
      </trkpt>
      <trkpt lat="32.5733371" lon="75.0089039">
      </trkpt>
      <trkpt lat="32.5737832" lon="75.0079315">
      </trkpt>
      <trkpt lat="32.5741348" lon="75.0072998">
      </trkpt>
      <trkpt lat="32.5745877" lon="75.0066491">
      </trkpt>
      <trkpt lat="32.5751083" lon="75.0059328">
      </trkpt>
      <trkpt lat="32.5755809" lon="75.0053758">
      </trkpt>
      <trkpt lat="32.5760805" lon="75.0047773">
      </trkpt>
      <trkpt lat="32.5764853" lon="75.0042128">
      </trkpt>
      <trkpt lat="32.5769843" lon="75.0034918">
      </trkpt>
      <trkpt lat="32.5773697" lon="75.0029255">
      </trkpt>
      <trkpt lat="32.5781922" lon="75.0017195">
      </trkpt>
      <trkpt lat="32.5794594" lon="74.9998804">
      </trkpt>
      <trkpt lat="32.5798405" lon="74.9993263">
      </trkpt>
      <trkpt lat="32.5805867" lon="74.9981769">
      </trkpt>
      <trkpt lat="32.5809329" lon="74.99754">
      </trkpt>
      <trkpt lat="32.5812981" lon="74.9969407">
      </trkpt>
      <trkpt lat="32.5822676" lon="74.995485">
      </trkpt>
      <trkpt lat="32.58403" lon="74.9929863">
      </trkpt>
      <trkpt lat="32.5854241" lon="74.9908946">
      </trkpt>
      <trkpt lat="32.5872056" lon="74.9883545">
      </trkpt>
      <trkpt lat="32.5878152" lon="74.987416">
      </trkpt>
      <trkpt lat="32.5880185" lon="74.9871334">
      </trkpt>
      <trkpt lat="32.5883265" lon="74.9866849">
      </trkpt>
      <trkpt lat="32.5887711" lon="74.9860781">
      </trkpt>
      <trkpt lat="32.5900298" lon="74.9842028">
      </trkpt>
      <trkpt lat="32.5909863" lon="74.9828277">
      </trkpt>
      <trkpt lat="32.5921763" lon="74.9810902">
      </trkpt>
      <trkpt lat="32.5931507" lon="74.9796351">
      </trkpt>
      <trkpt lat="32.5949783" lon="74.9769809">
      </trkpt>
      <trkpt lat="32.5968752" lon="74.9742066">
      </trkpt>
      <trkpt lat="32.5970149" lon="74.9739975">
      </trkpt>
      <trkpt lat="32.5972276" lon="74.9737129">
      </trkpt>
      <trkpt lat="32.5979801" lon="74.9725842">
      </trkpt>
      <trkpt lat="32.5993098" lon="74.9706414">
      </trkpt>
      <trkpt lat="32.5996774" lon="74.9701133">
      </trkpt>
      <trkpt lat="32.599802" lon="74.9699343">
      </trkpt>
      <trkpt lat="32.6002306" lon="74.9693185">
      </trkpt>
      <trkpt lat="32.6019133" lon="74.9668349">
      </trkpt>
      <trkpt lat="32.6034087" lon="74.964698">
      </trkpt>
      <trkpt lat="32.6052946" lon="74.961943">
      </trkpt>
      <trkpt lat="32.6068788" lon="74.9596215">
      </trkpt>
      <trkpt lat="32.6078598" lon="74.9582007">
      </trkpt>
      <trkpt lat="32.6084535" lon="74.9573301">
      </trkpt>
      <trkpt lat="32.609863" lon="74.9552685">
      </trkpt>
      <trkpt lat="32.6101233" lon="74.9548992">
      </trkpt>
      <trkpt lat="32.6114091" lon="74.9530261">
      </trkpt>
      <trkpt lat="32.613171" lon="74.9504822">
      </trkpt>
      <trkpt lat="32.6148217" lon="74.9480777">
      </trkpt>
      <trkpt lat="32.615882" lon="74.946525">
      </trkpt>
      <trkpt lat="32.6160724" lon="74.9462537">
      </trkpt>
      <trkpt lat="32.6165105" lon="74.9456092">
      </trkpt>
      <trkpt lat="32.6174438" lon="74.9442411">
      </trkpt>
      <trkpt lat="32.6184088" lon="74.9428542">
      </trkpt>
      <trkpt lat="32.6207428" lon="74.9394843">
      </trkpt>
      <trkpt lat="32.6237653" lon="74.9350386">
      </trkpt>
      <trkpt lat="32.6256563" lon="74.9322778">
      </trkpt>
      <trkpt lat="32.6260827" lon="74.9316552">
      </trkpt>
      <trkpt lat="32.6294415" lon="74.9267651">
      </trkpt>
      <trkpt lat="32.6315026" lon="74.9237564">
      </trkpt>
      <trkpt lat="32.6320003" lon="74.9231304">
      </trkpt>
      <trkpt lat="32.6324587" lon="74.9226444">
      </trkpt>
      <trkpt lat="32.6339869" lon="74.921214">
      </trkpt>
      <trkpt lat="32.6345845" lon="74.9206099">
      </trkpt>
      <trkpt lat="32.6346069" lon="74.9205872">
      </trkpt>
      <trkpt lat="32.6360744" lon="74.9192125">
      </trkpt>
      <trkpt lat="32.6383297" lon="74.9170453">
      </trkpt>
      <trkpt lat="32.640256" lon="74.9152535">
      </trkpt>
      <trkpt lat="32.6419076" lon="74.9136411">
      </trkpt>
      <trkpt lat="32.642011" lon="74.9135417">
      </trkpt>
      <trkpt lat="32.6428395" lon="74.9127456">
      </trkpt>
      <trkpt lat="32.6430053" lon="74.9125862">
      </trkpt>
      <trkpt lat="32.6435356" lon="74.9121409">
      </trkpt>
      <trkpt lat="32.6438767" lon="74.9119243">
      </trkpt>
      <trkpt lat="32.6443496" lon="74.9117318">
      </trkpt>
      <trkpt lat="32.6447481" lon="74.9116155">
      </trkpt>
      <trkpt lat="32.6453054" lon="74.9115192">
      </trkpt>
      <trkpt lat="32.6454912" lon="74.9115232">
      </trkpt>
      <trkpt lat="32.6458525" lon="74.9115393">
      </trkpt>
      <trkpt lat="32.6462342" lon="74.9115914">
      </trkpt>
      <trkpt lat="32.6465821" lon="74.9116877">
      </trkpt>
      <trkpt lat="32.6472915" lon="74.9119767">
      </trkpt>
      <trkpt lat="32.6485289" lon="74.912439">
      </trkpt>
      <trkpt lat="32.6501528" lon="74.9130834">
      </trkpt>
      <trkpt lat="32.6503264" lon="74.9131586">
      </trkpt>
      <trkpt lat="32.6513001" lon="74.9134485">
      </trkpt>
      <trkpt lat="32.6518202" lon="74.9135288">
      </trkpt>
      <trkpt lat="32.6524957" lon="74.9135328">
      </trkpt>
      <trkpt lat="32.6530495" lon="74.9134566">
      </trkpt>
      <trkpt lat="32.6536101" lon="74.913268">
      </trkpt>
      <trkpt lat="32.6543227" lon="74.912895">
      </trkpt>
      <trkpt lat="32.6550312" lon="74.9123615">
      </trkpt>
      <trkpt lat="32.6579984" lon="74.9097553">
      </trkpt>
      <trkpt lat="32.6614034" lon="74.9068283">
      </trkpt>
      <trkpt lat="32.6643307" lon="74.9042983">
      </trkpt>
      <trkpt lat="32.6671625" lon="74.9018478">
      </trkpt>
      <trkpt lat="32.6700562" lon="74.8993689">
      </trkpt>
      <trkpt lat="32.671994" lon="74.8977008">
      </trkpt>
      <trkpt lat="32.6724527" lon="74.897298">
      </trkpt>
      <trkpt lat="32.6725917" lon="74.8971713">
      </trkpt>
      <trkpt lat="32.6742528" lon="74.8957514">
      </trkpt>
      <trkpt lat="32.6750969" lon="74.8950294">
      </trkpt>
      <trkpt lat="32.6759567" lon="74.8942728">
      </trkpt>
      <trkpt lat="32.6760981" lon="74.8941483">
      </trkpt>
      <trkpt lat="32.6763588" lon="74.8939188">
      </trkpt>
      <trkpt lat="32.6780149" lon="74.8925216">
      </trkpt>
      <trkpt lat="32.6780723" lon="74.8924725">
      </trkpt>
      <trkpt lat="32.6794242" lon="74.8912755">
      </trkpt>
      <trkpt lat="32.6827836" lon="74.8883886">
      </trkpt>
      <trkpt lat="32.6841306" lon="74.8872254">
      </trkpt>
      <trkpt lat="32.6845222" lon="74.8869647">
      </trkpt>
      <trkpt lat="32.6849813" lon="74.8866599">
      </trkpt>
      <trkpt lat="32.6859975" lon="74.8861745">
      </trkpt>
      <trkpt lat="32.6865511" lon="74.885978">
      </trkpt>
      <trkpt lat="32.6879048" lon="74.8856892">
      </trkpt>
      <trkpt lat="32.6890091" lon="74.8855331">
      </trkpt>
      <trkpt lat="32.6893801" lon="74.8854806">
      </trkpt>
      <trkpt lat="32.6908416" lon="74.8852657">
      </trkpt>
      <trkpt lat="32.690978" lon="74.8852457">
      </trkpt>
      <trkpt lat="32.6917262" lon="74.8851357">
      </trkpt>
      <trkpt lat="32.6960584" lon="74.8844829">
      </trkpt>
      <trkpt lat="32.6970062" lon="74.884337">
      </trkpt>
      <trkpt lat="32.6975875" lon="74.8842025">
      </trkpt>
      <trkpt lat="32.6980575" lon="74.8840452">
      </trkpt>
      <trkpt lat="32.698468" lon="74.8838719">
      </trkpt>
      <trkpt lat="32.6987786" lon="74.883724">
      </trkpt>
      <trkpt lat="32.6999811" lon="74.8831766">
      </trkpt>
      <trkpt lat="32.7009745" lon="74.8827031">
      </trkpt>
      <trkpt lat="32.7014154" lon="74.8824365">
      </trkpt>
      <trkpt lat="32.7017637" lon="74.8822553">
      </trkpt>
      <trkpt lat="32.7025044" lon="74.8818725">
      </trkpt>
      <trkpt lat="32.7030172" lon="74.8816251">
      </trkpt>
    </trkseg>
  </trk>
</gpx>