<?xml version="1.0" encoding="UTF-8"?>
<gpx xmlns="http://www.topografix.com/GPX/1/1" xmlns:xsi="http://www.w3.org/2001/XMLSchema-instance" xsi:schemaLocation="http://www.topografix.com/GPX/1/1 http://www.topografix.com/GPX/1/1/gpx.xsd" version="1.1" creator="gpx.py -- https://github.com/tkrajina/gpxpy">
  <wpt lat="22.5322698" lon="114.1125359">
    <name>Shenzhen</name>
  </wpt>
  <wpt lat="22.5284319" lon="114.1131028">
    <name>Lo Wu</name>
  </wpt>
  <wpt lat="22.50037" lon="114.1289385">
    <name>Sheung Shui</name>
  </wpt>
  <wpt lat="22.4448157" lon="114.169805">
    <name>Tai Po Market</name>
  </wpt>
  <wpt lat="22.3837138" lon="114.1882949">
    <name>Shatin</name>
  </wpt>
  <wpt lat="22.3036035" lon="114.182418">
    <name>Hung Hom</name>
  </wpt>
  <trk>
    <name>Shenzhen - Hong Kong (Vies regionals)</name>
    <trkseg>
      <trkpt lat="22.5322698" lon="114.1125359">
      </trkpt>
      <trkpt lat="22.5314878" lon="114.1126591">
      </trkpt>
      <trkpt lat="22.5301281" lon="114.1128762">
      </trkpt>
      <trkpt lat="22.5299981" lon="114.1129009">
      </trkpt>
      <trkpt lat="22.5295826" lon="114.11297">
      </trkpt>
      <trkpt lat="22.5292987" lon="114.1130002">
      </trkpt>
      <trkpt lat="22.5291837" lon="114.1130146">
      </trkpt>
      <trkpt lat="22.5290526" lon="114.1130311">
      </trkpt>
      <trkpt lat="22.5288398" lon="114.1130514">
      </trkpt>
      <trkpt lat="22.528649" lon="114.113075">
      </trkpt>
      <trkpt lat="22.5284319" lon="114.1131028">
      </trkpt>
      <trkpt lat="22.5281624" lon="114.113146">
      </trkpt>
      <trkpt lat="22.5279388" lon="114.1131846">
      </trkpt>
      <trkpt lat="22.527665" lon="114.1132303">
      </trkpt>
      <trkpt lat="22.5274545" lon="114.1132785">
      </trkpt>
      <trkpt lat="22.5272191" lon="114.1133437">
      </trkpt>
      <trkpt lat="22.5269899" lon="114.1134179">
      </trkpt>
      <trkpt lat="22.5267594" lon="114.1135019">
      </trkpt>
      <trkpt lat="22.5265836" lon="114.1135762">
      </trkpt>
      <trkpt lat="22.5263858" lon="114.1136662">
      </trkpt>
      <trkpt lat="22.5261816" lon="114.1137666">
      </trkpt>
      <trkpt lat="22.5258998" lon="114.1139182">
      </trkpt>
      <trkpt lat="22.5257556" lon="114.1139995">
      </trkpt>
      <trkpt lat="22.5256367" lon="114.1140633">
      </trkpt>
      <trkpt lat="22.5255844" lon="114.114092">
      </trkpt>
      <trkpt lat="22.5253866" lon="114.1141957">
      </trkpt>
      <trkpt lat="22.5252792" lon="114.1142534">
      </trkpt>
      <trkpt lat="22.5248024" lon="114.1145087">
      </trkpt>
      <trkpt lat="22.5247042" lon="114.1145645">
      </trkpt>
      <trkpt lat="22.5242408" lon="114.1148182">
      </trkpt>
      <trkpt lat="22.5228996" lon="114.1155473">
      </trkpt>
      <trkpt lat="22.522643" lon="114.1156796">
      </trkpt>
      <trkpt lat="22.5223495" lon="114.1158178">
      </trkpt>
      <trkpt lat="22.5220298" lon="114.1159559">
      </trkpt>
      <trkpt lat="22.5217346" lon="114.1160673">
      </trkpt>
      <trkpt lat="22.5214395" lon="114.1161704">
      </trkpt>
      <trkpt lat="22.5211699" lon="114.1162471">
      </trkpt>
      <trkpt lat="22.5209151" lon="114.1163089">
      </trkpt>
      <trkpt lat="22.5205702" lon="114.1163796">
      </trkpt>
      <trkpt lat="22.5202545" lon="114.1164268">
      </trkpt>
      <trkpt lat="22.5199462" lon="114.1164624">
      </trkpt>
      <trkpt lat="22.5196561" lon="114.1164873">
      </trkpt>
      <trkpt lat="22.5193497" lon="114.116494">
      </trkpt>
      <trkpt lat="22.5190165" lon="114.1164852">
      </trkpt>
      <trkpt lat="22.5186201" lon="114.1164638">
      </trkpt>
      <trkpt lat="22.5182851" lon="114.116436">
      </trkpt>
      <trkpt lat="22.517276" lon="114.116343">
      </trkpt>
      <trkpt lat="22.5172011" lon="114.1163354">
      </trkpt>
      <trkpt lat="22.5167601" lon="114.1162906">
      </trkpt>
      <trkpt lat="22.5165242" lon="114.1162666">
      </trkpt>
      <trkpt lat="22.5162072" lon="114.1162364">
      </trkpt>
      <trkpt lat="22.516011" lon="114.1162174">
      </trkpt>
      <trkpt lat="22.5153801" lon="114.1161566">
      </trkpt>
      <trkpt lat="22.5150447" lon="114.1161326">
      </trkpt>
      <trkpt lat="22.5147441" lon="114.11613">
      </trkpt>
      <trkpt lat="22.5144277" lon="114.1161379">
      </trkpt>
      <trkpt lat="22.5140884" lon="114.1161642">
      </trkpt>
      <trkpt lat="22.5138273" lon="114.1161908">
      </trkpt>
      <trkpt lat="22.5135444" lon="114.1162291">
      </trkpt>
      <trkpt lat="22.5132769" lon="114.116286">
      </trkpt>
      <trkpt lat="22.5129249" lon="114.1163726">
      </trkpt>
      <trkpt lat="22.5126033" lon="114.1164624">
      </trkpt>
      <trkpt lat="22.5122885" lon="114.116562">
      </trkpt>
      <trkpt lat="22.5119466" lon="114.1166947">
      </trkpt>
      <trkpt lat="22.511655" lon="114.1168249">
      </trkpt>
      <trkpt lat="22.5113579" lon="114.1169643">
      </trkpt>
      <trkpt lat="22.5110306" lon="114.117144">
      </trkpt>
      <trkpt lat="22.5107579" lon="114.1173036">
      </trkpt>
      <trkpt lat="22.5105127" lon="114.1174605">
      </trkpt>
      <trkpt lat="22.5102745" lon="114.1176338">
      </trkpt>
      <trkpt lat="22.5099949" lon="114.1178548">
      </trkpt>
      <trkpt lat="22.5097348" lon="114.1180879">
      </trkpt>
      <trkpt lat="22.5094448" lon="114.1183725">
      </trkpt>
      <trkpt lat="22.5092069" lon="114.1186152">
      </trkpt>
      <trkpt lat="22.5089323" lon="114.1189218">
      </trkpt>
      <trkpt lat="22.5087188" lon="114.119168">
      </trkpt>
      <trkpt lat="22.5085058" lon="114.1194195">
      </trkpt>
      <trkpt lat="22.5079382" lon="114.1200918">
      </trkpt>
      <trkpt lat="22.5072828" lon="114.1208925">
      </trkpt>
      <trkpt lat="22.5066366" lon="114.1216698">
      </trkpt>
      <trkpt lat="22.5056173" lon="114.1228473">
      </trkpt>
      <trkpt lat="22.5053612" lon="114.1231254">
      </trkpt>
      <trkpt lat="22.5051792" lon="114.1233139">
      </trkpt>
      <trkpt lat="22.5048501" lon="114.1236979">
      </trkpt>
      <trkpt lat="22.5038583" lon="114.124854">
      </trkpt>
      <trkpt lat="22.5028929" lon="114.1259908">
      </trkpt>
      <trkpt lat="22.5024595" lon="114.126513">
      </trkpt>
      <trkpt lat="22.5021902" lon="114.1268064">
      </trkpt>
      <trkpt lat="22.501124" lon="114.1280498">
      </trkpt>
      <trkpt lat="22.50037" lon="114.1289385">
      </trkpt>
      <trkpt lat="22.5003607" lon="114.1289958">
      </trkpt>
      <trkpt lat="22.4998774" lon="114.1295941">
      </trkpt>
      <trkpt lat="22.4993332" lon="114.1302315">
      </trkpt>
      <trkpt lat="22.4991458" lon="114.130453">
      </trkpt>
      <trkpt lat="22.4983269" lon="114.1314111">
      </trkpt>
      <trkpt lat="22.4982442" lon="114.131508">
      </trkpt>
      <trkpt lat="22.4980807" lon="114.131702">
      </trkpt>
      <trkpt lat="22.4960529" lon="114.1340764">
      </trkpt>
      <trkpt lat="22.4953724" lon="114.1348781">
      </trkpt>
      <trkpt lat="22.4942132" lon="114.136257">
      </trkpt>
      <trkpt lat="22.4930489" lon="114.1376088">
      </trkpt>
      <trkpt lat="22.4921182" lon="114.1386929">
      </trkpt>
      <trkpt lat="22.4912377" lon="114.1397269">
      </trkpt>
      <trkpt lat="22.4906542" lon="114.1404181">
      </trkpt>
      <trkpt lat="22.4905172" lon="114.1405895">
      </trkpt>
      <trkpt lat="22.490293" lon="114.1408799">
      </trkpt>
      <trkpt lat="22.4900911" lon="114.1411781">
      </trkpt>
      <trkpt lat="22.489925" lon="114.1414404">
      </trkpt>
      <trkpt lat="22.4897604" lon="114.1417198">
      </trkpt>
      <trkpt lat="22.4896175" lon="114.1419938">
      </trkpt>
      <trkpt lat="22.4894898" lon="114.1422658">
      </trkpt>
      <trkpt lat="22.4893151" lon="114.1426742">
      </trkpt>
      <trkpt lat="22.489211" lon="114.1429404">
      </trkpt>
      <trkpt lat="22.4891117" lon="114.1432213">
      </trkpt>
      <trkpt lat="22.4890245" lon="114.1435093">
      </trkpt>
      <trkpt lat="22.4889429" lon="114.1438198">
      </trkpt>
      <trkpt lat="22.4888846" lon="114.1440678">
      </trkpt>
      <trkpt lat="22.4888318" lon="114.144331">
      </trkpt>
      <trkpt lat="22.4887835" lon="114.1446022">
      </trkpt>
      <trkpt lat="22.4887487" lon="114.1448122">
      </trkpt>
      <trkpt lat="22.4883522" lon="114.1473011">
      </trkpt>
      <trkpt lat="22.4883041" lon="114.1476055">
      </trkpt>
      <trkpt lat="22.4882364" lon="114.1480347">
      </trkpt>
      <trkpt lat="22.4881821" lon="114.1483505">
      </trkpt>
      <trkpt lat="22.4881542" lon="114.148499">
      </trkpt>
      <trkpt lat="22.4881293" lon="114.1486213">
      </trkpt>
      <trkpt lat="22.4880928" lon="114.1487814">
      </trkpt>
      <trkpt lat="22.4880577" lon="114.1489217">
      </trkpt>
      <trkpt lat="22.4880225" lon="114.1490531">
      </trkpt>
      <trkpt lat="22.487974" lon="114.1492219">
      </trkpt>
      <trkpt lat="22.4879232" lon="114.1493878">
      </trkpt>
      <trkpt lat="22.4878706" lon="114.1495524">
      </trkpt>
      <trkpt lat="22.4878177" lon="114.1497098">
      </trkpt>
      <trkpt lat="22.4877602" lon="114.149866">
      </trkpt>
      <trkpt lat="22.4876989" lon="114.150023">
      </trkpt>
      <trkpt lat="22.4876437" lon="114.1501584">
      </trkpt>
      <trkpt lat="22.4875837" lon="114.1503008">
      </trkpt>
      <trkpt lat="22.4875148" lon="114.1504591">
      </trkpt>
      <trkpt lat="22.4874479" lon="114.1506028">
      </trkpt>
      <trkpt lat="22.4873732" lon="114.1507526">
      </trkpt>
      <trkpt lat="22.487288" lon="114.1509178">
      </trkpt>
      <trkpt lat="22.4872206" lon="114.1510439">
      </trkpt>
      <trkpt lat="22.4871504" lon="114.1511686">
      </trkpt>
      <trkpt lat="22.4870118" lon="114.1514">
      </trkpt>
      <trkpt lat="22.4869383" lon="114.1515159">
      </trkpt>
      <trkpt lat="22.4868093" lon="114.1517101">
      </trkpt>
      <trkpt lat="22.4867214" lon="114.1518363">
      </trkpt>
      <trkpt lat="22.4866171" lon="114.1519804">
      </trkpt>
      <trkpt lat="22.486519" lon="114.1521094">
      </trkpt>
      <trkpt lat="22.4864213" lon="114.1522331">
      </trkpt>
      <trkpt lat="22.4863133" lon="114.1523668">
      </trkpt>
      <trkpt lat="22.486204" lon="114.1524981">
      </trkpt>
      <trkpt lat="22.4860812" lon="114.1526353">
      </trkpt>
      <trkpt lat="22.4859777" lon="114.1527474">
      </trkpt>
      <trkpt lat="22.4858713" lon="114.1528596">
      </trkpt>
      <trkpt lat="22.4857449" lon="114.1529865">
      </trkpt>
      <trkpt lat="22.4856022" lon="114.1531199">
      </trkpt>
      <trkpt lat="22.4854525" lon="114.1532544">
      </trkpt>
      <trkpt lat="22.4853049" lon="114.1533783">
      </trkpt>
      <trkpt lat="22.4851441" lon="114.1535096">
      </trkpt>
      <trkpt lat="22.4847858" lon="114.1537831">
      </trkpt>
      <trkpt lat="22.4846621" lon="114.1538718">
      </trkpt>
      <trkpt lat="22.4844208" lon="114.1540303">
      </trkpt>
      <trkpt lat="22.4841968" lon="114.1541658">
      </trkpt>
      <trkpt lat="22.4839764" lon="114.1542902">
      </trkpt>
      <trkpt lat="22.4838311" lon="114.1543665">
      </trkpt>
      <trkpt lat="22.4836603" lon="114.1544516">
      </trkpt>
      <trkpt lat="22.4834674" lon="114.1545415">
      </trkpt>
      <trkpt lat="22.4832211" lon="114.1546481">
      </trkpt>
      <trkpt lat="22.4829652" lon="114.1547468">
      </trkpt>
      <trkpt lat="22.4827372" lon="114.1548268">
      </trkpt>
      <trkpt lat="22.4825133" lon="114.1548958">
      </trkpt>
      <trkpt lat="22.4823129" lon="114.1549525">
      </trkpt>
      <trkpt lat="22.4820767" lon="114.1550107">
      </trkpt>
      <trkpt lat="22.4818337" lon="114.1550623">
      </trkpt>
      <trkpt lat="22.4815857" lon="114.1551059">
      </trkpt>
      <trkpt lat="22.4813491" lon="114.1551398">
      </trkpt>
      <trkpt lat="22.4810898" lon="114.1551685">
      </trkpt>
      <trkpt lat="22.4808074" lon="114.1551897">
      </trkpt>
      <trkpt lat="22.4806028" lon="114.1551972">
      </trkpt>
      <trkpt lat="22.4804304" lon="114.1551996">
      </trkpt>
      <trkpt lat="22.4803008" lon="114.1551973">
      </trkpt>
      <trkpt lat="22.480118" lon="114.1551905">
      </trkpt>
      <trkpt lat="22.4799906" lon="114.1551842">
      </trkpt>
      <trkpt lat="22.4798154" lon="114.1551699">
      </trkpt>
      <trkpt lat="22.4796109" lon="114.1551496">
      </trkpt>
      <trkpt lat="22.4793959" lon="114.1551201">
      </trkpt>
      <trkpt lat="22.4792028" lon="114.1550902">
      </trkpt>
      <trkpt lat="22.4789997" lon="114.1550543">
      </trkpt>
      <trkpt lat="22.4788221" lon="114.155021">
      </trkpt>
      <trkpt lat="22.4786789" lon="114.1549937">
      </trkpt>
      <trkpt lat="22.4751176" lon="114.1542953">
      </trkpt>
      <trkpt lat="22.4745369" lon="114.1541823">
      </trkpt>
      <trkpt lat="22.4705478" lon="114.1534068">
      </trkpt>
      <trkpt lat="22.470194" lon="114.153336">
      </trkpt>
      <trkpt lat="22.4699667" lon="114.1532863">
      </trkpt>
      <trkpt lat="22.4696982" lon="114.153223">
      </trkpt>
      <trkpt lat="22.4694698" lon="114.1531631">
      </trkpt>
      <trkpt lat="22.4692681" lon="114.1531076">
      </trkpt>
      <trkpt lat="22.4628414" lon="114.1512401">
      </trkpt>
      <trkpt lat="22.4625809" lon="114.1511689">
      </trkpt>
      <trkpt lat="22.4623388" lon="114.1511084">
      </trkpt>
      <trkpt lat="22.4621417" lon="114.1510648">
      </trkpt>
      <trkpt lat="22.4619476" lon="114.1510253">
      </trkpt>
      <trkpt lat="22.4616682" lon="114.15098">
      </trkpt>
      <trkpt lat="22.4614372" lon="114.1509493">
      </trkpt>
      <trkpt lat="22.4611995" lon="114.1509234">
      </trkpt>
      <trkpt lat="22.4609433" lon="114.1509051">
      </trkpt>
      <trkpt lat="22.460659" lon="114.1508917">
      </trkpt>
      <trkpt lat="22.4604016" lon="114.1508903">
      </trkpt>
      <trkpt lat="22.4602225" lon="114.1508948">
      </trkpt>
      <trkpt lat="22.4600726" lon="114.1509022">
      </trkpt>
      <trkpt lat="22.4598264" lon="114.1509217">
      </trkpt>
      <trkpt lat="22.4595696" lon="114.1509547">
      </trkpt>
      <trkpt lat="22.4593427" lon="114.1509925">
      </trkpt>
      <trkpt lat="22.4592212" lon="114.1510163">
      </trkpt>
      <trkpt lat="22.4591114" lon="114.1510405">
      </trkpt>
      <trkpt lat="22.4588864" lon="114.1510965">
      </trkpt>
      <trkpt lat="22.4586641" lon="114.1511615">
      </trkpt>
      <trkpt lat="22.4584429" lon="114.1512357">
      </trkpt>
      <trkpt lat="22.4582012" lon="114.1513283">
      </trkpt>
      <trkpt lat="22.4579697" lon="114.1514275">
      </trkpt>
      <trkpt lat="22.4577678" lon="114.151524">
      </trkpt>
      <trkpt lat="22.4575784" lon="114.1516221">
      </trkpt>
      <trkpt lat="22.4573923" lon="114.1517271">
      </trkpt>
      <trkpt lat="22.4572043" lon="114.1518427">
      </trkpt>
      <trkpt lat="22.457093" lon="114.1519156">
      </trkpt>
      <trkpt lat="22.4569762" lon="114.1519957">
      </trkpt>
      <trkpt lat="22.4568637" lon="114.1520764">
      </trkpt>
      <trkpt lat="22.4567607" lon="114.1521547">
      </trkpt>
      <trkpt lat="22.4566365" lon="114.1522521">
      </trkpt>
      <trkpt lat="22.4565286" lon="114.1523419">
      </trkpt>
      <trkpt lat="22.4563349" lon="114.1525118">
      </trkpt>
      <trkpt lat="22.4561331" lon="114.1527048">
      </trkpt>
      <trkpt lat="22.4559371" lon="114.1529087">
      </trkpt>
      <trkpt lat="22.4558446" lon="114.1530109">
      </trkpt>
      <trkpt lat="22.4557508" lon="114.1531212">
      </trkpt>
      <trkpt lat="22.4555727" lon="114.1533411">
      </trkpt>
      <trkpt lat="22.4554953" lon="114.1534435">
      </trkpt>
      <trkpt lat="22.4554056" lon="114.153566">
      </trkpt>
      <trkpt lat="22.4553107" lon="114.1537037">
      </trkpt>
      <trkpt lat="22.4552017" lon="114.1538713">
      </trkpt>
      <trkpt lat="22.4550769" lon="114.1540736">
      </trkpt>
      <trkpt lat="22.454955" lon="114.1542842">
      </trkpt>
      <trkpt lat="22.4548326" lon="114.1545045">
      </trkpt>
      <trkpt lat="22.4546854" lon="114.1547916">
      </trkpt>
      <trkpt lat="22.4545337" lon="114.1551018">
      </trkpt>
      <trkpt lat="22.4544149" lon="114.1553682">
      </trkpt>
      <trkpt lat="22.4543203" lon="114.155599">
      </trkpt>
      <trkpt lat="22.4542362" lon="114.1558115">
      </trkpt>
      <trkpt lat="22.4536157" lon="114.1574885">
      </trkpt>
      <trkpt lat="22.453512" lon="114.1577638">
      </trkpt>
      <trkpt lat="22.4534293" lon="114.1579641">
      </trkpt>
      <trkpt lat="22.4533367" lon="114.1581729">
      </trkpt>
      <trkpt lat="22.4532531" lon="114.1583473">
      </trkpt>
      <trkpt lat="22.4531582" lon="114.1585344">
      </trkpt>
      <trkpt lat="22.452979" lon="114.1588594">
      </trkpt>
      <trkpt lat="22.4528292" lon="114.159112">
      </trkpt>
      <trkpt lat="22.4527057" lon="114.1593042">
      </trkpt>
      <trkpt lat="22.4526546" lon="114.1593757">
      </trkpt>
      <trkpt lat="22.4525044" lon="114.1596033">
      </trkpt>
      <trkpt lat="22.4523468" lon="114.1598211">
      </trkpt>
      <trkpt lat="22.4522354" lon="114.1599659">
      </trkpt>
      <trkpt lat="22.4521128" lon="114.1601146">
      </trkpt>
      <trkpt lat="22.4519287" lon="114.1603285">
      </trkpt>
      <trkpt lat="22.4517402" lon="114.1605325">
      </trkpt>
      <trkpt lat="22.4515921" lon="114.1606877">
      </trkpt>
      <trkpt lat="22.4514088" lon="114.1608622">
      </trkpt>
      <trkpt lat="22.4512498" lon="114.1610073">
      </trkpt>
      <trkpt lat="22.4509916" lon="114.161234">
      </trkpt>
      <trkpt lat="22.4498265" lon="114.1622207">
      </trkpt>
      <trkpt lat="22.4490924" lon="114.1628547">
      </trkpt>
      <trkpt lat="22.4479932" lon="114.1638033">
      </trkpt>
      <trkpt lat="22.4472095" lon="114.1644792">
      </trkpt>
      <trkpt lat="22.4469923" lon="114.1646695">
      </trkpt>
      <trkpt lat="22.4468253" lon="114.1648223">
      </trkpt>
      <trkpt lat="22.4466892" lon="114.1649518">
      </trkpt>
      <trkpt lat="22.446547" lon="114.1650988">
      </trkpt>
      <trkpt lat="22.4464478" lon="114.1652044">
      </trkpt>
      <trkpt lat="22.446364" lon="114.1653003">
      </trkpt>
      <trkpt lat="22.4462203" lon="114.1654756">
      </trkpt>
      <trkpt lat="22.4460876" lon="114.1656498">
      </trkpt>
      <trkpt lat="22.4459592" lon="114.1658321">
      </trkpt>
      <trkpt lat="22.4458512" lon="114.1659954">
      </trkpt>
      <trkpt lat="22.4457061" lon="114.1662305">
      </trkpt>
      <trkpt lat="22.4456045" lon="114.1664089">
      </trkpt>
      <trkpt lat="22.445535" lon="114.1665447">
      </trkpt>
      <trkpt lat="22.445435" lon="114.1667537">
      </trkpt>
      <trkpt lat="22.4453654" lon="114.1669149">
      </trkpt>
      <trkpt lat="22.4453048" lon="114.1670697">
      </trkpt>
      <trkpt lat="22.4452364" lon="114.1672474">
      </trkpt>
      <trkpt lat="22.4451832" lon="114.1673989">
      </trkpt>
      <trkpt lat="22.4451444" lon="114.1675186">
      </trkpt>
      <trkpt lat="22.4450751" lon="114.1677595">
      </trkpt>
      <trkpt lat="22.4450024" lon="114.1680532">
      </trkpt>
      <trkpt lat="22.4449449" lon="114.1683462">
      </trkpt>
      <trkpt lat="22.4448988" lon="114.1686594">
      </trkpt>
      <trkpt lat="22.4448727" lon="114.1689073">
      </trkpt>
      <trkpt lat="22.4448562" lon="114.1691251">
      </trkpt>
      <trkpt lat="22.444845" lon="114.1693232">
      </trkpt>
      <trkpt lat="22.4448345" lon="114.1694926">
      </trkpt>
      <trkpt lat="22.4448157" lon="114.169805">
      </trkpt>
      <trkpt lat="22.4447575" lon="114.1707875">
      </trkpt>
      <trkpt lat="22.4447309" lon="114.1713221">
      </trkpt>
      <trkpt lat="22.4447237" lon="114.1715168">
      </trkpt>
      <trkpt lat="22.4447206" lon="114.1717079">
      </trkpt>
      <trkpt lat="22.4447136" lon="114.17203">
      </trkpt>
      <trkpt lat="22.4447011" lon="114.1726719">
      </trkpt>
      <trkpt lat="22.4446984" lon="114.172797">
      </trkpt>
      <trkpt lat="22.444694" lon="114.1728981">
      </trkpt>
      <trkpt lat="22.4446847" lon="114.1730751">
      </trkpt>
      <trkpt lat="22.4446768" lon="114.1731762">
      </trkpt>
      <trkpt lat="22.4446367" lon="114.1735506">
      </trkpt>
      <trkpt lat="22.4446014" lon="114.1738316">
      </trkpt>
      <trkpt lat="22.4445274" lon="114.1743892">
      </trkpt>
      <trkpt lat="22.4444756" lon="114.1746915">
      </trkpt>
      <trkpt lat="22.4443877" lon="114.1751467">
      </trkpt>
      <trkpt lat="22.4443159" lon="114.1754837">
      </trkpt>
      <trkpt lat="22.4442075" lon="114.1759359">
      </trkpt>
      <trkpt lat="22.444141" lon="114.1761908">
      </trkpt>
      <trkpt lat="22.4440747" lon="114.1764445">
      </trkpt>
      <trkpt lat="22.4439664" lon="114.1768163">
      </trkpt>
      <trkpt lat="22.4438615" lon="114.1771468">
      </trkpt>
      <trkpt lat="22.4437206" lon="114.1775598">
      </trkpt>
      <trkpt lat="22.4435534" lon="114.1780129">
      </trkpt>
      <trkpt lat="22.4433776" lon="114.1784538">
      </trkpt>
      <trkpt lat="22.4431689" lon="114.1789396">
      </trkpt>
      <trkpt lat="22.4429756" lon="114.1793565">
      </trkpt>
      <trkpt lat="22.4427936" lon="114.1797222">
      </trkpt>
      <trkpt lat="22.4426137" lon="114.1800658">
      </trkpt>
      <trkpt lat="22.4424278" lon="114.1804047">
      </trkpt>
      <trkpt lat="22.4421566" lon="114.1808943">
      </trkpt>
      <trkpt lat="22.4414696" lon="114.1821385">
      </trkpt>
      <trkpt lat="22.4410039" lon="114.1829755">
      </trkpt>
      <trkpt lat="22.4403801" lon="114.1840903">
      </trkpt>
      <trkpt lat="22.4402207" lon="114.1843791">
      </trkpt>
      <trkpt lat="22.4395012" lon="114.1856802">
      </trkpt>
      <trkpt lat="22.4388763" lon="114.1868135">
      </trkpt>
      <trkpt lat="22.438575" lon="114.1873612">
      </trkpt>
      <trkpt lat="22.4383521" lon="114.1877801">
      </trkpt>
      <trkpt lat="22.4382704" lon="114.1879413">
      </trkpt>
      <trkpt lat="22.4381725" lon="114.1881588">
      </trkpt>
      <trkpt lat="22.4381012" lon="114.188324">
      </trkpt>
      <trkpt lat="22.438024" lon="114.1885164">
      </trkpt>
      <trkpt lat="22.4379519" lon="114.1887082">
      </trkpt>
      <trkpt lat="22.4378863" lon="114.1888937">
      </trkpt>
      <trkpt lat="22.4377993" lon="114.1891635">
      </trkpt>
      <trkpt lat="22.4376946" lon="114.1895364">
      </trkpt>
      <trkpt lat="22.4376485" lon="114.1897231">
      </trkpt>
      <trkpt lat="22.4376051" lon="114.1899157">
      </trkpt>
      <trkpt lat="22.4375697" lon="114.1900902">
      </trkpt>
      <trkpt lat="22.4375347" lon="114.190283">
      </trkpt>
      <trkpt lat="22.4374797" lon="114.1906469">
      </trkpt>
      <trkpt lat="22.4373377" lon="114.1917748">
      </trkpt>
      <trkpt lat="22.4370462" lon="114.194222">
      </trkpt>
      <trkpt lat="22.4370119" lon="114.1944895">
      </trkpt>
      <trkpt lat="22.436795" lon="114.1963096">
      </trkpt>
      <trkpt lat="22.4367745" lon="114.1964478">
      </trkpt>
      <trkpt lat="22.4367594" lon="114.1965392">
      </trkpt>
      <trkpt lat="22.4367428" lon="114.1966307">
      </trkpt>
      <trkpt lat="22.4367237" lon="114.196726">
      </trkpt>
      <trkpt lat="22.4366971" lon="114.1968483">
      </trkpt>
      <trkpt lat="22.4366663" lon="114.1969793">
      </trkpt>
      <trkpt lat="22.436632" lon="114.1971035">
      </trkpt>
      <trkpt lat="22.4365883" lon="114.1972417">
      </trkpt>
      <trkpt lat="22.4365361" lon="114.1973913">
      </trkpt>
      <trkpt lat="22.4364831" lon="114.1975246">
      </trkpt>
      <trkpt lat="22.4364276" lon="114.1976512">
      </trkpt>
      <trkpt lat="22.4363688" lon="114.1977814">
      </trkpt>
      <trkpt lat="22.4363215" lon="114.1978754">
      </trkpt>
      <trkpt lat="22.4362685" lon="114.1979749">
      </trkpt>
      <trkpt lat="22.4362118" lon="114.1980745">
      </trkpt>
      <trkpt lat="22.4361661" lon="114.1981489">
      </trkpt>
      <trkpt lat="22.4360774" lon="114.1982864">
      </trkpt>
      <trkpt lat="22.4360249" lon="114.1983628">
      </trkpt>
      <trkpt lat="22.4359712" lon="114.1984353">
      </trkpt>
      <trkpt lat="22.4358666" lon="114.1985726">
      </trkpt>
      <trkpt lat="22.43574" lon="114.1987224">
      </trkpt>
      <trkpt lat="22.435632" lon="114.1988392">
      </trkpt>
      <trkpt lat="22.4355063" lon="114.1989667">
      </trkpt>
      <trkpt lat="22.4353949" lon="114.1990701">
      </trkpt>
      <trkpt lat="22.4352932" lon="114.1991574">
      </trkpt>
      <trkpt lat="22.4351907" lon="114.199241">
      </trkpt>
      <trkpt lat="22.4350534" lon="114.1993424">
      </trkpt>
      <trkpt lat="22.4348806" lon="114.1994591">
      </trkpt>
      <trkpt lat="22.4347574" lon="114.1995345">
      </trkpt>
      <trkpt lat="22.4346043" lon="114.1996194">
      </trkpt>
      <trkpt lat="22.4344617" lon="114.1996904">
      </trkpt>
      <trkpt lat="22.4342939" lon="114.1997651">
      </trkpt>
      <trkpt lat="22.4341134" lon="114.1998355">
      </trkpt>
      <trkpt lat="22.4338892" lon="114.1999129">
      </trkpt>
      <trkpt lat="22.4337148" lon="114.1999662">
      </trkpt>
      <trkpt lat="22.4335099" lon="114.2000234">
      </trkpt>
      <trkpt lat="22.4325654" lon="114.2002762">
      </trkpt>
      <trkpt lat="22.4324343" lon="114.2003142">
      </trkpt>
      <trkpt lat="22.4323091" lon="114.200353">
      </trkpt>
      <trkpt lat="22.4321744" lon="114.2003965">
      </trkpt>
      <trkpt lat="22.4320364" lon="114.2004443">
      </trkpt>
      <trkpt lat="22.4318736" lon="114.2005049">
      </trkpt>
      <trkpt lat="22.4317386" lon="114.2005599">
      </trkpt>
      <trkpt lat="22.4315992" lon="114.2006202">
      </trkpt>
      <trkpt lat="22.4314419" lon="114.2006963">
      </trkpt>
      <trkpt lat="22.4313015" lon="114.2007681">
      </trkpt>
      <trkpt lat="22.4311698" lon="114.2008412">
      </trkpt>
      <trkpt lat="22.4310165" lon="114.2009301">
      </trkpt>
      <trkpt lat="22.4308547" lon="114.2010306">
      </trkpt>
      <trkpt lat="22.4306969" lon="114.2011374">
      </trkpt>
      <trkpt lat="22.4305508" lon="114.2012432">
      </trkpt>
      <trkpt lat="22.4304341" lon="114.2013332">
      </trkpt>
      <trkpt lat="22.4302908" lon="114.20145">
      </trkpt>
      <trkpt lat="22.430173" lon="114.2015513">
      </trkpt>
      <trkpt lat="22.4300348" lon="114.2016785">
      </trkpt>
      <trkpt lat="22.4299196" lon="114.2017901">
      </trkpt>
      <trkpt lat="22.4297617" lon="114.2019552">
      </trkpt>
      <trkpt lat="22.4296278" lon="114.2021035">
      </trkpt>
      <trkpt lat="22.4295058" lon="114.2022498">
      </trkpt>
      <trkpt lat="22.4293099" lon="114.2024982">
      </trkpt>
      <trkpt lat="22.4290462" lon="114.2028731">
      </trkpt>
      <trkpt lat="22.4283272" lon="114.2039394">
      </trkpt>
      <trkpt lat="22.4277961" lon="114.204733">
      </trkpt>
      <trkpt lat="22.427646" lon="114.2049567">
      </trkpt>
      <trkpt lat="22.4275259" lon="114.2051376">
      </trkpt>
      <trkpt lat="22.4273922" lon="114.2053436">
      </trkpt>
      <trkpt lat="22.427148" lon="114.2057407">
      </trkpt>
      <trkpt lat="22.4269624" lon="114.2060578">
      </trkpt>
      <trkpt lat="22.4263863" lon="114.2070225">
      </trkpt>
      <trkpt lat="22.4259365" lon="114.2077815">
      </trkpt>
      <trkpt lat="22.4257144" lon="114.2081444">
      </trkpt>
      <trkpt lat="22.425499" lon="114.2084817">
      </trkpt>
      <trkpt lat="22.4252881" lon="114.2088047">
      </trkpt>
      <trkpt lat="22.4250178" lon="114.2092163">
      </trkpt>
      <trkpt lat="22.4244227" lon="114.2101179">
      </trkpt>
      <trkpt lat="22.4242113" lon="114.2104334">
      </trkpt>
      <trkpt lat="22.4239855" lon="114.2107624">
      </trkpt>
      <trkpt lat="22.4238809" lon="114.2109135">
      </trkpt>
      <trkpt lat="22.4237626" lon="114.2110703">
      </trkpt>
      <trkpt lat="22.4236522" lon="114.2112079">
      </trkpt>
      <trkpt lat="22.4235245" lon="114.2113585">
      </trkpt>
      <trkpt lat="22.4234056" lon="114.2114882">
      </trkpt>
      <trkpt lat="22.4232654" lon="114.2116315">
      </trkpt>
      <trkpt lat="22.4230608" lon="114.2118309">
      </trkpt>
      <trkpt lat="22.4228533" lon="114.2120147">
      </trkpt>
      <trkpt lat="22.4226606" lon="114.2121702">
      </trkpt>
      <trkpt lat="22.4224613" lon="114.2123184">
      </trkpt>
      <trkpt lat="22.4222968" lon="114.2124287">
      </trkpt>
      <trkpt lat="22.4221207" lon="114.2125399">
      </trkpt>
      <trkpt lat="22.4218833" lon="114.2126736">
      </trkpt>
      <trkpt lat="22.4216828" lon="114.2127774">
      </trkpt>
      <trkpt lat="22.4214593" lon="114.2128806">
      </trkpt>
      <trkpt lat="22.4212504" lon="114.2129691">
      </trkpt>
      <trkpt lat="22.4210632" lon="114.2130393">
      </trkpt>
      <trkpt lat="22.4207886" lon="114.2131247">
      </trkpt>
      <trkpt lat="22.4205739" lon="114.2131833">
      </trkpt>
      <trkpt lat="22.4203405" lon="114.2132356">
      </trkpt>
      <trkpt lat="22.4201303" lon="114.2132766">
      </trkpt>
      <trkpt lat="22.4198391" lon="114.2133142">
      </trkpt>
      <trkpt lat="22.4196072" lon="114.2133356">
      </trkpt>
      <trkpt lat="22.4193631" lon="114.2133475">
      </trkpt>
      <trkpt lat="22.4191474" lon="114.2133514">
      </trkpt>
      <trkpt lat="22.419021" lon="114.2133494">
      </trkpt>
      <trkpt lat="22.4188643" lon="114.2133447">
      </trkpt>
      <trkpt lat="22.4186982" lon="114.2133319">
      </trkpt>
      <trkpt lat="22.418567" lon="114.213319">
      </trkpt>
      <trkpt lat="22.4184486" lon="114.2133038">
      </trkpt>
      <trkpt lat="22.4182302" lon="114.2132699">
      </trkpt>
      <trkpt lat="22.4181274" lon="114.2132496">
      </trkpt>
      <trkpt lat="22.4180457" lon="114.2132305">
      </trkpt>
      <trkpt lat="22.4179193" lon="114.2131992">
      </trkpt>
      <trkpt lat="22.4178106" lon="114.2131698">
      </trkpt>
      <trkpt lat="22.4176935" lon="114.2131331">
      </trkpt>
      <trkpt lat="22.4175847" lon="114.2130956">
      </trkpt>
      <trkpt lat="22.4174851" lon="114.2130568">
      </trkpt>
      <trkpt lat="22.4173739" lon="114.2130092">
      </trkpt>
      <trkpt lat="22.4172501" lon="114.2129515">
      </trkpt>
      <trkpt lat="22.4171531" lon="114.2129013">
      </trkpt>
      <trkpt lat="22.4169988" lon="114.2128136">
      </trkpt>
      <trkpt lat="22.4168413" lon="114.2127119">
      </trkpt>
      <trkpt lat="22.4166996" lon="114.212613">
      </trkpt>
      <trkpt lat="22.4165401" lon="114.2124872">
      </trkpt>
      <trkpt lat="22.4163629" lon="114.2123301">
      </trkpt>
      <trkpt lat="22.4162615" lon="114.2122339">
      </trkpt>
      <trkpt lat="22.4161402" lon="114.2121104">
      </trkpt>
      <trkpt lat="22.4159967" lon="114.2119545">
      </trkpt>
      <trkpt lat="22.4157163" lon="114.2116329">
      </trkpt>
      <trkpt lat="22.4153173" lon="114.2111739">
      </trkpt>
      <trkpt lat="22.4151866" lon="114.2110292">
      </trkpt>
      <trkpt lat="22.4150459" lon="114.2108864">
      </trkpt>
      <trkpt lat="22.4149472" lon="114.210796">
      </trkpt>
      <trkpt lat="22.4148513" lon="114.2107144">
      </trkpt>
      <trkpt lat="22.4147411" lon="114.2106281">
      </trkpt>
      <trkpt lat="22.4146349" lon="114.2105505">
      </trkpt>
      <trkpt lat="22.4144613" lon="114.2104387">
      </trkpt>
      <trkpt lat="22.4143506" lon="114.2103756">
      </trkpt>
      <trkpt lat="22.4142522" lon="114.2103262">
      </trkpt>
      <trkpt lat="22.4141204" lon="114.2102665">
      </trkpt>
      <trkpt lat="22.4139864" lon="114.2102104">
      </trkpt>
      <trkpt lat="22.4138034" lon="114.2101471">
      </trkpt>
      <trkpt lat="22.4136208" lon="114.2100974">
      </trkpt>
      <trkpt lat="22.413496" lon="114.2100723">
      </trkpt>
      <trkpt lat="22.4133852" lon="114.2100545">
      </trkpt>
      <trkpt lat="22.4132637" lon="114.2100395">
      </trkpt>
      <trkpt lat="22.4131509" lon="114.2100301">
      </trkpt>
      <trkpt lat="22.4129946" lon="114.2100236">
      </trkpt>
      <trkpt lat="22.4127965" lon="114.2100276">
      </trkpt>
      <trkpt lat="22.4126466" lon="114.21004">
      </trkpt>
      <trkpt lat="22.4124762" lon="114.2100647">
      </trkpt>
      <trkpt lat="22.4123076" lon="114.2100987">
      </trkpt>
      <trkpt lat="22.4121501" lon="114.2101383">
      </trkpt>
      <trkpt lat="22.4119636" lon="114.2101957">
      </trkpt>
      <trkpt lat="22.4117708" lon="114.210268">
      </trkpt>
      <trkpt lat="22.4114528" lon="114.2104125">
      </trkpt>
      <trkpt lat="22.4111348" lon="114.210557">
      </trkpt>
      <trkpt lat="22.4109565" lon="114.2106386">
      </trkpt>
      <trkpt lat="22.410738" lon="114.2107418">
      </trkpt>
      <trkpt lat="22.4104396" lon="114.2108756">
      </trkpt>
      <trkpt lat="22.4103097" lon="114.2109309">
      </trkpt>
      <trkpt lat="22.4101968" lon="114.210977">
      </trkpt>
      <trkpt lat="22.4100664" lon="114.211024">
      </trkpt>
      <trkpt lat="22.4099588" lon="114.211057">
      </trkpt>
      <trkpt lat="22.409829" lon="114.211094">
      </trkpt>
      <trkpt lat="22.4097059" lon="114.211121">
      </trkpt>
      <trkpt lat="22.4095139" lon="114.2111556">
      </trkpt>
      <trkpt lat="22.4094086" lon="114.2111676">
      </trkpt>
      <trkpt lat="22.4093047" lon="114.2111765">
      </trkpt>
      <trkpt lat="22.4090857" lon="114.2111847">
      </trkpt>
      <trkpt lat="22.4088962" lon="114.2111764">
      </trkpt>
      <trkpt lat="22.4087411" lon="114.2111608">
      </trkpt>
      <trkpt lat="22.4085745" lon="114.2111353">
      </trkpt>
      <trkpt lat="22.4083995" lon="114.2110979">
      </trkpt>
      <trkpt lat="22.4081634" lon="114.211028">
      </trkpt>
      <trkpt lat="22.4079955" lon="114.2109659">
      </trkpt>
      <trkpt lat="22.4078337" lon="114.2108954">
      </trkpt>
      <trkpt lat="22.4076584" lon="114.2108077">
      </trkpt>
      <trkpt lat="22.4075204" lon="114.2107275">
      </trkpt>
      <trkpt lat="22.407385" lon="114.2106377">
      </trkpt>
      <trkpt lat="22.4072452" lon="114.2105363">
      </trkpt>
      <trkpt lat="22.4071047" lon="114.210419">
      </trkpt>
      <trkpt lat="22.4069256" lon="114.2102461">
      </trkpt>
      <trkpt lat="22.4068019" lon="114.2101143">
      </trkpt>
      <trkpt lat="22.4067072" lon="114.2100019">
      </trkpt>
      <trkpt lat="22.4066168" lon="114.2098853">
      </trkpt>
      <trkpt lat="22.4065203" lon="114.2097473">
      </trkpt>
      <trkpt lat="22.4064326" lon="114.209612">
      </trkpt>
      <trkpt lat="22.4063769" lon="114.2095161">
      </trkpt>
      <trkpt lat="22.4063045" lon="114.2093831">
      </trkpt>
      <trkpt lat="22.4062358" lon="114.2092518">
      </trkpt>
      <trkpt lat="22.4061551" lon="114.2090905">
      </trkpt>
      <trkpt lat="22.4054063" lon="114.207561">
      </trkpt>
      <trkpt lat="22.4053383" lon="114.2074286">
      </trkpt>
      <trkpt lat="22.4052629" lon="114.2072896">
      </trkpt>
      <trkpt lat="22.4050441" lon="114.206902">
      </trkpt>
      <trkpt lat="22.4049746" lon="114.2067881">
      </trkpt>
      <trkpt lat="22.4048065" lon="114.20652">
      </trkpt>
      <trkpt lat="22.4044891" lon="114.2060436">
      </trkpt>
      <trkpt lat="22.4042904" lon="114.2057508">
      </trkpt>
      <trkpt lat="22.4039268" lon="114.2052022">
      </trkpt>
      <trkpt lat="22.4034838" lon="114.2045508">
      </trkpt>
      <trkpt lat="22.4033795" lon="114.2043932">
      </trkpt>
      <trkpt lat="22.4028233" lon="114.2035768">
      </trkpt>
      <trkpt lat="22.4026752" lon="114.2033663">
      </trkpt>
      <trkpt lat="22.4025053" lon="114.203143">
      </trkpt>
      <trkpt lat="22.4024069" lon="114.2030261">
      </trkpt>
      <trkpt lat="22.4022225" lon="114.2028211">
      </trkpt>
      <trkpt lat="22.4020187" lon="114.2026065">
      </trkpt>
      <trkpt lat="22.4019174" lon="114.2025067">
      </trkpt>
      <trkpt lat="22.4017225" lon="114.2023342">
      </trkpt>
      <trkpt lat="22.4015059" lon="114.202157">
      </trkpt>
      <trkpt lat="22.4012831" lon="114.2019854">
      </trkpt>
      <trkpt lat="22.4010382" lon="114.2018175">
      </trkpt>
      <trkpt lat="22.3988209" lon="114.2003899">
      </trkpt>
      <trkpt lat="22.3981299" lon="114.2000933">
      </trkpt>
      <trkpt lat="22.3977036" lon="114.1998781">
      </trkpt>
      <trkpt lat="22.3976411" lon="114.1998449">
      </trkpt>
      <trkpt lat="22.3975517" lon="114.1997863">
      </trkpt>
      <trkpt lat="22.3967207" lon="114.1992315">
      </trkpt>
      <trkpt lat="22.3964443" lon="114.1990648">
      </trkpt>
      <trkpt lat="22.396208" lon="114.1989193">
      </trkpt>
      <trkpt lat="22.3959205" lon="114.1987393">
      </trkpt>
      <trkpt lat="22.3956991" lon="114.1985973">
      </trkpt>
      <trkpt lat="22.3954607" lon="114.198445">
      </trkpt>
      <trkpt lat="22.3953371" lon="114.198366">
      </trkpt>
      <trkpt lat="22.3951633" lon="114.1982554">
      </trkpt>
      <trkpt lat="22.3949174" lon="114.1980976">
      </trkpt>
      <trkpt lat="22.3944039" lon="114.1977419">
      </trkpt>
      <trkpt lat="22.3942511" lon="114.1976338">
      </trkpt>
      <trkpt lat="22.394085" lon="114.1975175">
      </trkpt>
      <trkpt lat="22.393926" lon="114.1974037">
      </trkpt>
      <trkpt lat="22.3937858" lon="114.197308">
      </trkpt>
      <trkpt lat="22.3932403" lon="114.1969154">
      </trkpt>
      <trkpt lat="22.3928012" lon="114.1966133">
      </trkpt>
      <trkpt lat="22.3921046" lon="114.1961234">
      </trkpt>
      <trkpt lat="22.391732" lon="114.1958598">
      </trkpt>
      <trkpt lat="22.3915512" lon="114.1957264">
      </trkpt>
      <trkpt lat="22.3913494" lon="114.1955689">
      </trkpt>
      <trkpt lat="22.3911849" lon="114.1954335">
      </trkpt>
      <trkpt lat="22.3910295" lon="114.1952998">
      </trkpt>
      <trkpt lat="22.3908114" lon="114.1950991">
      </trkpt>
      <trkpt lat="22.3906052" lon="114.1948953">
      </trkpt>
      <trkpt lat="22.3904174" lon="114.1946976">
      </trkpt>
      <trkpt lat="22.3903495" lon="114.1946238">
      </trkpt>
      <trkpt lat="22.3902689" lon="114.1945306">
      </trkpt>
      <trkpt lat="22.3895604" lon="114.1936717">
      </trkpt>
      <trkpt lat="22.3895152" lon="114.1936199">
      </trkpt>
      <trkpt lat="22.3893628" lon="114.1934463">
      </trkpt>
      <trkpt lat="22.3892007" lon="114.1932669">
      </trkpt>
      <trkpt lat="22.3890408" lon="114.1930976">
      </trkpt>
      <trkpt lat="22.3888799" lon="114.19293">
      </trkpt>
      <trkpt lat="22.3869101" lon="114.1909366">
      </trkpt>
      <trkpt lat="22.3863969" lon="114.1904178">
      </trkpt>
      <trkpt lat="22.3861607" lon="114.1901851">
      </trkpt>
      <trkpt lat="22.3859133" lon="114.1899592">
      </trkpt>
      <trkpt lat="22.3856473" lon="114.1897354">
      </trkpt>
      <trkpt lat="22.3854121" lon="114.1895545">
      </trkpt>
      <trkpt lat="22.3851817" lon="114.18938">
      </trkpt>
      <trkpt lat="22.3850346" lon="114.189276">
      </trkpt>
      <trkpt lat="22.3846189" lon="114.1889672">
      </trkpt>
      <trkpt lat="22.38446" lon="114.1888483">
      </trkpt>
      <trkpt lat="22.3842739" lon="114.1887085">
      </trkpt>
      <trkpt lat="22.3838947" lon="114.1884324">
      </trkpt>
      <trkpt lat="22.3837138" lon="114.1882949">
      </trkpt>
      <trkpt lat="22.3836291" lon="114.1882315">
      </trkpt>
      <trkpt lat="22.3828402" lon="114.1876419">
      </trkpt>
      <trkpt lat="22.3813953" lon="114.1865947">
      </trkpt>
      <trkpt lat="22.3811334" lon="114.1864021">
      </trkpt>
      <trkpt lat="22.3809535" lon="114.186275">
      </trkpt>
      <trkpt lat="22.38077" lon="114.1861449">
      </trkpt>
      <trkpt lat="22.3805923" lon="114.1860257">
      </trkpt>
      <trkpt lat="22.3802832" lon="114.1858105">
      </trkpt>
      <trkpt lat="22.3798453" lon="114.1855104">
      </trkpt>
      <trkpt lat="22.3796714" lon="114.1853861">
      </trkpt>
      <trkpt lat="22.3795239" lon="114.1852658">
      </trkpt>
      <trkpt lat="22.3792646" lon="114.1850477">
      </trkpt>
      <trkpt lat="22.3790527" lon="114.1848543">
      </trkpt>
      <trkpt lat="22.3786995" lon="114.1845041">
      </trkpt>
      <trkpt lat="22.3786551" lon="114.1844633">
      </trkpt>
      <trkpt lat="22.3781131" lon="114.1839334">
      </trkpt>
      <trkpt lat="22.3775358" lon="114.1834722">
      </trkpt>
      <trkpt lat="22.3772879" lon="114.183287">
      </trkpt>
      <trkpt lat="22.3770719" lon="114.1831353">
      </trkpt>
      <trkpt lat="22.3766218" lon="114.1827873">
      </trkpt>
      <trkpt lat="22.3764297" lon="114.1826303">
      </trkpt>
      <trkpt lat="22.3763777" lon="114.182586">
      </trkpt>
      <trkpt lat="22.3760789" lon="114.1823371">
      </trkpt>
      <trkpt lat="22.3758071" lon="114.1820894">
      </trkpt>
      <trkpt lat="22.3754656" lon="114.1817283">
      </trkpt>
      <trkpt lat="22.3751732" lon="114.1813805">
      </trkpt>
      <trkpt lat="22.374952" lon="114.1810869">
      </trkpt>
      <trkpt lat="22.3748799" lon="114.1809871">
      </trkpt>
      <trkpt lat="22.3745435" lon="114.1804989">
      </trkpt>
      <trkpt lat="22.3742562" lon="114.1800918">
      </trkpt>
      <trkpt lat="22.3739511" lon="114.1796678">
      </trkpt>
      <trkpt lat="22.3731177" lon="114.1785062">
      </trkpt>
      <trkpt lat="22.3729743" lon="114.1783065">
      </trkpt>
      <trkpt lat="22.3722976" lon="114.1773595">
      </trkpt>
      <trkpt lat="22.3722333" lon="114.1772676">
      </trkpt>
      <trkpt lat="22.3721712" lon="114.1771916">
      </trkpt>
      <trkpt lat="22.3714972" lon="114.1762473">
      </trkpt>
      <trkpt lat="22.3712709" lon="114.1759307">
      </trkpt>
      <trkpt lat="22.3707228" lon="114.1751603">
      </trkpt>
      <trkpt lat="22.3705422" lon="114.1749131">
      </trkpt>
      <trkpt lat="22.3704435" lon="114.1747802">
      </trkpt>
      <trkpt lat="22.3702912" lon="114.1745815">
      </trkpt>
      <trkpt lat="22.3701238" lon="114.1743801">
      </trkpt>
      <trkpt lat="22.3699964" lon="114.1742389">
      </trkpt>
      <trkpt lat="22.369831" lon="114.1740614">
      </trkpt>
      <trkpt lat="22.3696135" lon="114.1738481">
      </trkpt>
      <trkpt lat="22.3693954" lon="114.1736498">
      </trkpt>
      <trkpt lat="22.3692857" lon="114.1735561">
      </trkpt>
      <trkpt lat="22.3691738" lon="114.1734651">
      </trkpt>
      <trkpt lat="22.3690256" lon="114.1733521">
      </trkpt>
      <trkpt lat="22.368875" lon="114.1732437">
      </trkpt>
      <trkpt lat="22.3687228" lon="114.1731372">
      </trkpt>
      <trkpt lat="22.3685684" lon="114.1730355">
      </trkpt>
      <trkpt lat="22.3680115" lon="114.1726932">
      </trkpt>
      <trkpt lat="22.3676906" lon="114.1724965">
      </trkpt>
      <trkpt lat="22.3674955" lon="114.172377">
      </trkpt>
      <trkpt lat="22.3669427" lon="114.172043">
      </trkpt>
      <trkpt lat="22.3659081" lon="114.1714256">
      </trkpt>
      <trkpt lat="22.3656176" lon="114.1712475">
      </trkpt>
      <trkpt lat="22.365193" lon="114.1709873">
      </trkpt>
      <trkpt lat="22.36497" lon="114.1708531">
      </trkpt>
      <trkpt lat="22.3647196" lon="114.1707129">
      </trkpt>
      <trkpt lat="22.3645834" lon="114.1706408">
      </trkpt>
      <trkpt lat="22.3644648" lon="114.1705819">
      </trkpt>
      <trkpt lat="22.3642647" lon="114.170486">
      </trkpt>
      <trkpt lat="22.3640856" lon="114.1704108">
      </trkpt>
      <trkpt lat="22.363842" lon="114.1703183">
      </trkpt>
      <trkpt lat="22.3636128" lon="114.1702424">
      </trkpt>
      <trkpt lat="22.3634665" lon="114.170201">
      </trkpt>
      <trkpt lat="22.3632063" lon="114.1701339">
      </trkpt>
      <trkpt lat="22.363029" lon="114.1700969">
      </trkpt>
      <trkpt lat="22.3628065" lon="114.1700564">
      </trkpt>
      <trkpt lat="22.362665" lon="114.1700359">
      </trkpt>
      <trkpt lat="22.3625159" lon="114.1700187">
      </trkpt>
      <trkpt lat="22.3622997" lon="114.1699988">
      </trkpt>
      <trkpt lat="22.3621261" lon="114.1699898">
      </trkpt>
      <trkpt lat="22.3618914" lon="114.1699856">
      </trkpt>
      <trkpt lat="22.3616851" lon="114.1699895">
      </trkpt>
      <trkpt lat="22.3614711" lon="114.169999">
      </trkpt>
      <trkpt lat="22.3612523" lon="114.1700169">
      </trkpt>
      <trkpt lat="22.3610408" lon="114.1700426">
      </trkpt>
      <trkpt lat="22.3605782" lon="114.1701203">
      </trkpt>
      <trkpt lat="22.3415292" lon="114.1735526">
      </trkpt>
      <trkpt lat="22.340798" lon="114.1737843">
      </trkpt>
      <trkpt lat="22.3406202" lon="114.1738481">
      </trkpt>
      <trkpt lat="22.3404995" lon="114.1738959">
      </trkpt>
      <trkpt lat="22.3403771" lon="114.1739481">
      </trkpt>
      <trkpt lat="22.3402313" lon="114.1740151">
      </trkpt>
      <trkpt lat="22.339708" lon="114.1743045">
      </trkpt>
      <trkpt lat="22.3394193" lon="114.1744692">
      </trkpt>
      <trkpt lat="22.3390288" lon="114.1746993">
      </trkpt>
      <trkpt lat="22.3388993" lon="114.1747756">
      </trkpt>
      <trkpt lat="22.3373733" lon="114.1756749">
      </trkpt>
      <trkpt lat="22.3372351" lon="114.1757539">
      </trkpt>
      <trkpt lat="22.3370045" lon="114.1758821">
      </trkpt>
      <trkpt lat="22.3367895" lon="114.175994">
      </trkpt>
      <trkpt lat="22.3365656" lon="114.1761022">
      </trkpt>
      <trkpt lat="22.336308" lon="114.176217">
      </trkpt>
      <trkpt lat="22.3360206" lon="114.1763324">
      </trkpt>
      <trkpt lat="22.3358578" lon="114.1763926">
      </trkpt>
      <trkpt lat="22.3356805" lon="114.176453">
      </trkpt>
      <trkpt lat="22.3355331" lon="114.1764993">
      </trkpt>
      <trkpt lat="22.3353283" lon="114.1765597">
      </trkpt>
      <trkpt lat="22.3351259" lon="114.1766144">
      </trkpt>
      <trkpt lat="22.3348872" lon="114.1766711">
      </trkpt>
      <trkpt lat="22.3347433" lon="114.1767015">
      </trkpt>
      <trkpt lat="22.3345878" lon="114.1767316">
      </trkpt>
      <trkpt lat="22.3343541" lon="114.1767701">
      </trkpt>
      <trkpt lat="22.3341902" lon="114.1767942">
      </trkpt>
      <trkpt lat="22.3339875" lon="114.176818">
      </trkpt>
      <trkpt lat="22.3338023" lon="114.1768355">
      </trkpt>
      <trkpt lat="22.333646" lon="114.1768464">
      </trkpt>
      <trkpt lat="22.3334238" lon="114.176857">
      </trkpt>
      <trkpt lat="22.3332483" lon="114.1768614">
      </trkpt>
      <trkpt lat="22.3330843" lon="114.1768612">
      </trkpt>
      <trkpt lat="22.3329324" lon="114.176859">
      </trkpt>
      <trkpt lat="22.3326458" lon="114.1768466">
      </trkpt>
      <trkpt lat="22.332449" lon="114.1768313">
      </trkpt>
      <trkpt lat="22.3323048" lon="114.1768183">
      </trkpt>
      <trkpt lat="22.332214" lon="114.1768071">
      </trkpt>
      <trkpt lat="22.3320539" lon="114.176787">
      </trkpt>
      <trkpt lat="22.3318467" lon="114.1767557">
      </trkpt>
      <trkpt lat="22.3316334" lon="114.1767175">
      </trkpt>
      <trkpt lat="22.3314169" lon="114.1766728">
      </trkpt>
      <trkpt lat="22.3311343" lon="114.176605">
      </trkpt>
      <trkpt lat="22.3309132" lon="114.1765455">
      </trkpt>
      <trkpt lat="22.3306746" lon="114.1764734">
      </trkpt>
      <trkpt lat="22.330414" lon="114.1763836">
      </trkpt>
      <trkpt lat="22.3300735" lon="114.1762513">
      </trkpt>
      <trkpt lat="22.3298257" lon="114.1761484">
      </trkpt>
      <trkpt lat="22.3297369" lon="114.1761067">
      </trkpt>
      <trkpt lat="22.3294976" lon="114.1759889">
      </trkpt>
      <trkpt lat="22.329295" lon="114.1758865">
      </trkpt>
      <trkpt lat="22.3283959" lon="114.175416">
      </trkpt>
      <trkpt lat="22.3276413" lon="114.1750167">
      </trkpt>
      <trkpt lat="22.3267139" lon="114.1745285">
      </trkpt>
      <trkpt lat="22.3264737" lon="114.1744068">
      </trkpt>
      <trkpt lat="22.32609" lon="114.1742012">
      </trkpt>
      <trkpt lat="22.3258189" lon="114.1740559">
      </trkpt>
      <trkpt lat="22.3251595" lon="114.1737115">
      </trkpt>
      <trkpt lat="22.3247382" lon="114.173486">
      </trkpt>
      <trkpt lat="22.3243196" lon="114.1732753">
      </trkpt>
      <trkpt lat="22.3240231" lon="114.1731285">
      </trkpt>
      <trkpt lat="22.3238695" lon="114.173058">
      </trkpt>
      <trkpt lat="22.3237103" lon="114.17299">
      </trkpt>
      <trkpt lat="22.323523" lon="114.1729169">
      </trkpt>
      <trkpt lat="22.3232874" lon="114.1728423">
      </trkpt>
      <trkpt lat="22.3230915" lon="114.1727907">
      </trkpt>
      <trkpt lat="22.3228865" lon="114.1727403">
      </trkpt>
      <trkpt lat="22.3226719" lon="114.1726965">
      </trkpt>
      <trkpt lat="22.3224368" lon="114.1726558">
      </trkpt>
      <trkpt lat="22.3222243" lon="114.1726272">
      </trkpt>
      <trkpt lat="22.3220903" lon="114.1726126">
      </trkpt>
      <trkpt lat="22.3219527" lon="114.1726048">
      </trkpt>
      <trkpt lat="22.3217757" lon="114.1725995">
      </trkpt>
      <trkpt lat="22.3216029" lon="114.1726033">
      </trkpt>
      <trkpt lat="22.321399" lon="114.1726179">
      </trkpt>
      <trkpt lat="22.3211941" lon="114.1726455">
      </trkpt>
      <trkpt lat="22.3209924" lon="114.1726781">
      </trkpt>
      <trkpt lat="22.3208127" lon="114.172716">
      </trkpt>
      <trkpt lat="22.3206075" lon="114.1727626">
      </trkpt>
      <trkpt lat="22.320398" lon="114.172821">
      </trkpt>
      <trkpt lat="22.3201892" lon="114.1728856">
      </trkpt>
      <trkpt lat="22.3197803" lon="114.1730435">
      </trkpt>
      <trkpt lat="22.3172732" lon="114.1740848">
      </trkpt>
      <trkpt lat="22.3170749" lon="114.1741685">
      </trkpt>
      <trkpt lat="22.3167174" lon="114.1743159">
      </trkpt>
      <trkpt lat="22.3155046" lon="114.1748221">
      </trkpt>
      <trkpt lat="22.3143603" lon="114.1752884">
      </trkpt>
      <trkpt lat="22.3141542" lon="114.1753744">
      </trkpt>
      <trkpt lat="22.3137934" lon="114.1755452">
      </trkpt>
      <trkpt lat="22.3137258" lon="114.1755789">
      </trkpt>
      <trkpt lat="22.3135397" lon="114.1756746">
      </trkpt>
      <trkpt lat="22.3133568" lon="114.1757806">
      </trkpt>
      <trkpt lat="22.3131554" lon="114.1759044">
      </trkpt>
      <trkpt lat="22.3129767" lon="114.1760196">
      </trkpt>
      <trkpt lat="22.3128888" lon="114.1760858">
      </trkpt>
      <trkpt lat="22.3127567" lon="114.1761731">
      </trkpt>
      <trkpt lat="22.3126282" lon="114.1762703">
      </trkpt>
      <trkpt lat="22.3124535" lon="114.176403">
      </trkpt>
      <trkpt lat="22.3123733" lon="114.1764675">
      </trkpt>
      <trkpt lat="22.3123137" lon="114.1765154">
      </trkpt>
      <trkpt lat="22.3121863" lon="114.1766334">
      </trkpt>
      <trkpt lat="22.3119731" lon="114.1768395">
      </trkpt>
      <trkpt lat="22.311646" lon="114.1771615">
      </trkpt>
      <trkpt lat="22.3104194" lon="114.1783653">
      </trkpt>
      <trkpt lat="22.3100146" lon="114.1787804">
      </trkpt>
      <trkpt lat="22.3098934" lon="114.178911">
      </trkpt>
      <trkpt lat="22.3097459" lon="114.1790743">
      </trkpt>
      <trkpt lat="22.3096347" lon="114.1792044">
      </trkpt>
      <trkpt lat="22.3094807" lon="114.1793873">
      </trkpt>
      <trkpt lat="22.3092525" lon="114.179648">
      </trkpt>
      <trkpt lat="22.3090782" lon="114.1798487">
      </trkpt>
      <trkpt lat="22.3090167" lon="114.1799126">
      </trkpt>
      <trkpt lat="22.3086382" lon="114.1803119">
      </trkpt>
      <trkpt lat="22.3081722" lon="114.1808035">
      </trkpt>
      <trkpt lat="22.3080761" lon="114.1809049">
      </trkpt>
      <trkpt lat="22.3079064" lon="114.1810745">
      </trkpt>
      <trkpt lat="22.3076453" lon="114.1813204">
      </trkpt>
      <trkpt lat="22.3075022" lon="114.1814414">
      </trkpt>
      <trkpt lat="22.307382" lon="114.1815332">
      </trkpt>
      <trkpt lat="22.3072948" lon="114.1815894">
      </trkpt>
      <trkpt lat="22.3071588" lon="114.1816621">
      </trkpt>
      <trkpt lat="22.3070399" lon="114.1817157">
      </trkpt>
      <trkpt lat="22.3069326" lon="114.1817584">
      </trkpt>
      <trkpt lat="22.3067501" lon="114.1818259">
      </trkpt>
      <trkpt lat="22.3064783" lon="114.1818988">
      </trkpt>
      <trkpt lat="22.3061607" lon="114.1819757">
      </trkpt>
      <trkpt lat="22.3058294" lon="114.1820535">
      </trkpt>
      <trkpt lat="22.3057092" lon="114.1820855">
      </trkpt>
      <trkpt lat="22.3053053" lon="114.1821692">
      </trkpt>
      <trkpt lat="22.3049996" lon="114.1822465">
      </trkpt>
      <trkpt lat="22.3047985" lon="114.1823058">
      </trkpt>
      <trkpt lat="22.3046297" lon="114.1823499">
      </trkpt>
      <trkpt lat="22.3044216" lon="114.1823884">
      </trkpt>
      <trkpt lat="22.3042135" lon="114.1824142">
      </trkpt>
      <trkpt lat="22.3040747" lon="114.1824228">
      </trkpt>
      <trkpt lat="22.3039317" lon="114.1824246">
      </trkpt>
      <trkpt lat="22.3036035" lon="114.182418">
      </trkpt>
    </trkseg>
  </trk>
</gpx>