<?xml version="1.0" encoding="UTF-8"?>
<gpx xmlns="http://www.topografix.com/GPX/1/1" xmlns:xsi="http://www.w3.org/2001/XMLSchema-instance" xsi:schemaLocation="http://www.topografix.com/GPX/1/1 http://www.topografix.com/GPX/1/1/gpx.xsd" version="1.1" creator="gpx.py -- https://github.com/tkrajina/gpxpy">
  <wpt lat="31.2526732" lon="121.4475921">
    <name>Shanghai</name>
  </wpt>
  <wpt lat="31.36963" lon="120.9510083">
    <name>Kunshan Chengshiguangchang</name>
  </wpt>
  <wpt lat="31.3320439" lon="120.6100935">
    <name>Suzhou</name>
  </wpt>
  <trk>
    <name>Xangai - Suzhou (Vies regionals)</name>
    <trkseg>
      <trkpt lat="31.2526732" lon="121.4475921">
      </trkpt>
      <trkpt lat="31.2531172" lon="121.4470218">
      </trkpt>
      <trkpt lat="31.2534588" lon="121.4465377">
      </trkpt>
      <trkpt lat="31.2536897" lon="121.4462099">
      </trkpt>
      <trkpt lat="31.2537717" lon="121.4460756">
      </trkpt>
      <trkpt lat="31.2540316" lon="121.4456018">
      </trkpt>
      <trkpt lat="31.2543554" lon="121.4450918">
      </trkpt>
      <trkpt lat="31.2545147" lon="121.444813">
      </trkpt>
      <trkpt lat="31.254574" lon="121.4447136">
      </trkpt>
      <trkpt lat="31.2546809" lon="121.4445059">
      </trkpt>
      <trkpt lat="31.2548862" lon="121.4441104">
      </trkpt>
      <trkpt lat="31.2549566" lon="121.4439316">
      </trkpt>
      <trkpt lat="31.25605" lon="121.4411548">
      </trkpt>
      <trkpt lat="31.2563726" lon="121.4403356">
      </trkpt>
      <trkpt lat="31.2569968" lon="121.4386658">
      </trkpt>
      <trkpt lat="31.2574204" lon="121.4372918">
      </trkpt>
      <trkpt lat="31.2578103" lon="121.4354584">
      </trkpt>
      <trkpt lat="31.2587562" lon="121.4304406">
      </trkpt>
      <trkpt lat="31.2599015" lon="121.4244047">
      </trkpt>
      <trkpt lat="31.2608685" lon="121.4193333">
      </trkpt>
      <trkpt lat="31.2619941" lon="121.4133836">
      </trkpt>
      <trkpt lat="31.2627615" lon="121.4094024">
      </trkpt>
      <trkpt lat="31.2628766" lon="121.4087969">
      </trkpt>
      <trkpt lat="31.2629653" lon="121.4082994">
      </trkpt>
      <trkpt lat="31.2630383" lon="121.4078897">
      </trkpt>
      <trkpt lat="31.2630865" lon="121.4076456">
      </trkpt>
      <trkpt lat="31.263153" lon="121.4072339">
      </trkpt>
      <trkpt lat="31.2632454" lon="121.406764">
      </trkpt>
      <trkpt lat="31.2633739" lon="121.4061089">
      </trkpt>
      <trkpt lat="31.2636166" lon="121.4047424">
      </trkpt>
      <trkpt lat="31.2638462" lon="121.4033648">
      </trkpt>
      <trkpt lat="31.2639537" lon="121.4026711">
      </trkpt>
      <trkpt lat="31.2640651" lon="121.4020169">
      </trkpt>
      <trkpt lat="31.264301" lon="121.4006925">
      </trkpt>
      <trkpt lat="31.2652764" lon="121.3955314">
      </trkpt>
      <trkpt lat="31.2657007" lon="121.3935305">
      </trkpt>
      <trkpt lat="31.2659652" lon="121.3922086">
      </trkpt>
      <trkpt lat="31.2659976" lon="121.3920529">
      </trkpt>
      <trkpt lat="31.2660742" lon="121.3916604">
      </trkpt>
      <trkpt lat="31.266375" lon="121.3901202">
      </trkpt>
      <trkpt lat="31.2665164" lon="121.3893181">
      </trkpt>
      <trkpt lat="31.26668" lon="121.388494">
      </trkpt>
      <trkpt lat="31.2667962" lon="121.3879089">
      </trkpt>
      <trkpt lat="31.2668042" lon="121.3878679">
      </trkpt>
      <trkpt lat="31.2669105" lon="121.3873263">
      </trkpt>
      <trkpt lat="31.268175" lon="121.3806921">
      </trkpt>
      <trkpt lat="31.269871" lon="121.3722396">
      </trkpt>
      <trkpt lat="31.2699783" lon="121.3717078">
      </trkpt>
      <trkpt lat="31.2707518" lon="121.3676268">
      </trkpt>
      <trkpt lat="31.2724444" lon="121.3586649">
      </trkpt>
      <trkpt lat="31.2725691" lon="121.3580047">
      </trkpt>
      <trkpt lat="31.273086" lon="121.3552677">
      </trkpt>
      <trkpt lat="31.2741324" lon="121.3497124">
      </trkpt>
      <trkpt lat="31.2742425" lon="121.3491574">
      </trkpt>
      <trkpt lat="31.2751006" lon="121.3447218">
      </trkpt>
      <trkpt lat="31.2752396" lon="121.3439476">
      </trkpt>
      <trkpt lat="31.2759108" lon="121.3403667">
      </trkpt>
      <trkpt lat="31.279501" lon="121.3213817">
      </trkpt>
      <trkpt lat="31.28034" lon="121.3169227">
      </trkpt>
      <trkpt lat="31.2810739" lon="121.3129678">
      </trkpt>
      <trkpt lat="31.281987" lon="121.3081253">
      </trkpt>
      <trkpt lat="31.2846662" lon="121.2939833">
      </trkpt>
      <trkpt lat="31.2854701" lon="121.2897143">
      </trkpt>
      <trkpt lat="31.2855488" lon="121.2892961">
      </trkpt>
      <trkpt lat="31.2856458" lon="121.2887811">
      </trkpt>
      <trkpt lat="31.2857628" lon="121.2881593">
      </trkpt>
      <trkpt lat="31.2860627" lon="121.2865662">
      </trkpt>
      <trkpt lat="31.286157" lon="121.2860637">
      </trkpt>
      <trkpt lat="31.2877969" lon="121.2773478">
      </trkpt>
      <trkpt lat="31.2878532" lon="121.2770486">
      </trkpt>
      <trkpt lat="31.2930682" lon="121.2494557">
      </trkpt>
      <trkpt lat="31.2931323" lon="121.2490946">
      </trkpt>
      <trkpt lat="31.2937011" lon="121.2460358">
      </trkpt>
      <trkpt lat="31.2939177" lon="121.2448749">
      </trkpt>
      <trkpt lat="31.293983" lon="121.2445408">
      </trkpt>
      <trkpt lat="31.2941533" lon="121.2436359">
      </trkpt>
      <trkpt lat="31.2945955" lon="121.2412787">
      </trkpt>
      <trkpt lat="31.2974215" lon="121.2262685">
      </trkpt>
      <trkpt lat="31.2975487" lon="121.2256116">
      </trkpt>
      <trkpt lat="31.2977143" lon="121.2247059">
      </trkpt>
      <trkpt lat="31.297775" lon="121.2243976">
      </trkpt>
      <trkpt lat="31.2977978" lon="121.2242645">
      </trkpt>
      <trkpt lat="31.2979653" lon="121.2233831">
      </trkpt>
      <trkpt lat="31.2989472" lon="121.2181809">
      </trkpt>
      <trkpt lat="31.2990381" lon="121.217701">
      </trkpt>
      <trkpt lat="31.3001169" lon="121.2119573">
      </trkpt>
      <trkpt lat="31.3003577" lon="121.2105813">
      </trkpt>
      <trkpt lat="31.3009062" lon="121.2072487">
      </trkpt>
      <trkpt lat="31.3012512" lon="121.2052507">
      </trkpt>
      <trkpt lat="31.301828" lon="121.2020629">
      </trkpt>
      <trkpt lat="31.3020905" lon="121.2006751">
      </trkpt>
      <trkpt lat="31.3025719" lon="121.198107">
      </trkpt>
      <trkpt lat="31.3029472" lon="121.1961863">
      </trkpt>
      <trkpt lat="31.3036816" lon="121.1928072">
      </trkpt>
      <trkpt lat="31.3040264" lon="121.1911194">
      </trkpt>
      <trkpt lat="31.304363" lon="121.1893692">
      </trkpt>
      <trkpt lat="31.3048706" lon="121.1866339">
      </trkpt>
      <trkpt lat="31.3049344" lon="121.1862785">
      </trkpt>
      <trkpt lat="31.3053112" lon="121.1842575">
      </trkpt>
      <trkpt lat="31.3058806" lon="121.1812159">
      </trkpt>
      <trkpt lat="31.3075216" lon="121.1724505">
      </trkpt>
      <trkpt lat="31.3081739" lon="121.1689665">
      </trkpt>
      <trkpt lat="31.3082765" lon="121.1683962">
      </trkpt>
      <trkpt lat="31.3083185" lon="121.1681689">
      </trkpt>
      <trkpt lat="31.3088287" lon="121.1655026">
      </trkpt>
      <trkpt lat="31.3090356" lon="121.1645224">
      </trkpt>
      <trkpt lat="31.3092279" lon="121.1637139">
      </trkpt>
      <trkpt lat="31.3094694" lon="121.1628283">
      </trkpt>
      <trkpt lat="31.3096855" lon="121.1620787">
      </trkpt>
      <trkpt lat="31.3103614" lon="121.1599436">
      </trkpt>
      <trkpt lat="31.3105771" lon="121.1592676">
      </trkpt>
      <trkpt lat="31.3125155" lon="121.1531487">
      </trkpt>
      <trkpt lat="31.3125791" lon="121.1529393">
      </trkpt>
      <trkpt lat="31.3147856" lon="121.1459842">
      </trkpt>
      <trkpt lat="31.3148991" lon="121.1455974">
      </trkpt>
      <trkpt lat="31.3163264" lon="121.1411854">
      </trkpt>
      <trkpt lat="31.3164316" lon="121.1408876">
      </trkpt>
      <trkpt lat="31.3186962" lon="121.1337556">
      </trkpt>
      <trkpt lat="31.3187873" lon="121.1334688">
      </trkpt>
      <trkpt lat="31.3202984" lon="121.1287099">
      </trkpt>
      <trkpt lat="31.3217414" lon="121.1241654">
      </trkpt>
      <trkpt lat="31.3218096" lon="121.1239508">
      </trkpt>
      <trkpt lat="31.3281536" lon="121.1037383">
      </trkpt>
      <trkpt lat="31.3282992" lon="121.1033105">
      </trkpt>
      <trkpt lat="31.3424833" lon="121.0585611">
      </trkpt>
      <trkpt lat="31.3425906" lon="121.0582251">
      </trkpt>
      <trkpt lat="31.3429359" lon="121.0571204">
      </trkpt>
      <trkpt lat="31.3436031" lon="121.0549859">
      </trkpt>
      <trkpt lat="31.3438689" lon="121.0540854">
      </trkpt>
      <trkpt lat="31.3439951" lon="121.0536087">
      </trkpt>
      <trkpt lat="31.3441677" lon="121.0529304">
      </trkpt>
      <trkpt lat="31.3444069" lon="121.0518788">
      </trkpt>
      <trkpt lat="31.344617" lon="121.0508087">
      </trkpt>
      <trkpt lat="31.3448252" lon="121.0495344">
      </trkpt>
      <trkpt lat="31.3452692" lon="121.0466527">
      </trkpt>
      <trkpt lat="31.3456719" lon="121.0440641">
      </trkpt>
      <trkpt lat="31.3458516" lon="121.0429087">
      </trkpt>
      <trkpt lat="31.3466933" lon="121.0374711">
      </trkpt>
      <trkpt lat="31.346751" lon="121.0370983">
      </trkpt>
      <trkpt lat="31.350882" lon="121.0103377">
      </trkpt>
      <trkpt lat="31.3513194" lon="121.0072981">
      </trkpt>
      <trkpt lat="31.3514171" lon="121.0065159">
      </trkpt>
      <trkpt lat="31.3514728" lon="121.0060056">
      </trkpt>
      <trkpt lat="31.3521565" lon="121.0004472">
      </trkpt>
      <trkpt lat="31.3531981" lon="120.9938766">
      </trkpt>
      <trkpt lat="31.35384" lon="120.9897619">
      </trkpt>
      <trkpt lat="31.3546905" lon="120.9845811">
      </trkpt>
      <trkpt lat="31.3548411" lon="120.9835224">
      </trkpt>
      <trkpt lat="31.3553418" lon="120.980687">
      </trkpt>
      <trkpt lat="31.3558415" lon="120.9784458">
      </trkpt>
      <trkpt lat="31.3564843" lon="120.9762747">
      </trkpt>
      <trkpt lat="31.3569357" lon="120.9750749">
      </trkpt>
      <trkpt lat="31.3575057" lon="120.9736775">
      </trkpt>
      <trkpt lat="31.3577428" lon="120.9730676">
      </trkpt>
      <trkpt lat="31.358149" lon="120.9721709">
      </trkpt>
      <trkpt lat="31.3583055" lon="120.971805">
      </trkpt>
      <trkpt lat="31.3586899" lon="120.9709168">
      </trkpt>
      <trkpt lat="31.3598754" lon="120.9681458">
      </trkpt>
      <trkpt lat="31.3609543" lon="120.9657569">
      </trkpt>
      <trkpt lat="31.3614105" lon="120.9648583">
      </trkpt>
      <trkpt lat="31.3616664" lon="120.9644306">
      </trkpt>
      <trkpt lat="31.3619991" lon="120.9639965">
      </trkpt>
      <trkpt lat="31.3626554" lon="120.9628412">
      </trkpt>
      <trkpt lat="31.363077" lon="120.9621187">
      </trkpt>
      <trkpt lat="31.3631685" lon="120.9619676">
      </trkpt>
      <trkpt lat="31.3638928" lon="120.9607731">
      </trkpt>
      <trkpt lat="31.3644476" lon="120.9598052">
      </trkpt>
      <trkpt lat="31.3650316" lon="120.9588262">
      </trkpt>
      <trkpt lat="31.366202" lon="120.9569085">
      </trkpt>
      <trkpt lat="31.3688129" lon="120.9526528">
      </trkpt>
      <trkpt lat="31.3690275" lon="120.9522752">
      </trkpt>
      <trkpt lat="31.3692352" lon="120.9518702">
      </trkpt>
      <trkpt lat="31.3694203" lon="120.9514889">
      </trkpt>
      <trkpt lat="31.3695114" lon="120.9512888">
      </trkpt>
      <trkpt lat="31.36963" lon="120.9510083">
      </trkpt>
      <trkpt lat="31.3696624" lon="120.9510264">
      </trkpt>
      <trkpt lat="31.3697952" lon="120.9506867">
      </trkpt>
      <trkpt lat="31.3704327" lon="120.9488365">
      </trkpt>
      <trkpt lat="31.3704918" lon="120.948665">
      </trkpt>
      <trkpt lat="31.3707581" lon="120.9478918">
      </trkpt>
      <trkpt lat="31.3709136" lon="120.9474406">
      </trkpt>
      <trkpt lat="31.3713709" lon="120.9459677">
      </trkpt>
      <trkpt lat="31.3714695" lon="120.9456079">
      </trkpt>
      <trkpt lat="31.3715506" lon="120.9452744">
      </trkpt>
      <trkpt lat="31.371609" lon="120.9450048">
      </trkpt>
      <trkpt lat="31.3717648" lon="120.944176">
      </trkpt>
      <trkpt lat="31.371813" lon="120.9438658">
      </trkpt>
      <trkpt lat="31.3718472" lon="120.9436114">
      </trkpt>
      <trkpt lat="31.3718724" lon="120.9433405">
      </trkpt>
      <trkpt lat="31.3718976" lon="120.9429717">
      </trkpt>
      <trkpt lat="31.3719136" lon="120.9426016">
      </trkpt>
      <trkpt lat="31.3719239" lon="120.9420062">
      </trkpt>
      <trkpt lat="31.3719225" lon="120.9415394">
      </trkpt>
      <trkpt lat="31.3719126" lon="120.941185">
      </trkpt>
      <trkpt lat="31.3719056" lon="120.9409748">
      </trkpt>
      <trkpt lat="31.3718999" lon="120.9408682">
      </trkpt>
      <trkpt lat="31.3718924" lon="120.9407736">
      </trkpt>
      <trkpt lat="31.3717373" lon="120.9391147">
      </trkpt>
      <trkpt lat="31.3716743" lon="120.9384401">
      </trkpt>
      <trkpt lat="31.3716182" lon="120.9377629">
      </trkpt>
      <trkpt lat="31.3715707" lon="120.9370735">
      </trkpt>
      <trkpt lat="31.37153" lon="120.9363909">
      </trkpt>
      <trkpt lat="31.3714031" lon="120.934344">
      </trkpt>
      <trkpt lat="31.3708798" lon="120.9238177">
      </trkpt>
      <trkpt lat="31.370684" lon="120.9200548">
      </trkpt>
      <trkpt lat="31.3704641" lon="120.9158438">
      </trkpt>
      <trkpt lat="31.3702546" lon="120.9116149">
      </trkpt>
      <trkpt lat="31.3700679" lon="120.9084033">
      </trkpt>
      <trkpt lat="31.3698962" lon="120.904888">
      </trkpt>
      <trkpt lat="31.3698207" lon="120.9033095">
      </trkpt>
      <trkpt lat="31.3696362" lon="120.8997301">
      </trkpt>
      <trkpt lat="31.3694577" lon="120.896155">
      </trkpt>
      <trkpt lat="31.3694529" lon="120.8959834">
      </trkpt>
      <trkpt lat="31.3694494" lon="120.8957836">
      </trkpt>
      <trkpt lat="31.369446" lon="120.8953893">
      </trkpt>
      <trkpt lat="31.3694586" lon="120.8949374">
      </trkpt>
      <trkpt lat="31.3694815" lon="120.8944961">
      </trkpt>
      <trkpt lat="31.3695205" lon="120.8940029">
      </trkpt>
      <trkpt lat="31.3695571" lon="120.8936821">
      </trkpt>
      <trkpt lat="31.3696006" lon="120.8933428">
      </trkpt>
      <trkpt lat="31.3696453" lon="120.8930249">
      </trkpt>
      <trkpt lat="31.3696918" lon="120.8927235">
      </trkpt>
      <trkpt lat="31.3698067" lon="120.8921733">
      </trkpt>
      <trkpt lat="31.3698708" lon="120.8919132">
      </trkpt>
      <trkpt lat="31.3699345" lon="120.8916715">
      </trkpt>
      <trkpt lat="31.3700343" lon="120.8913234">
      </trkpt>
      <trkpt lat="31.370164" lon="120.8909368">
      </trkpt>
      <trkpt lat="31.3702854" lon="120.8905831">
      </trkpt>
      <trkpt lat="31.3704937" lon="120.8900517">
      </trkpt>
      <trkpt lat="31.3707118" lon="120.8895354">
      </trkpt>
      <trkpt lat="31.3710022" lon="120.8889466">
      </trkpt>
      <trkpt lat="31.371288" lon="120.8884282">
      </trkpt>
      <trkpt lat="31.3721449" lon="120.8871101">
      </trkpt>
      <trkpt lat="31.3729866" lon="120.8860748">
      </trkpt>
      <trkpt lat="31.373922" lon="120.8851663">
      </trkpt>
      <trkpt lat="31.3749652" lon="120.8843416">
      </trkpt>
      <trkpt lat="31.3756755" lon="120.8837929">
      </trkpt>
      <trkpt lat="31.3758803" lon="120.8836303">
      </trkpt>
      <trkpt lat="31.3761413" lon="120.8834201">
      </trkpt>
      <trkpt lat="31.3769665" lon="120.8827595">
      </trkpt>
      <trkpt lat="31.377563" lon="120.8822668">
      </trkpt>
      <trkpt lat="31.3781266" lon="120.8817942">
      </trkpt>
      <trkpt lat="31.3786787" lon="120.8812577">
      </trkpt>
      <trkpt lat="31.3791886" lon="120.8806886">
      </trkpt>
      <trkpt lat="31.3796455" lon="120.8801071">
      </trkpt>
      <trkpt lat="31.3800492" lon="120.8795588">
      </trkpt>
      <trkpt lat="31.3803995" lon="120.8789658">
      </trkpt>
      <trkpt lat="31.38079" lon="120.8782139">
      </trkpt>
      <trkpt lat="31.3812999" lon="120.8771148">
      </trkpt>
      <trkpt lat="31.3815009" lon="120.8765924">
      </trkpt>
      <trkpt lat="31.3816753" lon="120.8760712">
      </trkpt>
      <trkpt lat="31.3818756" lon="120.8752831">
      </trkpt>
      <trkpt lat="31.3819574" lon="120.8749294">
      </trkpt>
      <trkpt lat="31.3820278" lon="120.8745762">
      </trkpt>
      <trkpt lat="31.3821291" lon="120.8739759">
      </trkpt>
      <trkpt lat="31.3821772" lon="120.873646">
      </trkpt>
      <trkpt lat="31.3822109" lon="120.8733465">
      </trkpt>
      <trkpt lat="31.3822551" lon="120.8728279">
      </trkpt>
      <trkpt lat="31.3822745" lon="120.8725181">
      </trkpt>
      <trkpt lat="31.3822826" lon="120.8722231">
      </trkpt>
      <trkpt lat="31.3822894" lon="120.8717966">
      </trkpt>
      <trkpt lat="31.3822867" lon="120.8713856">
      </trkpt>
      <trkpt lat="31.3822584" lon="120.8706393">
      </trkpt>
      <trkpt lat="31.3822361" lon="120.8702012">
      </trkpt>
      <trkpt lat="31.3822024" lon="120.8695409">
      </trkpt>
      <trkpt lat="31.3820627" lon="120.8668077">
      </trkpt>
      <trkpt lat="31.3820169" lon="120.8658341">
      </trkpt>
      <trkpt lat="31.3819368" lon="120.8641523">
      </trkpt>
      <trkpt lat="31.3818429" lon="120.8624008">
      </trkpt>
      <trkpt lat="31.3817367" lon="120.8604373">
      </trkpt>
      <trkpt lat="31.3815292" lon="120.8563605">
      </trkpt>
      <trkpt lat="31.3812306" lon="120.8507382">
      </trkpt>
      <trkpt lat="31.3811743" lon="120.8500586">
      </trkpt>
      <trkpt lat="31.3811033" lon="120.8493935">
      </trkpt>
      <trkpt lat="31.3810305" lon="120.8488971">
      </trkpt>
      <trkpt lat="31.3809822" lon="120.8485654">
      </trkpt>
      <trkpt lat="31.3809144" lon="120.8481851">
      </trkpt>
      <trkpt lat="31.3808033" lon="120.847642">
      </trkpt>
      <trkpt lat="31.3806728" lon="120.8470854">
      </trkpt>
      <trkpt lat="31.3805262" lon="120.8465312">
      </trkpt>
      <trkpt lat="31.3776862" lon="120.8365796">
      </trkpt>
      <trkpt lat="31.3749635" lon="120.8271063">
      </trkpt>
      <trkpt lat="31.3729116" lon="120.8199088">
      </trkpt>
      <trkpt lat="31.3724071" lon="120.8181196">
      </trkpt>
      <trkpt lat="31.3718953" lon="120.8163366">
      </trkpt>
      <trkpt lat="31.370499" lon="120.811465">
      </trkpt>
      <trkpt lat="31.3674461" lon="120.8007359">
      </trkpt>
      <trkpt lat="31.3658327" lon="120.7951612">
      </trkpt>
      <trkpt lat="31.3649461" lon="120.7920752">
      </trkpt>
      <trkpt lat="31.3648729" lon="120.7918203">
      </trkpt>
      <trkpt lat="31.3647704" lon="120.7914635">
      </trkpt>
      <trkpt lat="31.3635792" lon="120.7873063">
      </trkpt>
      <trkpt lat="31.3617171" lon="120.780798">
      </trkpt>
      <trkpt lat="31.3613667" lon="120.7795762">
      </trkpt>
      <trkpt lat="31.3611367" lon="120.7787743">
      </trkpt>
      <trkpt lat="31.3606004" lon="120.7769041">
      </trkpt>
      <trkpt lat="31.3601305" lon="120.7752656">
      </trkpt>
      <trkpt lat="31.3599953" lon="120.774756">
      </trkpt>
      <trkpt lat="31.3597695" lon="120.7737881">
      </trkpt>
      <trkpt lat="31.3579346" lon="120.76543">
      </trkpt>
      <trkpt lat="31.3578757" lon="120.7651757">
      </trkpt>
      <trkpt lat="31.3575375" lon="120.763651">
      </trkpt>
      <trkpt lat="31.3571128" lon="120.7616718">
      </trkpt>
      <trkpt lat="31.3568929" lon="120.7606834">
      </trkpt>
      <trkpt lat="31.3567795" lon="120.7601845">
      </trkpt>
      <trkpt lat="31.3566515" lon="120.759695">
      </trkpt>
      <trkpt lat="31.3565161" lon="120.7592323">
      </trkpt>
      <trkpt lat="31.3563677" lon="120.7587642">
      </trkpt>
      <trkpt lat="31.3561118" lon="120.7580321">
      </trkpt>
      <trkpt lat="31.3558384" lon="120.7573034">
      </trkpt>
      <trkpt lat="31.3527463" lon="120.7500223">
      </trkpt>
      <trkpt lat="31.3521779" lon="120.7486671">
      </trkpt>
      <trkpt lat="31.3521223" lon="120.748535">
      </trkpt>
      <trkpt lat="31.3513843" lon="120.7467794">
      </trkpt>
      <trkpt lat="31.3511597" lon="120.7461606">
      </trkpt>
      <trkpt lat="31.3509329" lon="120.7455169">
      </trkpt>
      <trkpt lat="31.3507302" lon="120.7448785">
      </trkpt>
      <trkpt lat="31.3505458" lon="120.7442031">
      </trkpt>
      <trkpt lat="31.3504004" lon="120.7435857">
      </trkpt>
      <trkpt lat="31.3502573" lon="120.7429564">
      </trkpt>
      <trkpt lat="31.3494578" lon="120.7393062">
      </trkpt>
      <trkpt lat="31.3494286" lon="120.7391708">
      </trkpt>
      <trkpt lat="31.3488072" lon="120.7363346">
      </trkpt>
      <trkpt lat="31.3465679" lon="120.7261552">
      </trkpt>
      <trkpt lat="31.3453464" lon="120.7205165">
      </trkpt>
      <trkpt lat="31.3451891" lon="120.719771">
      </trkpt>
      <trkpt lat="31.3451421" lon="120.7195779">
      </trkpt>
      <trkpt lat="31.3441918" lon="120.7152562">
      </trkpt>
      <trkpt lat="31.3434607" lon="120.7119007">
      </trkpt>
      <trkpt lat="31.3434309" lon="120.7117774">
      </trkpt>
      <trkpt lat="31.3432426" lon="120.7109504">
      </trkpt>
      <trkpt lat="31.3431339" lon="120.7104963">
      </trkpt>
      <trkpt lat="31.3430351" lon="120.7100447">
      </trkpt>
      <trkpt lat="31.3428137" lon="120.7092023">
      </trkpt>
      <trkpt lat="31.3425134" lon="120.7078298">
      </trkpt>
      <trkpt lat="31.3406847" lon="120.6994711">
      </trkpt>
      <trkpt lat="31.3405856" lon="120.6989944">
      </trkpt>
      <trkpt lat="31.3397541" lon="120.6952687">
      </trkpt>
      <trkpt lat="31.3396775" lon="120.6949256">
      </trkpt>
      <trkpt lat="31.3394927" lon="120.6940977">
      </trkpt>
      <trkpt lat="31.338816" lon="120.691013">
      </trkpt>
      <trkpt lat="31.338564" lon="120.689747">
      </trkpt>
      <trkpt lat="31.3384655" lon="120.689114">
      </trkpt>
      <trkpt lat="31.3384197" lon="120.6887989">
      </trkpt>
      <trkpt lat="31.3383813" lon="120.6884728">
      </trkpt>
      <trkpt lat="31.3383235" lon="120.6878132">
      </trkpt>
      <trkpt lat="31.3382777" lon="120.6871158">
      </trkpt>
      <trkpt lat="31.3382582" lon="120.6864385">
      </trkpt>
      <trkpt lat="31.3382498" lon="120.6857435">
      </trkpt>
      <trkpt lat="31.3382479" lon="120.6832668">
      </trkpt>
      <trkpt lat="31.3382476" lon="120.6829579">
      </trkpt>
      <trkpt lat="31.3382457" lon="120.6804846">
      </trkpt>
      <trkpt lat="31.3382449" lon="120.679833">
      </trkpt>
      <trkpt lat="31.3382305" lon="120.6758649">
      </trkpt>
      <trkpt lat="31.3382294" lon="120.6668999">
      </trkpt>
      <trkpt lat="31.338181" lon="120.6491459">
      </trkpt>
      <trkpt lat="31.3381794" lon="120.6487235">
      </trkpt>
      <trkpt lat="31.3381444" lon="120.6456098">
      </trkpt>
      <trkpt lat="31.338142" lon="120.6451558">
      </trkpt>
      <trkpt lat="31.3381037" lon="120.6434896">
      </trkpt>
      <trkpt lat="31.3380749" lon="120.643031">
      </trkpt>
      <trkpt lat="31.3380234" lon="120.6424986">
      </trkpt>
      <trkpt lat="31.3379638" lon="120.6420641">
      </trkpt>
      <trkpt lat="31.3378813" lon="120.6415746">
      </trkpt>
      <trkpt lat="31.3376973" lon="120.6405853">
      </trkpt>
      <trkpt lat="31.3369766" lon="120.6367364">
      </trkpt>
      <trkpt lat="31.3366219" lon="120.634926">
      </trkpt>
      <trkpt lat="31.3352895" lon="120.6280165">
      </trkpt>
      <trkpt lat="31.3345721" lon="120.624163">
      </trkpt>
      <trkpt lat="31.3345423" lon="120.6239806">
      </trkpt>
      <trkpt lat="31.3341282" lon="120.621834">
      </trkpt>
      <trkpt lat="31.333896" lon="120.6206742">
      </trkpt>
      <trkpt lat="31.3329595" lon="120.6157679">
      </trkpt>
      <trkpt lat="31.3329136" lon="120.6155274">
      </trkpt>
      <trkpt lat="31.3325498" lon="120.613621">
      </trkpt>
      <trkpt lat="31.332439" lon="120.6129703">
      </trkpt>
      <trkpt lat="31.3322203" lon="120.611397">
      </trkpt>
      <trkpt lat="31.3320439" lon="120.6100935">
      </trkpt>
    </trkseg>
  </trk>
</gpx>